company,vehicle_type,factor_circumvented,factor_name,geography_factor,geography_type,geography_factor_id,latitude,longitude,county_fips,tract_fips,block_group_fips,zip,place_name_fips,"rate_$50,000_liability",rate_basic_pip,"rate_$1,000,000_ppi",rate_$50_deductible_comprehensive,rate_$200_deductible_collision,generic_location_based_premium,location_effect
Liberty Mutual,Auto,zip,Garaging Territory,Territory,zip,48001,,,,,,48001,,452,2330,106,712,2844,6444,1.0
Liberty Mutual,Auto,zip,Garaging Territory,Territory,zip,48002,,,,,,48002,,473,2082,120,1040,3095,6810,1.06
Liberty Mutual,Auto,zip,Garaging Territory,Territory,zip,48003,,,,,,48003,,473,2082,120,1040,3095,6810,1.06
Liberty Mutual,Auto,zip,Garaging Territory,Territory,zip,48004,,,,,,48004,,473,2082,120,1040,3095,6810,1.06
Liberty Mutual,Auto,zip,Garaging Territory,Territory,zip,48005,,,,,,48005,,465,2111,131,828,3421,6956,1.08
Liberty Mutual,Auto,zip,Garaging Territory,Territory,zip,48006,,,,,,48006,,473,2082,120,1040,3095,6810,1.06
Liberty Mutual,Auto,zip,Garaging Territory,Territory,zip,48007,,,,,,48007,,451,1837,116,687,3378,6469,1.0
Liberty Mutual,Auto,zip,Garaging Territory,Territory,zip,48009,,,,,,48009,,405,1670,110,744,3126,6055,0.94
Liberty Mutual,Auto,zip,Garaging Territory,Territory,zip,48012,,,,,,48012,,405,1670,110,744,3126,6055,0.94
Liberty Mutual,Auto,zip,Garaging Territory,Territory,zip,48014,,,,,,48014,,473,2082,120,1040,3095,6810,1.06
Liberty Mutual,Auto,zip,Garaging Territory,Territory,zip,48015,,,,,,48015,,594,2710,150,1411,3731,8596,1.33
Liberty Mutual,Auto,zip,Garaging Territory,Territory,zip,48017,,,,,,48017,,405,1670,110,744,3126,6055,0.94
Liberty Mutual,Auto,zip,Garaging Territory,Territory,zip,48021,,,,,,48021,,418,2222,101,1651,3187,7579,1.18
Liberty Mutual,Auto,zip,Garaging Territory,Territory,zip,48022,,,,,,48022,,473,2082,120,1040,3095,6810,1.06
Liberty Mutual,Auto,zip,Garaging Territory,Territory,zip,48023,,,,,,48023,,473,2082,120,1040,3095,6810,1.06
Liberty Mutual,Auto,zip,Garaging Territory,Territory,zip,48025,,,,,,48025,,405,1670,110,744,3126,6055,0.94
Liberty Mutual,Auto,zip,Garaging Territory,Territory,zip,48026,,,,,,48026,,400,2190,104,721,3360,6775,1.05
Liberty Mutual,Auto,zip,Garaging Territory,Territory,zip,48027,,,,,,48027,,473,2082,120,1040,3095,6810,1.06
Liberty Mutual,Auto,zip,Garaging Territory,Territory,zip,48028,,,,,,48028,,452,2330,106,712,2844,6444,1.0
Liberty Mutual,Auto,zip,Garaging Territory,Territory,zip,48030,,,,,,48030,,594,2710,150,1411,3731,8596,1.33
Liberty Mutual,Auto,zip,Garaging Territory,Territory,zip,48032,,,,,,48032,,473,2082,120,1040,3095,6810,1.06
Liberty Mutual,Auto,zip,Garaging Territory,Territory,zip,48034,,,,,,48034,,561,2630,128,1724,3610,8653,1.34
Liberty Mutual,Auto,zip,Garaging Territory,Territory,zip,48035,,,,,,48035,,400,2190,104,721,3360,6775,1.05
Liberty Mutual,Auto,zip,Garaging Territory,Territory,zip,48036,,,,,,48036,,400,2190,104,721,3360,6775,1.05
Liberty Mutual,Auto,zip,Garaging Territory,Territory,zip,48037,,,,,,48037,,561,2630,128,1724,3610,8653,1.34
Liberty Mutual,Auto,zip,Garaging Territory,Territory,zip,48038,,,,,,48038,,400,2190,104,721,3360,6775,1.05
Liberty Mutual,Auto,zip,Garaging Territory,Territory,zip,48039,,,,,,48039,,452,2330,106,712,2844,6444,1.0
Liberty Mutual,Auto,zip,Garaging Territory,Territory,zip,48040,,,,,,48040,,452,2330,106,712,2844,6444,1.0
Liberty Mutual,Auto,zip,Garaging Territory,Territory,zip,48041,,,,,,48041,,473,2082,120,1040,3095,6810,1.06
Liberty Mutual,Auto,zip,Garaging Territory,Territory,zip,48042,,,,,,48042,,465,2111,131,828,3421,6956,1.08
Liberty Mutual,Auto,zip,Garaging Territory,Territory,zip,48043,,,,,,48043,,400,2190,104,721,3360,6775,1.05
Liberty Mutual,Auto,zip,Garaging Territory,Territory,zip,48044,,,,,,48044,,400,2190,104,721,3360,6775,1.05
Liberty Mutual,Auto,zip,Garaging Territory,Territory,zip,48045,,,,,,48045,,400,2190,104,721,3360,6775,1.05
Liberty Mutual,Auto,zip,Garaging Territory,Territory,zip,48046,,,,,,48046,,400,2190,104,721,3360,6775,1.05
Liberty Mutual,Auto,zip,Garaging Territory,Territory,zip,48047,,,,,,48047,,465,2111,131,828,3421,6956,1.08
Liberty Mutual,Auto,zip,Garaging Territory,Territory,zip,48048,,,,,,48048,,465,2111,131,828,3421,6956,1.08
Liberty Mutual,Auto,zip,Garaging Territory,Territory,zip,48049,,,,,,48049,,473,2082,120,1040,3095,6810,1.06
Liberty Mutual,Auto,zip,Garaging Territory,Territory,zip,48050,,,,,,48050,,465,2111,131,828,3421,6956,1.08
Liberty Mutual,Auto,zip,Garaging Territory,Territory,zip,48051,,,,,,48051,,465,2111,131,828,3421,6956,1.08
Liberty Mutual,Auto,zip,Garaging Territory,Territory,zip,48054,,,,,,48054,,452,2330,106,712,2844,6444,1.0
Liberty Mutual,Auto,zip,Garaging Territory,Territory,zip,48059,,,,,,48059,,452,2330,106,712,2844,6444,1.0
Liberty Mutual,Auto,zip,Garaging Territory,Territory,zip,48060,,,,,,48060,,452,2330,106,712,2844,6444,1.0
Liberty Mutual,Auto,zip,Garaging Territory,Territory,zip,48061,,,,,,48061,,452,2330,106,712,2844,6444,1.0
Liberty Mutual,Auto,zip,Garaging Territory,Territory,zip,48062,,,,,,48062,,465,2111,131,828,3421,6956,1.08
Liberty Mutual,Auto,zip,Garaging Territory,Territory,zip,48063,,,,,,48063,,473,2082,120,1040,3095,6810,1.06
Liberty Mutual,Auto,zip,Garaging Territory,Territory,zip,48064,,,,,,48064,,473,2082,120,1040,3095,6810,1.06
Liberty Mutual,Auto,zip,Garaging Territory,Territory,zip,48065,,,,,,48065,,465,2111,131,828,3421,6956,1.08
Liberty Mutual,Auto,zip,Garaging Territory,Territory,zip,48066,,,,,,48066,,400,2190,104,721,3360,6775,1.05
Liberty Mutual,Auto,zip,Garaging Territory,Territory,zip,48067,,,,,,48067,,561,2630,128,1724,3610,8653,1.34
Liberty Mutual,Auto,zip,Garaging Territory,Territory,zip,48068,,,,,,48068,,561,2630,128,1724,3610,8653,1.34
Liberty Mutual,Auto,zip,Garaging Territory,Territory,zip,48069,,,,,,48069,,561,2630,128,1724,3610,8653,1.34
Liberty Mutual,Auto,zip,Garaging Territory,Territory,zip,48070,,,,,,48070,,561,2630,128,1724,3610,8653,1.34
Liberty Mutual,Auto,zip,Garaging Territory,Territory,zip,48071,,,,,,48071,,405,1670,110,744,3126,6055,0.94
Liberty Mutual,Auto,zip,Garaging Territory,Territory,zip,48072,,,,,,48072,,405,1670,110,744,3126,6055,0.94
Liberty Mutual,Auto,zip,Garaging Territory,Territory,zip,48279,,,,,,48279,,798,5120,191,3911,4655,14675,2.28
Liberty Mutual,Auto,zip,Garaging Territory,Territory,zip,48288,,,,,,48288,,746,4784,184,3039,6030,14783,2.29
Liberty Mutual,Auto,zip,Garaging Territory,Territory,zip,48301,,,,,,48301,,451,1837,116,687,3378,6469,1.0
Liberty Mutual,Auto,zip,Garaging Territory,Territory,zip,48302,,,,,,48302,,451,1837,116,687,3378,6469,1.0
Liberty Mutual,Auto,zip,Garaging Territory,Territory,zip,48303,,,,,,48303,,451,1837,116,687,3378,6469,1.0
Liberty Mutual,Auto,zip,Garaging Territory,Territory,zip,48304,,,,,,48304,,451,1837,116,687,3378,6469,1.0
Liberty Mutual,Auto,zip,Garaging Territory,Territory,zip,48306,,,,,,48306,,451,1837,116,687,3378,6469,1.0
Liberty Mutual,Auto,zip,Garaging Territory,Territory,zip,48307,,,,,,48307,,451,1837,116,687,3378,6469,1.0
Liberty Mutual,Auto,zip,Garaging Territory,Territory,zip,48308,,,,,,48308,,451,1837,116,687,3378,6469,1.0
Liberty Mutual,Auto,zip,Garaging Territory,Territory,zip,48309,,,,,,48309,,451,1837,116,687,3378,6469,1.0
Liberty Mutual,Auto,zip,Garaging Territory,Territory,zip,48310,,,,,,48310,,400,2190,104,721,3360,6775,1.05
Liberty Mutual,Auto,zip,Garaging Territory,Territory,zip,48311,,,,,,48311,,400,2190,104,721,3360,6775,1.05
Liberty Mutual,Auto,zip,Garaging Territory,Territory,zip,48312,,,,,,48312,,400,2190,104,721,3360,6775,1.05
Liberty Mutual,Auto,zip,Garaging Territory,Territory,zip,48313,,,,,,48313,,400,2190,104,721,3360,6775,1.05
Liberty Mutual,Auto,zip,Garaging Territory,Territory,zip,48314,,,,,,48314,,400,2190,104,721,3360,6775,1.05
Liberty Mutual,Auto,zip,Garaging Territory,Territory,zip,48315,,,,,,48315,,400,2190,104,721,3360,6775,1.05
Liberty Mutual,Auto,zip,Garaging Territory,Territory,zip,48316,,,,,,48316,,400,2190,104,721,3360,6775,1.05
Liberty Mutual,Auto,zip,Garaging Territory,Territory,zip,48317,,,,,,48317,,400,2190,104,721,3360,6775,1.05
Liberty Mutual,Auto,zip,Garaging Territory,Territory,zip,48318,,,,,,48318,,400,2190,104,721,3360,6775,1.05
Liberty Mutual,Auto,zip,Garaging Territory,Territory,zip,48320,,,,,,48320,,451,1837,116,687,3378,6469,1.0
Liberty Mutual,Auto,zip,Garaging Territory,Territory,zip,48321,,,,,,48321,,474,2250,119,1033,3389,7265,1.13
Liberty Mutual,Auto,zip,Garaging Territory,Territory,zip,48322,,,,,,48322,,451,1837,116,687,3378,6469,1.0
Liberty Mutual,Auto,zip,Garaging Territory,Territory,zip,48323,,,,,,48323,,451,1837,116,687,3378,6469,1.0
Liberty Mutual,Auto,zip,Garaging Territory,Territory,zip,48324,,,,,,48324,,451,1837,116,687,3378,6469,1.0
Liberty Mutual,Auto,zip,Garaging Territory,Territory,zip,48325,,,,,,48325,,451,1837,116,687,3378,6469,1.0
Liberty Mutual,Auto,zip,Garaging Territory,Territory,zip,48326,,,,,,48326,,474,2250,119,1033,3389,7265,1.13
Liberty Mutual,Auto,zip,Garaging Territory,Territory,zip,48327,,,,,,48327,,451,1837,116,687,3378,6469,1.0
Liberty Mutual,Auto,zip,Garaging Territory,Territory,zip,48328,,,,,,48328,,451,1837,116,687,3378,6469,1.0
Liberty Mutual,Auto,zip,Garaging Territory,Territory,zip,48329,,,,,,48329,,451,1837,116,687,3378,6469,1.0
Liberty Mutual,Auto,zip,Garaging Territory,Territory,zip,48330,,,,,,48330,,451,1837,116,687,3378,6469,1.0
Liberty Mutual,Auto,zip,Garaging Territory,Territory,zip,48331,,,,,,48331,,405,1670,110,744,3126,6055,0.94
Liberty Mutual,Auto,zip,Garaging Territory,Territory,zip,48332,,,,,,48332,,405,1670,110,744,3126,6055,0.94
Liberty Mutual,Auto,zip,Garaging Territory,Territory,zip,48333,,,,,,48333,,405,1670,110,744,3126,6055,0.94
Liberty Mutual,Auto,zip,Garaging Territory,Territory,zip,48334,,,,,,48334,,405,1670,110,744,3126,6055,0.94
Liberty Mutual,Auto,zip,Garaging Territory,Territory,zip,48335,,,,,,48335,,405,1670,110,744,3126,6055,0.94
Liberty Mutual,Auto,zip,Garaging Territory,Territory,zip,48336,,,,,,48336,,405,1670,110,744,3126,6055,0.94
Liberty Mutual,Auto,zip,Garaging Territory,Territory,zip,48340,,,,,,48340,,626,3435,153,1338,4557,10109,1.57
Liberty Mutual,Auto,zip,Garaging Territory,Territory,zip,48341,,,,,,48341,,574,3001,142,1392,4446,9555,1.48
Liberty Mutual,Auto,zip,Garaging Territory,Territory,zip,48342,,,,,,48342,,626,3435,153,1338,4557,10109,1.57
Liberty Mutual,Auto,zip,Garaging Territory,Territory,zip,48343,,,,,,48343,,626,3435,153,1338,4557,10109,1.57
Liberty Mutual,Auto,zip,Garaging Territory,Territory,zip,48346,,,,,,48346,,404,1811,98,801,2943,6057,0.94
Liberty Mutual,Auto,zip,Garaging Territory,Territory,zip,48347,,,,,,48347,,404,1811,98,801,2943,6057,0.94
Liberty Mutual,Auto,zip,Garaging Territory,Territory,zip,48348,,,,,,48348,,404,1811,98,801,2943,6057,0.94
Liberty Mutual,Auto,zip,Garaging Territory,Territory,zip,48350,,,,,,48350,,404,1811,98,801,2943,6057,0.94
Liberty Mutual,Auto,zip,Garaging Territory,Territory,zip,48353,,,,,,48353,,359,1568,92,831,2540,5390,0.84
Liberty Mutual,Auto,zip,Garaging Territory,Territory,zip,48356,,,,,,48356,,507,1744,123,765,2955,6094,0.95
Liberty Mutual,Auto,zip,Garaging Territory,Territory,zip,48357,,,,,,48357,,507,1744,123,765,2955,6094,0.95
Liberty Mutual,Auto,zip,Garaging Territory,Territory,zip,48359,,,,,,48359,,404,1811,98,801,2943,6057,0.94
Liberty Mutual,Auto,zip,Garaging Territory,Territory,zip,48360,,,,,,48360,,404,1811,98,801,2943,6057,0.94
Liberty Mutual,Auto,zip,Garaging Territory,Territory,zip,48361,,,,,,48361,,404,1811,98,801,2943,6057,0.94
Liberty Mutual,Auto,zip,Garaging Territory,Territory,zip,48362,,,,,,48362,,404,1811,98,801,2943,6057,0.94
Liberty Mutual,Auto,zip,Garaging Territory,Territory,zip,48363,,,,,,48363,,404,1811,98,801,2943,6057,0.94
Liberty Mutual,Auto,zip,Garaging Territory,Territory,zip,48366,,,,,,48366,,404,1811,98,801,2943,6057,0.94
Liberty Mutual,Auto,zip,Garaging Territory,Territory,zip,48367,,,,,,48367,,404,1811,98,801,2943,6057,0.94
Liberty Mutual,Auto,zip,Garaging Territory,Territory,zip,48707,,,,,,48707,,337,1630,89,657,2320,5033,0.78
Liberty Mutual,Auto,zip,Garaging Territory,Territory,zip,48708,,,,,,48708,,337,1630,89,657,2320,5033,0.78
Liberty Mutual,Auto,zip,Garaging Territory,Territory,zip,48710,,,,,,48710,,337,1630,89,657,2320,5033,0.78
Liberty Mutual,Auto,zip,Garaging Territory,Territory,zip,48720,,,,,,48720,,427,2058,104,1147,2483,6219,0.97
Liberty Mutual,Auto,zip,Garaging Territory,Territory,zip,48721,,,,,,48721,,371,1553,101,1218,2108,5351,0.83
Liberty Mutual,Auto,zip,Garaging Territory,Territory,zip,48722,,,,,,48722,,330,1539,93,577,2353,4892,0.76
Liberty Mutual,Auto,zip,Garaging Territory,Territory,zip,48723,,,,,,48723,,427,2058,104,1147,2483,6219,0.97
Liberty Mutual,Auto,zip,Garaging Territory,Territory,zip,48724,,,,,,48724,,330,1539,93,577,2353,4892,0.76
Liberty Mutual,Auto,zip,Garaging Territory,Territory,zip,48725,,,,,,48725,,427,2058,104,1147,2483,6219,0.97
Liberty Mutual,Auto,zip,Garaging Territory,Territory,zip,48726,,,,,,48726,,427,2058,104,1147,2483,6219,0.97
Liberty Mutual,Auto,zip,Garaging Territory,Territory,zip,48727,,,,,,48727,,473,2082,120,1040,3095,6810,1.06
Liberty Mutual,Auto,zip,Garaging Territory,Territory,zip,48728,,,,,,48728,,371,1553,101,1218,2108,5351,0.83
Liberty Mutual,Auto,zip,Garaging Territory,Territory,zip,48729,,,,,,48729,,427,2058,104,1147,2483,6219,0.97
Liberty Mutual,Auto,zip,Garaging Territory,Territory,zip,48730,,,,,,48730,,371,1553,101,1218,2108,5351,0.83
Liberty Mutual,Auto,zip,Garaging Territory,Territory,zip,48731,,,,,,48731,,427,2058,104,1147,2483,6219,0.97
Liberty Mutual,Auto,zip,Garaging Territory,Territory,zip,48732,,,,,,48732,,337,1630,89,657,2320,5033,0.78
Liberty Mutual,Auto,zip,Garaging Territory,Territory,zip,48733,,,,,,48733,,427,2058,104,1147,2483,6219,0.97
Liberty Mutual,Auto,zip,Garaging Territory,Territory,zip,48734,,,,,,48734,,330,1539,93,577,2353,4892,0.76
Liberty Mutual,Auto,zip,Garaging Territory,Territory,zip,48735,,,,,,48735,,427,2058,104,1147,2483,6219,0.97
Liberty Mutual,Auto,zip,Garaging Territory,Territory,zip,48736,,,,,,48736,,427,2058,104,1147,2483,6219,0.97
Liberty Mutual,Auto,zip,Garaging Territory,Territory,zip,48737,,,,,,48737,,371,1553,101,1218,2108,5351,0.83
Liberty Mutual,Auto,zip,Garaging Territory,Territory,zip,48738,,,,,,48738,,371,1553,101,1218,2108,5351,0.83
Liberty Mutual,Auto,zip,Garaging Territory,Territory,zip,48739,,,,,,48739,,371,1553,101,1218,2108,5351,0.83
Liberty Mutual,Auto,zip,Garaging Territory,Territory,zip,48740,,,,,,48740,,371,1553,101,1218,2108,5351,0.83
Liberty Mutual,Auto,zip,Garaging Territory,Territory,zip,48741,,,,,,48741,,427,2058,104,1147,2483,6219,0.97
Liberty Mutual,Auto,zip,Garaging Territory,Territory,zip,48742,,,,,,48742,,371,1553,101,1218,2108,5351,0.83
Liberty Mutual,Auto,zip,Garaging Territory,Territory,zip,48743,,,,,,48743,,371,1553,101,1218,2108,5351,0.83
Liberty Mutual,Auto,zip,Garaging Territory,Territory,zip,48744,,,,,,48744,,427,2058,104,1147,2483,6219,0.97
Liberty Mutual,Auto,zip,Garaging Territory,Territory,zip,48745,,,,,,48745,,371,1553,101,1218,2108,5351,0.83
Liberty Mutual,Auto,zip,Garaging Territory,Territory,zip,48746,,,,,,48746,,427,2058,104,1147,2483,6219,0.97
Liberty Mutual,Auto,zip,Garaging Territory,Territory,zip,48747,,,,,,48747,,337,1630,89,657,2320,5033,0.78
Liberty Mutual,Auto,zip,Garaging Territory,Territory,zip,48748,,,,,,48748,,371,1553,101,1218,2108,5351,0.83
Liberty Mutual,Auto,zip,Garaging Territory,Territory,zip,48749,,,,,,48749,,455,1820,115,1411,2383,6184,0.96
Liberty Mutual,Auto,zip,Garaging Territory,Territory,zip,48750,,,,,,48750,,371,1553,101,1218,2108,5351,0.83
Liberty Mutual,Auto,zip,Garaging Territory,Territory,zip,48754,,,,,,48754,,427,2058,104,1147,2483,6219,0.97
Liberty Mutual,Auto,zip,Garaging Territory,Territory,zip,48755,,,,,,48755,,427,2058,104,1147,2483,6219,0.97
Liberty Mutual,Auto,zip,Garaging Territory,Territory,zip,48756,,,,,,48756,,371,1553,101,1218,2108,5351,0.83
Liberty Mutual,Auto,zip,Garaging Territory,Territory,zip,48757,,,,,,48757,,330,1539,93,577,2353,4892,0.76
Liberty Mutual,Auto,zip,Garaging Territory,Territory,zip,48758,,,,,,48758,,427,2058,104,1147,2483,6219,0.97
Liberty Mutual,Auto,zip,Garaging Territory,Territory,zip,48759,,,,,,48759,,427,2058,104,1147,2483,6219,0.97
Liberty Mutual,Auto,zip,Garaging Territory,Territory,zip,48760,,,,,,48760,,473,2082,120,1040,3095,6810,1.06
Liberty Mutual,Auto,zip,Garaging Territory,Territory,zip,48761,,,,,,48761,,371,1553,101,1218,2108,5351,0.83
Liberty Mutual,Auto,zip,Garaging Territory,Territory,zip,48762,,,,,,48762,,371,1553,101,1218,2108,5351,0.83
Liberty Mutual,Auto,zip,Garaging Territory,Territory,zip,48763,,,,,,48763,,371,1553,101,1218,2108,5351,0.83
Liberty Mutual,Auto,zip,Garaging Territory,Territory,zip,48764,,,,,,48764,,371,1553,101,1218,2108,5351,0.83
Liberty Mutual,Auto,zip,Garaging Territory,Territory,zip,48765,,,,,,48765,,455,1820,115,1411,2383,6184,0.96
Liberty Mutual,Auto,zip,Garaging Territory,Territory,zip,48766,,,,,,48766,,455,1820,115,1411,2383,6184,0.96
Liberty Mutual,Auto,zip,Garaging Territory,Territory,zip,48767,,,,,,48767,,427,2058,104,1147,2483,6219,0.97
Liberty Mutual,Auto,zip,Garaging Territory,Territory,zip,48768,,,,,,48768,,427,2058,104,1147,2483,6219,0.97
Liberty Mutual,Auto,zip,Garaging Territory,Territory,zip,48769,,,,,,48769,,427,2058,104,1147,2483,6219,0.97
Liberty Mutual,Auto,zip,Garaging Territory,Territory,zip,48770,,,,,,48770,,371,1553,101,1218,2108,5351,0.83
Liberty Mutual,Auto,zip,Garaging Territory,Territory,zip,48787,,,,,,48787,,330,1539,93,577,2353,4892,0.76
Liberty Mutual,Auto,zip,Garaging Territory,Territory,zip,48801,,,,,,48801,,366,1775,95,1443,2528,6207,0.96
Liberty Mutual,Auto,zip,Garaging Territory,Territory,zip,48802,,,,,,48802,,366,1775,95,1443,2528,6207,0.96
Liberty Mutual,Auto,zip,Garaging Territory,Territory,zip,49055,,,,,,49055,,419,1601,110,903,2492,5525,0.86
Liberty Mutual,Auto,zip,Garaging Territory,Territory,zip,49056,,,,,,49056,,419,1601,110,903,2492,5525,0.86
Liberty Mutual,Auto,zip,Garaging Territory,Territory,zip,49057,,,,,,49057,,419,1601,110,903,2492,5525,0.86
Liberty Mutual,Auto,zip,Garaging Territory,Territory,zip,49058,,,,,,49058,,386,1840,97,1439,2454,6216,0.96
Liberty Mutual,Auto,zip,Garaging Territory,Territory,zip,49060,,,,,,49060,,386,1840,97,1439,2454,6216,0.96
Liberty Mutual,Auto,zip,Garaging Territory,Territory,zip,49061,,,,,,49061,,419,1601,110,903,2492,5525,0.86
Liberty Mutual,Auto,zip,Garaging Territory,Territory,zip,49062,,,,,,49062,,352,1338,105,645,2498,4938,0.77
Liberty Mutual,Auto,zip,Garaging Territory,Territory,zip,49063,,,,,,49063,,419,1601,110,903,2492,5525,0.86
Liberty Mutual,Auto,zip,Garaging Territory,Territory,zip,49064,,,,,,49064,,419,1601,110,903,2492,5525,0.86
Liberty Mutual,Auto,zip,Garaging Territory,Territory,zip,49065,,,,,,49065,,419,1601,110,903,2492,5525,0.86
Liberty Mutual,Auto,zip,Garaging Territory,Territory,zip,49066,,,,,,49066,,421,1699,112,1081,2240,5553,0.86
Liberty Mutual,Auto,zip,Garaging Territory,Territory,zip,49067,,,,,,49067,,419,1601,110,903,2492,5525,0.86
Liberty Mutual,Auto,zip,Garaging Territory,Territory,zip,49068,,,,,,49068,,351,1650,103,1116,2326,5546,0.86
Liberty Mutual,Auto,zip,Garaging Territory,Territory,zip,49069,,,,,,49069,,351,1650,103,1116,2326,5546,0.86
Liberty Mutual,Auto,zip,Garaging Territory,Territory,zip,49070,,,,,,49070,,349,1842,94,859,2604,5748,0.89
Liberty Mutual,Auto,zip,Garaging Territory,Territory,zip,49071,,,,,,49071,,352,1338,105,645,2498,4938,0.77
Liberty Mutual,Auto,zip,Garaging Territory,Territory,zip,49072,,,,,,49072,,421,1699,112,1081,2240,5553,0.86
Liberty Mutual,Auto,zip,Garaging Territory,Territory,zip,49073,,,,,,49073,,386,1840,97,1439,2454,6216,0.96
Liberty Mutual,Auto,zip,Garaging Territory,Territory,zip,49074,,,,,,49074,,352,1338,105,645,2498,4938,0.77
Liberty Mutual,Auto,zip,Garaging Territory,Territory,zip,49075,,,,,,49075,,421,1699,112,1081,2240,5553,0.86
Liberty Mutual,Auto,zip,Garaging Territory,Territory,zip,49076,,,,,,49076,,386,1840,97,1439,2454,6216,0.96
Liberty Mutual,Auto,zip,Garaging Territory,Territory,zip,49077,,,,,,49077,,352,1338,105,645,2498,4938,0.77
Liberty Mutual,Auto,zip,Garaging Territory,Territory,zip,49078,,,,,,49078,,352,1338,105,645,2498,4938,0.77
Liberty Mutual,Auto,zip,Garaging Territory,Territory,zip,49079,,,,,,49079,,352,1338,105,645,2498,4938,0.77
Liberty Mutual,Auto,zip,Garaging Territory,Territory,zip,49080,,,,,,49080,,352,1338,105,645,2498,4938,0.77
Liberty Mutual,Auto,zip,Garaging Territory,Territory,zip,49081,,,,,,49081,,352,1338,105,645,2498,4938,0.77
Liberty Mutual,Auto,zip,Garaging Territory,Territory,zip,49082,,,,,,49082,,421,1699,112,1081,2240,5553,0.86
Liberty Mutual,Auto,zip,Garaging Territory,Territory,zip,49083,,,,,,49083,,357,1339,100,640,2451,4887,0.76
Liberty Mutual,Auto,zip,Garaging Territory,Territory,zip,49084,,,,,,49084,,426,1640,122,623,2064,4875,0.76
Liberty Mutual,Auto,zip,Garaging Territory,Territory,zip,49085,,,,,,49085,,426,1640,122,623,2064,4875,0.76
Liberty Mutual,Auto,zip,Garaging Territory,Territory,zip,49087,,,,,,49087,,352,1338,105,645,2498,4938,0.77
Liberty Mutual,Auto,zip,Garaging Territory,Territory,zip,49088,,,,,,49088,,352,1338,105,645,2498,4938,0.77
Liberty Mutual,Auto,zip,Garaging Territory,Territory,zip,49089,,,,,,49089,,421,1699,112,1081,2240,5553,0.86
Liberty Mutual,Auto,zip,Garaging Territory,Territory,zip,49090,,,,,,49090,,349,1842,94,859,2604,5748,0.89
Liberty Mutual,Auto,zip,Garaging Territory,Territory,zip,49091,,,,,,49091,,421,1699,112,1081,2240,5553,0.86
Liberty Mutual,Auto,zip,Garaging Territory,Territory,zip,49092,,,,,,49092,,351,1650,103,1116,2326,5546,0.86
Liberty Mutual,Auto,zip,Garaging Territory,Territory,zip,49093,,,,,,49093,,421,1699,112,1081,2240,5553,0.86
Liberty Mutual,Auto,zip,Garaging Territory,Territory,zip,49094,,,,,,49094,,421,1699,112,1081,2240,5553,0.86
Liberty Mutual,Auto,zip,Garaging Territory,Territory,zip,49095,,,,,,49095,,419,1601,110,903,2492,5525,0.86
Liberty Mutual,Auto,zip,Garaging Territory,Territory,zip,49096,,,,,,49096,,386,1840,97,1439,2454,6216,0.96
Liberty Mutual,Auto,zip,Garaging Territory,Territory,zip,49097,,,,,,49097,,352,1338,105,645,2498,4938,0.77
Liberty Mutual,Auto,zip,Garaging Territory,Territory,zip,49098,,,,,,49098,,419,1601,110,903,2492,5525,0.86
Liberty Mutual,Auto,zip,Garaging Territory,Territory,zip,49099,,,,,,49099,,421,1699,112,1081,2240,5553,0.86
Liberty Mutual,Auto,zip,Garaging Territory,Territory,zip,49101,,,,,,49101,,426,1640,122,623,2064,4875,0.76
Liberty Mutual,Auto,zip,Garaging Territory,Territory,zip,49102,,,,,,49102,,426,1640,122,623,2064,4875,0.76
Liberty Mutual,Auto,zip,Garaging Territory,Territory,zip,49103,,,,,,49103,,426,1640,122,623,2064,4875,0.76
Liberty Mutual,Auto,zip,Garaging Territory,Territory,zip,49104,,,,,,49104,,426,1640,122,623,2064,4875,0.76
Liberty Mutual,Auto,zip,Garaging Territory,Territory,zip,49106,,,,,,49106,,426,1640,122,623,2064,4875,0.76
Liberty Mutual,Auto,zip,Garaging Territory,Territory,zip,49107,,,,,,49107,,426,1640,122,623,2064,4875,0.76
Liberty Mutual,Auto,zip,Garaging Territory,Territory,zip,49111,,,,,,49111,,426,1640,122,623,2064,4875,0.76
Liberty Mutual,Auto,zip,Garaging Territory,Territory,zip,49112,,,,,,49112,,419,1601,110,903,2492,5525,0.86
Liberty Mutual,Auto,zip,Garaging Territory,Territory,zip,49113,,,,,,49113,,426,1640,122,623,2064,4875,0.76
Liberty Mutual,Auto,zip,Garaging Territory,Territory,zip,49115,,,,,,49115,,426,1640,122,623,2064,4875,0.76
Liberty Mutual,Auto,zip,Garaging Territory,Territory,zip,49116,,,,,,49116,,426,1640,122,623,2064,4875,0.76
Liberty Mutual,Auto,zip,Garaging Territory,Territory,zip,49446,,,,,,49446,,366,1775,95,1443,2528,6207,0.96
Liberty Mutual,Auto,zip,Garaging Territory,Territory,zip,49448,,,,,,49448,,288,1142,81,581,2609,4701,0.73
Liberty Mutual,Auto,zip,Garaging Territory,Territory,zip,49449,,,,,,49449,,366,1775,95,1443,2528,6207,0.96
Liberty Mutual,Auto,zip,Garaging Territory,Territory,zip,49450,,,,,,49450,,349,1842,94,859,2604,5748,0.89
Liberty Mutual,Auto,zip,Garaging Territory,Territory,zip,49451,,,,,,49451,,351,1576,101,727,2601,5356,0.83
Liberty Mutual,Auto,zip,Garaging Territory,Territory,zip,49452,,,,,,49452,,366,1775,95,1443,2528,6207,0.96
Liberty Mutual,Auto,zip,Garaging Territory,Territory,zip,49453,,,,,,49453,,288,1142,81,581,2609,4701,0.73
Liberty Mutual,Auto,zip,Garaging Territory,Territory,zip,49454,,,,,,49454,,366,1775,95,1443,2528,6207,0.96
Liberty Mutual,Auto,zip,Garaging Territory,Territory,zip,49455,,,,,,49455,,366,1775,95,1443,2528,6207,0.96
Liberty Mutual,Auto,zip,Garaging Territory,Territory,zip,49456,,,,,,49456,,288,1142,81,581,2609,4701,0.73
Liberty Mutual,Auto,zip,Garaging Territory,Territory,zip,49457,,,,,,49457,,351,1576,101,727,2601,5356,0.83
Liberty Mutual,Auto,zip,Garaging Territory,Territory,zip,49458,,,,,,49458,,366,1775,95,1443,2528,6207,0.96
Liberty Mutual,Auto,zip,Garaging Territory,Territory,zip,49459,,,,,,49459,,366,1775,95,1443,2528,6207,0.96
Liberty Mutual,Auto,zip,Garaging Territory,Territory,zip,49460,,,,,,49460,,288,1142,81,581,2609,4701,0.73
Liberty Mutual,Auto,zip,Garaging Territory,Territory,zip,49461,,,,,,49461,,351,1576,101,727,2601,5356,0.83
Liberty Mutual,Auto,zip,Garaging Territory,Territory,zip,49463,,,,,,49463,,351,1576,101,727,2601,5356,0.83
Liberty Mutual,Auto,zip,Garaging Territory,Territory,zip,49464,,,,,,49464,,288,1142,81,581,2609,4701,0.73
Liberty Mutual,Auto,zip,Garaging Territory,Territory,zip,49468,,,,,,49468,,370,1270,101,595,2818,5154,0.8
Liberty Mutual,Auto,zip,Garaging Territory,Territory,zip,49501,,,,,,49501,,388,1405,117,674,3499,6083,0.94
Liberty Mutual,Auto,zip,Garaging Territory,Territory,zip,49502,,,,,,49502,,388,1405,117,674,3499,6083,0.94
Liberty Mutual,Auto,zip,Garaging Territory,Territory,zip,49503,,,,,,49503,,388,1405,117,674,3499,6083,0.94
Liberty Mutual,Auto,zip,Garaging Territory,Territory,zip,49504,,,,,,49504,,388,1405,117,674,3499,6083,0.94
Liberty Mutual,Auto,zip,Garaging Territory,Territory,zip,49505,,,,,,49505,,370,1270,101,595,2818,5154,0.8
Liberty Mutual,Auto,zip,Garaging Territory,Territory,zip,49506,,,,,,49506,,370,1270,101,595,2818,5154,0.8
Liberty Mutual,Auto,zip,Garaging Territory,Territory,zip,49507,,,,,,49507,,388,1405,117,674,3499,6083,0.94
Liberty Mutual,Auto,zip,Garaging Territory,Territory,zip,49508,,,,,,49508,,370,1270,101,595,2818,5154,0.8
Liberty Mutual,Auto,zip,Garaging Territory,Territory,zip,49509,,,,,,49509,,370,1270,101,595,2818,5154,0.8
Liberty Mutual,Auto,zip,Garaging Territory,Territory,zip,49510,,,,,,49510,,388,1405,117,674,3499,6083,0.94
Liberty Mutual,Auto,zip,Garaging Territory,Territory,zip,49512,,,,,,49512,,370,1270,101,595,2818,5154,0.8
Liberty Mutual,Auto,zip,Garaging Territory,Territory,zip,49514,,,,,,49514,,388,1405,117,674,3499,6083,0.94
Liberty Mutual,Auto,zip,Garaging Territory,Territory,zip,49515,,,,,,49515,,388,1405,117,674,3499,6083,0.94
Liberty Mutual,Auto,zip,Garaging Territory,Territory,zip,49516,,,,,,49516,,370,1270,101,595,2818,5154,0.8
Liberty Mutual,Auto,zip,Garaging Territory,Territory,zip,49518,,,,,,49518,,388,1405,117,674,3499,6083,0.94
Liberty Mutual,Auto,zip,Garaging Territory,Territory,zip,49519,,,,,,49519,,370,1270,101,595,2818,5154,0.8
Liberty Mutual,Auto,zip,Garaging Territory,Territory,zip,49523,,,,,,49523,,388,1405,117,674,3499,6083,0.94
Liberty Mutual,Auto,zip,Garaging Territory,Territory,zip,49525,,,,,,49525,,370,1270,101,595,2818,5154,0.8
Liberty Mutual,Auto,zip,Garaging Territory,Territory,zip,49528,,,,,,49528,,370,1270,101,595,2818,5154,0.8
Liberty Mutual,Auto,zip,Garaging Territory,Territory,zip,49530,,,,,,49530,,370,1270,101,595,2818,5154,0.8
Liberty Mutual,Auto,zip,Garaging Territory,Territory,zip,49534,,,,,,49534,,370,1270,101,595,2818,5154,0.8
Liberty Mutual,Auto,zip,Garaging Territory,Territory,zip,49544,,,,,,49544,,370,1270,101,595,2818,5154,0.8
Liberty Mutual,Auto,zip,Garaging Territory,Territory,zip,49546,,,,,,49546,,378,1245,102,605,2619,4949,0.77
Liberty Mutual,Auto,zip,Garaging Territory,Territory,zip,49548,,,,,,49548,,370,1270,101,595,2818,5154,0.8
Liberty Mutual,Auto,zip,Garaging Territory,Territory,zip,49550,,,,,,49550,,388,1405,117,674,3499,6083,0.94
Liberty Mutual,Auto,zip,Garaging Territory,Territory,zip,49555,,,,,,49555,,388,1405,117,674,3499,6083,0.94
Liberty Mutual,Auto,zip,Garaging Territory,Territory,zip,49560,,,,,,49560,,388,1405,117,674,3499,6083,0.94
Liberty Mutual,Auto,zip,Garaging Territory,Territory,zip,49588,,,,,,49588,,370,1270,101,595,2818,5154,0.8
Liberty Mutual,Auto,zip,Garaging Territory,Territory,zip,49599,,,,,,49599,,388,1405,117,674,3499,6083,0.94
Liberty Mutual,Auto,zip,Garaging Territory,Territory,zip,49601,,,,,,49601,,371,1553,101,1218,2108,5351,0.83
Liberty Mutual,Auto,zip,Garaging Territory,Territory,zip,49610,,,,,,49610,,368,1380,94,818,2673,5333,0.83
Liberty Mutual,Auto,zip,Garaging Territory,Territory,zip,49611,,,,,,49611,,368,1380,94,818,2673,5333,0.83
Liberty Mutual,Auto,zip,Garaging Territory,Territory,zip,49612,,,,,,49612,,368,1380,94,818,2673,5333,0.83
Liberty Mutual,Auto,zip,Garaging Territory,Territory,zip,49613,,,,,,49613,,364,1360,92,776,2410,5002,0.78
Liberty Mutual,Auto,zip,Garaging Territory,Territory,zip,49614,,,,,,49614,,364,1360,92,776,2410,5002,0.78
Liberty Mutual,Auto,zip,Garaging Territory,Territory,zip,49615,,,,,,49615,,368,1380,94,818,2673,5333,0.83
Liberty Mutual,Auto,zip,Garaging Territory,Territory,zip,49834,,,,,,49834,,381,1570,110,1912,2100,6073,0.94
Liberty Mutual,Auto,zip,Garaging Territory,Territory,zip,49835,,,,,,49835,,381,1570,110,1912,2100,6073,0.94
Liberty Mutual,Auto,zip,Garaging Territory,Territory,zip,49836,,,,,,49836,,352,1350,102,1073,2290,5167,0.8
Liberty Mutual,Auto,zip,Garaging Territory,Territory,zip,49837,,,,,,49837,,381,1570,110,1912,2100,6073,0.94
Liberty Mutual,Auto,zip,Garaging Territory,Territory,zip,49838,,,,,,49838,,352,1350,102,1073,2290,5167,0.8
Liberty Mutual,Auto,zip,Garaging Territory,Territory,zip,49839,,,,,,49839,,352,1350,102,1073,2290,5167,0.8
Liberty Mutual,Auto,zip,Garaging Territory,Territory,zip,49840,,,,,,49840,,352,1350,102,1073,2290,5167,0.8
Liberty Mutual,Auto,zip,Garaging Territory,Territory,zip,49841,,,,,,49841,,352,1350,102,1073,2290,5167,0.8
Liberty Mutual,Auto,zip,Garaging Territory,Territory,zip,49845,,,,,,49845,,381,1570,110,1912,2100,6073,0.94
Liberty Mutual,Auto,zip,Garaging Territory,Territory,zip,49847,,,,,,49847,,381,1570,110,1912,2100,6073,0.94
Liberty Mutual,Auto,zip,Garaging Territory,Territory,zip,49848,,,,,,49848,,381,1570,110,1912,2100,6073,0.94
Liberty Mutual,Auto,zip,Garaging Territory,Territory,zip,49849,,,,,,49849,,352,1350,102,1073,2290,5167,0.8
Liberty Mutual,Auto,zip,Garaging Territory,Territory,zip,49852,,,,,,49852,,381,1570,110,1912,2100,6073,0.94
Liberty Mutual,Auto,zip,Garaging Territory,Territory,zip,49853,,,,,,49853,,352,1350,102,1073,2290,5167,0.8
Liberty Mutual,Auto,zip,Garaging Territory,Territory,zip,49854,,,,,,49854,,352,1350,102,1073,2290,5167,0.8
Liberty Mutual,Auto,zip,Garaging Territory,Territory,zip,49855,,,,,,49855,,352,1350,102,1073,2290,5167,0.8
Liberty Mutual,Auto,zip,Garaging Territory,Territory,zip,49858,,,,,,49858,,381,1570,110,1912,2100,6073,0.94
Liberty Mutual,Auto,zip,Garaging Territory,Territory,zip,49861,,,,,,49861,,352,1350,102,1073,2290,5167,0.8
Liberty Mutual,Auto,zip,Garaging Territory,Territory,zip,49862,,,,,,49862,,352,1350,102,1073,2290,5167,0.8
Liberty Mutual,Auto,zip,Garaging Territory,Territory,zip,49863,,,,,,49863,,381,1570,110,1912,2100,6073,0.94
Liberty Mutual,Auto,zip,Garaging Territory,Territory,zip,49864,,,,,,49864,,381,1570,110,1912,2100,6073,0.94
Liberty Mutual,Auto,zip,Garaging Territory,Territory,zip,49865,,,,,,49865,,352,1350,102,1073,2290,5167,0.8
Liberty Mutual,Auto,zip,Garaging Territory,Territory,zip,49866,,,,,,49866,,352,1350,102,1073,2290,5167,0.8
Liberty Mutual,Auto,zip,Garaging Territory,Territory,zip,49868,,,,,,49868,,352,1350,102,1073,2290,5167,0.8
Liberty Mutual,Auto,zip,Garaging Territory,Territory,zip,49870,,,,,,49870,,381,1570,110,1912,2100,6073,0.94
Liberty Mutual,Auto,zip,Garaging Territory,Territory,zip,49871,,,,,,49871,,352,1350,102,1073,2290,5167,0.8
Liberty Mutual,Auto,zip,Garaging Territory,Territory,zip,49872,,,,,,49872,,381,1570,110,1912,2100,6073,0.94
Liberty Mutual,Auto,zip,Garaging Territory,Territory,zip,49873,,,,,,49873,,381,1570,110,1912,2100,6073,0.94
Liberty Mutual,Auto,zip,Garaging Territory,Territory,zip,49874,,,,,,49874,,381,1570,110,1912,2100,6073,0.94
Liberty Mutual,Auto,zip,Garaging Territory,Territory,zip,49876,,,,,,49876,,381,1570,110,1912,2100,6073,0.94
Liberty Mutual,Auto,zip,Garaging Territory,Territory,zip,49877,,,,,,49877,,381,1570,110,1912,2100,6073,0.94
Liberty Mutual,Auto,zip,Garaging Territory,Territory,zip,49878,,,,,,49878,,381,1570,110,1912,2100,6073,0.94
Liberty Mutual,Auto,zip,Garaging Territory,Territory,zip,49879,,,,,,49879,,352,1350,102,1073,2290,5167,0.8
Liberty Mutual,Auto,zip,Garaging Territory,Territory,zip,49880,,,,,,49880,,381,1570,110,1912,2100,6073,0.94
Liberty Mutual,Auto,zip,Garaging Territory,Territory,zip,49881,,,,,,49881,,381,1570,110,1912,2100,6073,0.94
Liberty Mutual,Auto,zip,Garaging Territory,Territory,zip,49883,,,,,,49883,,352,1350,102,1073,2290,5167,0.8
Liberty Mutual,Auto,zip,Garaging Territory,Territory,zip,49884,,,,,,49884,,352,1350,102,1073,2290,5167,0.8
Liberty Mutual,Auto,zip,Garaging Territory,Territory,zip,49885,,,,,,49885,,352,1350,102,1073,2290,5167,0.8
Liberty Mutual,Auto,zip,Garaging Territory,Territory,zip,49886,,,,,,49886,,381,1570,110,1912,2100,6073,0.94
Liberty Mutual,Auto,zip,Garaging Territory,Territory,zip,49887,,,,,,49887,,381,1570,110,1912,2100,6073,0.94
Liberty Mutual,Auto,zip,Garaging Territory,Territory,zip,49891,,,,,,49891,,352,1350,102,1073,2290,5167,0.8
Liberty Mutual,Auto,zip,Garaging Territory,Territory,zip,49892,,,,,,49892,,381,1570,110,1912,2100,6073,0.94
Liberty Mutual,Auto,zip,Garaging Territory,Territory,zip,49893,,,,,,49893,,381,1570,110,1912,2100,6073,0.94
Liberty Mutual,Auto,zip,Garaging Territory,Territory,zip,49894,,,,,,49894,,381,1570,110,1912,2100,6073,0.94
Liberty Mutual,Auto,zip,Garaging Territory,Territory,zip,49895,,,,,,49895,,352,1350,102,1073,2290,5167,0.8
Liberty Mutual,Auto,zip,Garaging Territory,Territory,zip,49896,,,,,,49896,,381,1570,110,1912,2100,6073,0.94
Liberty Mutual,Auto,zip,Garaging Territory,Territory,zip,49901,,,,,,49901,,381,1570,110,1912,2100,6073,0.94
Liberty Mutual,Auto,zip,Garaging Territory,Territory,zip,49902,,,,,,49902,,381,1570,110,1912,2100,6073,0.94
Liberty Mutual,Auto,zip,Garaging Territory,Territory,zip,49903,,,,,,49903,,381,1570,110,1912,2100,6073,0.94
Liberty Mutual,Auto,zip,Garaging Territory,Territory,zip,49905,,,,,,49905,,381,1570,110,1912,2100,6073,0.94
Liberty Mutual,Auto,zip,Garaging Territory,Territory,zip,49908,,,,,,49908,,381,1570,110,1912,2100,6073,0.94
Liberty Mutual,Auto,zip,Garaging Territory,Territory,zip,49910,,,,,,49910,,381,1570,110,1912,2100,6073,0.94
Liberty Mutual,Auto,zip,Garaging Territory,Territory,zip,49911,,,,,,49911,,381,1570,110,1912,2100,6073,0.94
Liberty Mutual,Auto,zip,Garaging Territory,Territory,zip,49912,,,,,,49912,,381,1570,110,1912,2100,6073,0.94
Liberty Mutual,Auto,zip,Garaging Territory,Territory,zip,48073,,,,,,48073,,405,1670,110,744,3126,6055,0.94
Liberty Mutual,Auto,zip,Garaging Territory,Territory,zip,48074,,,,,,48074,,473,2082,120,1040,3095,6810,1.06
Liberty Mutual,Auto,zip,Garaging Territory,Territory,zip,48075,,,,,,48075,,561,2630,128,1724,3610,8653,1.34
Liberty Mutual,Auto,zip,Garaging Territory,Territory,zip,48076,,,,,,48076,,561,2630,128,1724,3610,8653,1.34
Liberty Mutual,Auto,zip,Garaging Territory,Territory,zip,48079,,,,,,48079,,452,2330,106,712,2844,6444,1.0
Liberty Mutual,Auto,zip,Garaging Territory,Territory,zip,48080,,,,,,48080,,411,1828,110,753,2940,6042,0.94
Liberty Mutual,Auto,zip,Garaging Territory,Territory,zip,48081,,,,,,48081,,411,1828,110,753,2940,6042,0.94
Liberty Mutual,Auto,zip,Garaging Territory,Territory,zip,48082,,,,,,48082,,405,1670,110,744,3126,6055,0.94
Liberty Mutual,Auto,zip,Garaging Territory,Territory,zip,48083,,,,,,48083,,451,1837,116,687,3378,6469,1.0
Liberty Mutual,Auto,zip,Garaging Territory,Territory,zip,48084,,,,,,48084,,451,1837,116,687,3378,6469,1.0
Liberty Mutual,Auto,zip,Garaging Territory,Territory,zip,48085,,,,,,48085,,451,1837,116,687,3378,6469,1.0
Liberty Mutual,Auto,zip,Garaging Territory,Territory,zip,48086,,,,,,48086,,561,2630,128,1724,3610,8653,1.34
Liberty Mutual,Auto,zip,Garaging Territory,Territory,zip,48088,,,,,,48088,,405,1670,110,744,3126,6055,0.94
Liberty Mutual,Auto,zip,Garaging Territory,Territory,zip,48089,,,,,,48089,,594,2710,150,1411,3731,8596,1.33
Liberty Mutual,Auto,zip,Garaging Territory,Territory,zip,48090,,,,,,48090,,400,2190,104,721,3360,6775,1.05
Liberty Mutual,Auto,zip,Garaging Territory,Territory,zip,48091,,,,,,48091,,594,2710,150,1411,3731,8596,1.33
Liberty Mutual,Auto,zip,Garaging Territory,Territory,zip,48092,,,,,,48092,,405,1670,110,744,3126,6055,0.94
Liberty Mutual,Auto,zip,Garaging Territory,Territory,zip,48093,,,,,,48093,,405,1670,110,744,3126,6055,0.94
Liberty Mutual,Auto,zip,Garaging Territory,Territory,zip,48094,,,,,,48094,,465,2111,131,828,3421,6956,1.08
Liberty Mutual,Auto,zip,Garaging Territory,Territory,zip,48095,,,,,,48095,,465,2111,131,828,3421,6956,1.08
Liberty Mutual,Auto,zip,Garaging Territory,Territory,zip,48096,,,,,,48096,,465,2111,131,828,3421,6956,1.08
Liberty Mutual,Auto,zip,Garaging Territory,Territory,zip,48097,,,,,,48097,,473,2082,120,1040,3095,6810,1.06
Liberty Mutual,Auto,zip,Garaging Territory,Territory,zip,48098,,,,,,48098,,451,1837,116,687,3378,6469,1.0
Liberty Mutual,Auto,zip,Garaging Territory,Territory,zip,48099,,,,,,48099,,451,1837,116,687,3378,6469,1.0
Liberty Mutual,Auto,zip,Garaging Territory,Territory,zip,48101,,,,,,48101,,417,2145,106,690,3005,6363,0.99
Liberty Mutual,Auto,zip,Garaging Territory,Territory,zip,48102,,,,,,48102,,417,2145,106,690,3005,6363,0.99
Liberty Mutual,Auto,zip,Garaging Territory,Territory,zip,48103,,,,,,48103,,302,1129,86,602,2320,4439,0.69
Liberty Mutual,Auto,zip,Garaging Territory,Territory,zip,48104,,,,,,48104,,302,1129,86,602,2320,4439,0.69
Liberty Mutual,Auto,zip,Garaging Territory,Territory,zip,48105,,,,,,48105,,302,1129,86,602,2320,4439,0.69
Liberty Mutual,Auto,zip,Garaging Territory,Territory,zip,48106,,,,,,48106,,302,1129,86,602,2320,4439,0.69
Liberty Mutual,Auto,zip,Garaging Territory,Territory,zip,48107,,,,,,48107,,302,1129,86,602,2320,4439,0.69
Liberty Mutual,Auto,zip,Garaging Territory,Territory,zip,48108,,,,,,48108,,302,1129,86,602,2320,4439,0.69
Liberty Mutual,Auto,zip,Garaging Territory,Territory,zip,48109,,,,,,48109,,302,1129,86,602,2320,4439,0.69
Liberty Mutual,Auto,zip,Garaging Territory,Territory,zip,48110,,,,,,48110,,466,1818,127,654,2613,5678,0.88
Liberty Mutual,Auto,zip,Garaging Territory,Territory,zip,48111,,,,,,48111,,398,2055,99,993,2801,6346,0.98
Liberty Mutual,Auto,zip,Garaging Territory,Territory,zip,48112,,,,,,48112,,398,2055,99,993,2801,6346,0.98
Liberty Mutual,Auto,zip,Garaging Territory,Territory,zip,48113,,,,,,48113,,302,1129,86,602,2320,4439,0.69
Liberty Mutual,Auto,zip,Garaging Territory,Territory,zip,48114,,,,,,48114,,359,1568,92,831,2540,5390,0.84
Liberty Mutual,Auto,zip,Garaging Territory,Territory,zip,48115,,,,,,48115,,359,1568,92,831,2540,5390,0.84
Liberty Mutual,Auto,zip,Garaging Territory,Territory,zip,48116,,,,,,48116,,359,1568,92,831,2540,5390,0.84
Liberty Mutual,Auto,zip,Garaging Territory,Territory,zip,48117,,,,,,48117,,483,2127,130,654,2817,6211,0.96
Liberty Mutual,Auto,zip,Garaging Territory,Territory,zip,48118,,,,,,48118,,359,1568,92,831,2540,5390,0.84
Liberty Mutual,Auto,zip,Garaging Territory,Territory,zip,48120,,,,,,48120,,699,3825,171,2087,4085,10867,1.69
Liberty Mutual,Auto,zip,Garaging Territory,Territory,zip,48121,,,,,,48121,,484,2065,118,771,2840,6278,0.97
Liberty Mutual,Auto,zip,Garaging Territory,Territory,zip,48122,,,,,,48122,,437,2102,107,916,2879,6441,1.0
Liberty Mutual,Auto,zip,Garaging Territory,Territory,zip,48123,,,,,,48123,,484,2065,118,771,2840,6278,0.97
Liberty Mutual,Auto,zip,Garaging Territory,Territory,zip,48124,,,,,,48124,,484,2065,118,771,2840,6278,0.97
Liberty Mutual,Auto,zip,Garaging Territory,Territory,zip,48125,,,,,,48125,,507,2455,126,870,3080,7038,1.09
Liberty Mutual,Auto,zip,Garaging Territory,Territory,zip,48126,,,,,,48126,,775,3440,187,1778,4745,10925,1.7
Liberty Mutual,Auto,zip,Garaging Territory,Territory,zip,48127,,,,,,48127,,504,2430,124,969,3050,7077,1.1
Liberty Mutual,Auto,zip,Garaging Territory,Territory,zip,48128,,,,,,48128,,431,2185,106,824,3099,6645,1.03
Liberty Mutual,Auto,zip,Garaging Territory,Territory,zip,48130,,,,,,48130,,359,1568,92,831,2540,5390,0.84
Liberty Mutual,Auto,zip,Garaging Territory,Territory,zip,48131,,,,,,48131,,466,1818,127,654,2613,5678,0.88
Liberty Mutual,Auto,zip,Garaging Territory,Territory,zip,48133,,,,,,48133,,483,2127,130,654,2817,6211,0.96
Liberty Mutual,Auto,zip,Garaging Territory,Territory,zip,48370,,,,,,48370,,404,1811,98,801,2943,6057,0.94
Liberty Mutual,Auto,zip,Garaging Territory,Territory,zip,48371,,,,,,48371,,404,1811,98,801,2943,6057,0.94
Liberty Mutual,Auto,zip,Garaging Territory,Territory,zip,48374,,,,,,48374,,404,1811,98,801,2943,6057,0.94
Liberty Mutual,Auto,zip,Garaging Territory,Territory,zip,48375,,,,,,48375,,404,1811,98,801,2943,6057,0.94
Liberty Mutual,Auto,zip,Garaging Territory,Territory,zip,48376,,,,,,48376,,404,1811,98,801,2943,6057,0.94
Liberty Mutual,Auto,zip,Garaging Territory,Territory,zip,48377,,,,,,48377,,404,1811,98,801,2943,6057,0.94
Liberty Mutual,Auto,zip,Garaging Territory,Territory,zip,48380,,,,,,48380,,507,1744,123,765,2955,6094,0.95
Liberty Mutual,Auto,zip,Garaging Territory,Territory,zip,48381,,,,,,48381,,507,1744,123,765,2955,6094,0.95
Liberty Mutual,Auto,zip,Garaging Territory,Territory,zip,48382,,,,,,48382,,404,1811,98,801,2943,6057,0.94
Liberty Mutual,Auto,zip,Garaging Territory,Territory,zip,48383,,,,,,48383,,404,1811,98,801,2943,6057,0.94
Liberty Mutual,Auto,zip,Garaging Territory,Territory,zip,48386,,,,,,48386,,404,1811,98,801,2943,6057,0.94
Liberty Mutual,Auto,zip,Garaging Territory,Territory,zip,48387,,,,,,48387,,451,1837,116,687,3378,6469,1.0
Liberty Mutual,Auto,zip,Garaging Territory,Territory,zip,48390,,,,,,48390,,404,1811,98,801,2943,6057,0.94
Liberty Mutual,Auto,zip,Garaging Territory,Territory,zip,48391,,,,,,48391,,404,1811,98,801,2943,6057,0.94
Liberty Mutual,Auto,zip,Garaging Territory,Territory,zip,48393,,,,,,48393,,404,1811,98,801,2943,6057,0.94
Liberty Mutual,Auto,zip,Garaging Territory,Territory,zip,48397,,,,,,48397,,400,2190,104,721,3360,6775,1.05
Liberty Mutual,Auto,zip,Garaging Territory,Territory,zip,48398,,,,,,48398,,405,1670,110,744,3126,6055,0.94
Liberty Mutual,Auto,zip,Garaging Territory,Territory,zip,48401,,,,,,48401,,427,2058,104,1147,2483,6219,0.97
Liberty Mutual,Auto,zip,Garaging Territory,Territory,zip,48410,,,,,,48410,,427,2058,104,1147,2483,6219,0.97
Liberty Mutual,Auto,zip,Garaging Territory,Territory,zip,48411,,,,,,48411,,478,2082,112,886,2550,6108,0.95
Liberty Mutual,Auto,zip,Garaging Territory,Territory,zip,48412,,,,,,48412,,473,2082,120,1040,3095,6810,1.06
Liberty Mutual,Auto,zip,Garaging Territory,Territory,zip,48413,,,,,,48413,,427,2058,104,1147,2483,6219,0.97
Liberty Mutual,Auto,zip,Garaging Territory,Territory,zip,48414,,,,,,48414,,386,1840,97,1439,2454,6216,0.96
Liberty Mutual,Auto,zip,Garaging Territory,Territory,zip,48415,,,,,,48415,,330,1539,93,577,2353,4892,0.76
Liberty Mutual,Auto,zip,Garaging Territory,Territory,zip,48416,,,,,,48416,,473,2082,120,1040,3095,6810,1.06
Liberty Mutual,Auto,zip,Garaging Territory,Territory,zip,48417,,,,,,48417,,330,1539,93,577,2353,4892,0.76
Liberty Mutual,Auto,zip,Garaging Territory,Territory,zip,48418,,,,,,48418,,386,1840,97,1439,2454,6216,0.96
Liberty Mutual,Auto,zip,Garaging Territory,Territory,zip,48419,,,,,,48419,,427,2058,104,1147,2483,6219,0.97
Liberty Mutual,Auto,zip,Garaging Territory,Territory,zip,48420,,,,,,48420,,478,2082,112,886,2550,6108,0.95
Liberty Mutual,Auto,zip,Garaging Territory,Territory,zip,48421,,,,,,48421,,473,2082,120,1040,3095,6810,1.06
Liberty Mutual,Auto,zip,Garaging Territory,Territory,zip,48422,,,,,,48422,,427,2058,104,1147,2483,6219,0.97
Liberty Mutual,Auto,zip,Garaging Territory,Territory,zip,48423,,,,,,48423,,478,2082,112,886,2550,6108,0.95
Liberty Mutual,Auto,zip,Garaging Territory,Territory,zip,48426,,,,,,48426,,427,2058,104,1147,2483,6219,0.97
Liberty Mutual,Auto,zip,Garaging Territory,Territory,zip,48427,,,,,,48427,,427,2058,104,1147,2483,6219,0.97
Liberty Mutual,Auto,zip,Garaging Territory,Territory,zip,48428,,,,,,48428,,473,2082,120,1040,3095,6810,1.06
Liberty Mutual,Auto,zip,Garaging Territory,Territory,zip,48429,,,,,,48429,,386,1840,97,1439,2454,6216,0.96
Liberty Mutual,Auto,zip,Garaging Territory,Territory,zip,48430,,,,,,48430,,478,2082,112,886,2550,6108,0.95
Liberty Mutual,Auto,zip,Garaging Territory,Territory,zip,48432,,,,,,48432,,427,2058,104,1147,2483,6219,0.97
Liberty Mutual,Auto,zip,Garaging Territory,Territory,zip,48433,,,,,,48433,,478,2082,112,886,2550,6108,0.95
Liberty Mutual,Auto,zip,Garaging Territory,Territory,zip,48434,,,,,,48434,,427,2058,104,1147,2483,6219,0.97
Liberty Mutual,Auto,zip,Garaging Territory,Territory,zip,48435,,,,,,48435,,473,2082,120,1040,3095,6810,1.06
Liberty Mutual,Auto,zip,Garaging Territory,Territory,zip,48436,,,,,,48436,,478,2082,112,886,2550,6108,0.95
Liberty Mutual,Auto,zip,Garaging Territory,Territory,zip,48437,,,,,,48437,,616,2823,155,930,3485,8009,1.24
Liberty Mutual,Auto,zip,Garaging Territory,Territory,zip,48438,,,,,,48438,,478,2082,112,886,2550,6108,0.95
Liberty Mutual,Auto,zip,Garaging Territory,Territory,zip,48439,,,,,,48439,,478,2082,112,886,2550,6108,0.95
Liberty Mutual,Auto,zip,Garaging Territory,Territory,zip,48440,,,,,,48440,,473,2082,120,1040,3095,6810,1.06
Liberty Mutual,Auto,zip,Garaging Territory,Territory,zip,48441,,,,,,48441,,427,2058,104,1147,2483,6219,0.97
Liberty Mutual,Auto,zip,Garaging Territory,Territory,zip,48442,,,,,,48442,,507,1744,123,765,2955,6094,0.95
Liberty Mutual,Auto,zip,Garaging Territory,Territory,zip,48444,,,,,,48444,,473,2082,120,1040,3095,6810,1.06
Liberty Mutual,Auto,zip,Garaging Territory,Territory,zip,48445,,,,,,48445,,427,2058,104,1147,2483,6219,0.97
Liberty Mutual,Auto,zip,Garaging Territory,Territory,zip,48446,,,,,,48446,,473,2082,120,1040,3095,6810,1.06
Liberty Mutual,Auto,zip,Garaging Territory,Territory,zip,48449,,,,,,48449,,478,2082,112,886,2550,6108,0.95
Liberty Mutual,Auto,zip,Garaging Territory,Territory,zip,48450,,,,,,48450,,427,2058,104,1147,2483,6219,0.97
Liberty Mutual,Auto,zip,Garaging Territory,Territory,zip,48451,,,,,,48451,,478,2082,112,886,2550,6108,0.95
Liberty Mutual,Auto,zip,Garaging Territory,Territory,zip,48804,,,,,,48804,,366,1775,95,1443,2528,6207,0.96
Liberty Mutual,Auto,zip,Garaging Territory,Territory,zip,48805,,,,,,48805,,318,1404,85,738,2360,4905,0.76
Liberty Mutual,Auto,zip,Garaging Territory,Territory,zip,48806,,,,,,48806,,366,1775,95,1443,2528,6207,0.96
Liberty Mutual,Auto,zip,Garaging Territory,Territory,zip,48807,,,,,,48807,,366,1775,95,1443,2528,6207,0.96
Liberty Mutual,Auto,zip,Garaging Territory,Territory,zip,48808,,,,,,48808,,318,1404,85,738,2360,4905,0.76
Liberty Mutual,Auto,zip,Garaging Territory,Territory,zip,48809,,,,,,48809,,386,1840,97,1439,2454,6216,0.96
Liberty Mutual,Auto,zip,Garaging Territory,Territory,zip,48811,,,,,,48811,,366,1775,95,1443,2528,6207,0.96
Liberty Mutual,Auto,zip,Garaging Territory,Territory,zip,48812,,,,,,48812,,366,1775,95,1443,2528,6207,0.96
Liberty Mutual,Auto,zip,Garaging Territory,Territory,zip,48813,,,,,,48813,,318,1404,85,738,2360,4905,0.76
Liberty Mutual,Auto,zip,Garaging Territory,Territory,zip,48815,,,,,,48815,,386,1840,97,1439,2454,6216,0.96
Liberty Mutual,Auto,zip,Garaging Territory,Territory,zip,48816,,,,,,48816,,359,1568,92,831,2540,5390,0.84
Liberty Mutual,Auto,zip,Garaging Territory,Territory,zip,48817,,,,,,48817,,386,1840,97,1439,2454,6216,0.96
Liberty Mutual,Auto,zip,Garaging Territory,Territory,zip,48818,,,,,,48818,,366,1775,95,1443,2528,6207,0.96
Liberty Mutual,Auto,zip,Garaging Territory,Territory,zip,48819,,,,,,48819,,359,1568,92,831,2540,5390,0.84
Liberty Mutual,Auto,zip,Garaging Territory,Territory,zip,48820,,,,,,48820,,318,1404,85,738,2360,4905,0.76
Liberty Mutual,Auto,zip,Garaging Territory,Territory,zip,48821,,,,,,48821,,318,1404,85,738,2360,4905,0.76
Liberty Mutual,Auto,zip,Garaging Territory,Territory,zip,48822,,,,,,48822,,318,1404,85,738,2360,4905,0.76
Liberty Mutual,Auto,zip,Garaging Territory,Territory,zip,48823,,,,,,48823,,318,1404,85,738,2360,4905,0.76
Liberty Mutual,Auto,zip,Garaging Territory,Territory,zip,48824,,,,,,48824,,318,1404,85,738,2360,4905,0.76
Liberty Mutual,Auto,zip,Garaging Territory,Territory,zip,48825,,,,,,48825,,318,1404,85,738,2360,4905,0.76
Liberty Mutual,Auto,zip,Garaging Territory,Territory,zip,48826,,,,,,48826,,318,1404,85,738,2360,4905,0.76
Liberty Mutual,Auto,zip,Garaging Territory,Territory,zip,48827,,,,,,48827,,318,1404,85,738,2360,4905,0.76
Liberty Mutual,Auto,zip,Garaging Territory,Territory,zip,48829,,,,,,48829,,366,1775,95,1443,2528,6207,0.96
Liberty Mutual,Auto,zip,Garaging Territory,Territory,zip,48830,,,,,,48830,,366,1775,95,1443,2528,6207,0.96
Liberty Mutual,Auto,zip,Garaging Territory,Territory,zip,48831,,,,,,48831,,386,1840,97,1439,2454,6216,0.96
Liberty Mutual,Auto,zip,Garaging Territory,Territory,zip,48832,,,,,,48832,,366,1775,95,1443,2528,6207,0.96
Liberty Mutual,Auto,zip,Garaging Territory,Territory,zip,48833,,,,,,48833,,386,1840,97,1439,2454,6216,0.96
Liberty Mutual,Auto,zip,Garaging Territory,Territory,zip,48834,,,,,,48834,,366,1775,95,1443,2528,6207,0.96
Liberty Mutual,Auto,zip,Garaging Territory,Territory,zip,48835,,,,,,48835,,386,1840,97,1439,2454,6216,0.96
Liberty Mutual,Auto,zip,Garaging Territory,Territory,zip,48836,,,,,,48836,,359,1568,92,831,2540,5390,0.84
Liberty Mutual,Auto,zip,Garaging Territory,Territory,zip,48837,,,,,,48837,,318,1404,85,738,2360,4905,0.76
Liberty Mutual,Auto,zip,Garaging Territory,Territory,zip,48838,,,,,,48838,,443,1835,115,1105,2701,6199,0.96
Liberty Mutual,Auto,zip,Garaging Territory,Territory,zip,48840,,,,,,48840,,318,1404,85,738,2360,4905,0.76
Liberty Mutual,Auto,zip,Garaging Territory,Territory,zip,48841,,,,,,48841,,386,1840,97,1439,2454,6216,0.96
Liberty Mutual,Auto,zip,Garaging Territory,Territory,zip,48842,,,,,,48842,,318,1404,85,738,2360,4905,0.76
Liberty Mutual,Auto,zip,Garaging Territory,Territory,zip,48843,,,,,,48843,,359,1568,92,831,2540,5390,0.84
Liberty Mutual,Auto,zip,Garaging Territory,Territory,zip,48844,,,,,,48844,,359,1568,92,831,2540,5390,0.84
Liberty Mutual,Auto,zip,Garaging Territory,Territory,zip,48845,,,,,,48845,,386,1840,97,1439,2454,6216,0.96
Liberty Mutual,Auto,zip,Garaging Territory,Territory,zip,48846,,,,,,48846,,386,1840,97,1439,2454,6216,0.96
Liberty Mutual,Auto,zip,Garaging Territory,Territory,zip,48847,,,,,,48847,,366,1775,95,1443,2528,6207,0.96
Liberty Mutual,Auto,zip,Garaging Territory,Territory,zip,48848,,,,,,48848,,318,1404,85,738,2360,4905,0.76
Liberty Mutual,Auto,zip,Garaging Territory,Territory,zip,48849,,,,,,48849,,386,1840,97,1439,2454,6216,0.96
Liberty Mutual,Auto,zip,Garaging Territory,Territory,zip,48850,,,,,,48850,,443,1835,115,1105,2701,6199,0.96
Liberty Mutual,Auto,zip,Garaging Territory,Territory,zip,48851,,,,,,48851,,386,1840,97,1439,2454,6216,0.96
Liberty Mutual,Auto,zip,Garaging Territory,Territory,zip,48852,,,,,,48852,,366,1775,95,1443,2528,6207,0.96
Liberty Mutual,Auto,zip,Garaging Territory,Territory,zip,48853,,,,,,48853,,386,1840,97,1439,2454,6216,0.96
Liberty Mutual,Auto,zip,Garaging Territory,Territory,zip,48854,,,,,,48854,,318,1404,85,738,2360,4905,0.76
Liberty Mutual,Auto,zip,Garaging Territory,Territory,zip,48855,,,,,,48855,,359,1568,92,831,2540,5390,0.84
Liberty Mutual,Auto,zip,Garaging Territory,Territory,zip,48856,,,,,,48856,,366,1775,95,1443,2528,6207,0.96
Liberty Mutual,Auto,zip,Garaging Territory,Territory,zip,48857,,,,,,48857,,386,1840,97,1439,2454,6216,0.96
Liberty Mutual,Auto,zip,Garaging Territory,Territory,zip,48858,,,,,,48858,,366,1775,95,1443,2528,6207,0.96
Liberty Mutual,Auto,zip,Garaging Territory,Territory,zip,48859,,,,,,48859,,366,1775,95,1443,2528,6207,0.96
Liberty Mutual,Auto,zip,Garaging Territory,Territory,zip,48860,,,,,,48860,,386,1840,97,1439,2454,6216,0.96
Liberty Mutual,Auto,zip,Garaging Territory,Territory,zip,48861,,,,,,48861,,386,1840,97,1439,2454,6216,0.96
Liberty Mutual,Auto,zip,Garaging Territory,Territory,zip,49117,,,,,,49117,,426,1640,122,623,2064,4875,0.76
Liberty Mutual,Auto,zip,Garaging Territory,Territory,zip,49119,,,,,,49119,,426,1640,122,623,2064,4875,0.76
Liberty Mutual,Auto,zip,Garaging Territory,Territory,zip,49120,,,,,,49120,,426,1640,122,623,2064,4875,0.76
Liberty Mutual,Auto,zip,Garaging Territory,Territory,zip,49121,,,,,,49121,,426,1640,122,623,2064,4875,0.76
Liberty Mutual,Auto,zip,Garaging Territory,Territory,zip,49125,,,,,,49125,,426,1640,122,623,2064,4875,0.76
Liberty Mutual,Auto,zip,Garaging Territory,Territory,zip,49126,,,,,,49126,,426,1640,122,623,2064,4875,0.76
Liberty Mutual,Auto,zip,Garaging Territory,Territory,zip,49127,,,,,,49127,,426,1640,122,623,2064,4875,0.76
Liberty Mutual,Auto,zip,Garaging Territory,Territory,zip,49128,,,,,,49128,,426,1640,122,623,2064,4875,0.76
Liberty Mutual,Auto,zip,Garaging Territory,Territory,zip,49129,,,,,,49129,,426,1640,122,623,2064,4875,0.76
Liberty Mutual,Auto,zip,Garaging Territory,Territory,zip,49130,,,,,,49130,,419,1601,110,903,2492,5525,0.86
Liberty Mutual,Auto,zip,Garaging Territory,Territory,zip,49201,,,,,,49201,,331,1620,97,895,2494,5437,0.84
Liberty Mutual,Auto,zip,Garaging Territory,Territory,zip,49202,,,,,,49202,,331,1620,97,895,2494,5437,0.84
Liberty Mutual,Auto,zip,Garaging Territory,Territory,zip,49203,,,,,,49203,,331,1620,97,895,2494,5437,0.84
Liberty Mutual,Auto,zip,Garaging Territory,Territory,zip,49204,,,,,,49204,,331,1620,97,895,2494,5437,0.84
Liberty Mutual,Auto,zip,Garaging Territory,Territory,zip,49220,,,,,,49220,,359,1568,92,831,2540,5390,0.84
Liberty Mutual,Auto,zip,Garaging Territory,Territory,zip,49221,,,,,,49221,,359,1568,92,831,2540,5390,0.84
Liberty Mutual,Auto,zip,Garaging Territory,Territory,zip,49224,,,,,,49224,,351,1650,103,1116,2326,5546,0.86
Liberty Mutual,Auto,zip,Garaging Territory,Territory,zip,49227,,,,,,49227,,421,1699,112,1081,2240,5553,0.86
Liberty Mutual,Auto,zip,Garaging Territory,Territory,zip,49228,,,,,,49228,,359,1568,92,831,2540,5390,0.84
Liberty Mutual,Auto,zip,Garaging Territory,Territory,zip,49229,,,,,,49229,,359,1568,92,831,2540,5390,0.84
Liberty Mutual,Auto,zip,Garaging Territory,Territory,zip,49230,,,,,,49230,,331,1620,97,895,2494,5437,0.84
Liberty Mutual,Auto,zip,Garaging Territory,Territory,zip,49232,,,,,,49232,,421,1699,112,1081,2240,5553,0.86
Liberty Mutual,Auto,zip,Garaging Territory,Territory,zip,49233,,,,,,49233,,359,1568,92,831,2540,5390,0.84
Liberty Mutual,Auto,zip,Garaging Territory,Territory,zip,49234,,,,,,49234,,331,1620,97,895,2494,5437,0.84
Liberty Mutual,Auto,zip,Garaging Territory,Territory,zip,49235,,,,,,49235,,359,1568,92,831,2540,5390,0.84
Liberty Mutual,Auto,zip,Garaging Territory,Territory,zip,49236,,,,,,49236,,359,1568,92,831,2540,5390,0.84
Liberty Mutual,Auto,zip,Garaging Territory,Territory,zip,49237,,,,,,49237,,331,1620,97,895,2494,5437,0.84
Liberty Mutual,Auto,zip,Garaging Territory,Territory,zip,49238,,,,,,49238,,359,1568,92,831,2540,5390,0.84
Liberty Mutual,Auto,zip,Garaging Territory,Territory,zip,49239,,,,,,49239,,421,1699,112,1081,2240,5553,0.86
Liberty Mutual,Auto,zip,Garaging Territory,Territory,zip,49240,,,,,,49240,,331,1620,97,895,2494,5437,0.84
Liberty Mutual,Auto,zip,Garaging Territory,Territory,zip,49241,,,,,,49241,,331,1620,97,895,2494,5437,0.84
Liberty Mutual,Auto,zip,Garaging Territory,Territory,zip,49242,,,,,,49242,,421,1699,112,1081,2240,5553,0.86
Liberty Mutual,Auto,zip,Garaging Territory,Territory,zip,49245,,,,,,49245,,351,1650,103,1116,2326,5546,0.86
Liberty Mutual,Auto,zip,Garaging Territory,Territory,zip,49246,,,,,,49246,,331,1620,97,895,2494,5437,0.84
Liberty Mutual,Auto,zip,Garaging Territory,Territory,zip,49247,,,,,,49247,,359,1568,92,831,2540,5390,0.84
Liberty Mutual,Auto,zip,Garaging Territory,Territory,zip,49248,,,,,,49248,,359,1568,92,831,2540,5390,0.84
Liberty Mutual,Auto,zip,Garaging Territory,Territory,zip,49249,,,,,,49249,,421,1699,112,1081,2240,5553,0.86
Liberty Mutual,Auto,zip,Garaging Territory,Territory,zip,49250,,,,,,49250,,421,1699,112,1081,2240,5553,0.86
Liberty Mutual,Auto,zip,Garaging Territory,Territory,zip,49251,,,,,,49251,,359,1568,92,831,2540,5390,0.84
Liberty Mutual,Auto,zip,Garaging Territory,Territory,zip,49252,,,,,,49252,,421,1699,112,1081,2240,5553,0.86
Liberty Mutual,Auto,zip,Garaging Territory,Territory,zip,49253,,,,,,49253,,359,1568,92,831,2540,5390,0.84
Liberty Mutual,Auto,zip,Garaging Territory,Territory,zip,49254,,,,,,49254,,331,1620,97,895,2494,5437,0.84
Liberty Mutual,Auto,zip,Garaging Territory,Territory,zip,49255,,,,,,49255,,421,1699,112,1081,2240,5553,0.86
Liberty Mutual,Auto,zip,Garaging Territory,Territory,zip,49256,,,,,,49256,,359,1568,92,831,2540,5390,0.84
Liberty Mutual,Auto,zip,Garaging Territory,Territory,zip,49257,,,,,,49257,,421,1699,112,1081,2240,5553,0.86
Liberty Mutual,Auto,zip,Garaging Territory,Territory,zip,49258,,,,,,49258,,421,1699,112,1081,2240,5553,0.86
Liberty Mutual,Auto,zip,Garaging Territory,Territory,zip,49259,,,,,,49259,,331,1620,97,895,2494,5437,0.84
Liberty Mutual,Auto,zip,Garaging Territory,Territory,zip,49261,,,,,,49261,,331,1620,97,895,2494,5437,0.84
Liberty Mutual,Auto,zip,Garaging Territory,Territory,zip,49262,,,,,,49262,,421,1699,112,1081,2240,5553,0.86
Liberty Mutual,Auto,zip,Garaging Territory,Territory,zip,49263,,,,,,49263,,331,1620,97,895,2494,5437,0.84
Liberty Mutual,Auto,zip,Garaging Territory,Territory,zip,49264,,,,,,49264,,359,1568,92,831,2540,5390,0.84
Liberty Mutual,Auto,zip,Garaging Territory,Territory,zip,49265,,,,,,49265,,359,1568,92,831,2540,5390,0.84
Liberty Mutual,Auto,zip,Garaging Territory,Territory,zip,49266,,,,,,49266,,421,1699,112,1081,2240,5553,0.86
Liberty Mutual,Auto,zip,Garaging Territory,Territory,zip,49267,,,,,,49267,,466,1818,127,654,2613,5678,0.88
Liberty Mutual,Auto,zip,Garaging Territory,Territory,zip,49616,,,,,,49616,,364,1360,92,776,2410,5002,0.78
Liberty Mutual,Auto,zip,Garaging Territory,Territory,zip,49617,,,,,,49617,,371,1553,101,1218,2108,5351,0.83
Liberty Mutual,Auto,zip,Garaging Territory,Territory,zip,49618,,,,,,49618,,371,1553,101,1218,2108,5351,0.83
Liberty Mutual,Auto,zip,Garaging Territory,Territory,zip,49619,,,,,,49619,,364,1360,92,776,2410,5002,0.78
Liberty Mutual,Auto,zip,Garaging Territory,Territory,zip,49620,,,,,,49620,,364,1360,92,776,2410,5002,0.78
Liberty Mutual,Auto,zip,Garaging Territory,Territory,zip,49621,,,,,,49621,,364,1360,92,776,2410,5002,0.78
Liberty Mutual,Auto,zip,Garaging Territory,Territory,zip,49622,,,,,,49622,,368,1380,94,818,2673,5333,0.83
Liberty Mutual,Auto,zip,Garaging Territory,Territory,zip,49623,,,,,,49623,,366,1775,95,1443,2528,6207,0.96
Liberty Mutual,Auto,zip,Garaging Territory,Territory,zip,49625,,,,,,49625,,371,1553,101,1218,2108,5351,0.83
Liberty Mutual,Auto,zip,Garaging Territory,Territory,zip,49626,,,,,,49626,,371,1553,101,1218,2108,5351,0.83
Liberty Mutual,Auto,zip,Garaging Territory,Territory,zip,49627,,,,,,49627,,368,1380,94,818,2673,5333,0.83
Liberty Mutual,Auto,zip,Garaging Territory,Territory,zip,49628,,,,,,49628,,371,1553,101,1218,2108,5351,0.83
Liberty Mutual,Auto,zip,Garaging Territory,Territory,zip,49629,,,,,,49629,,368,1380,94,818,2673,5333,0.83
Liberty Mutual,Auto,zip,Garaging Territory,Territory,zip,49630,,,,,,49630,,364,1360,92,776,2410,5002,0.78
Liberty Mutual,Auto,zip,Garaging Territory,Territory,zip,49631,,,,,,49631,,366,1775,95,1443,2528,6207,0.96
Liberty Mutual,Auto,zip,Garaging Territory,Territory,zip,49632,,,,,,49632,,371,1553,101,1218,2108,5351,0.83
Liberty Mutual,Auto,zip,Garaging Territory,Territory,zip,49633,,,,,,49633,,368,1380,94,818,2673,5333,0.83
Liberty Mutual,Auto,zip,Garaging Territory,Territory,zip,49634,,,,,,49634,,371,1553,101,1218,2108,5351,0.83
Liberty Mutual,Auto,zip,Garaging Territory,Territory,zip,49635,,,,,,49635,,364,1360,92,776,2410,5002,0.78
Liberty Mutual,Auto,zip,Garaging Territory,Territory,zip,49636,,,,,,49636,,364,1360,92,776,2410,5002,0.78
Liberty Mutual,Auto,zip,Garaging Territory,Territory,zip,49637,,,,,,49637,,364,1360,92,776,2410,5002,0.78
Liberty Mutual,Auto,zip,Garaging Territory,Territory,zip,49638,,,,,,49638,,371,1553,101,1218,2108,5351,0.83
Liberty Mutual,Auto,zip,Garaging Territory,Territory,zip,49639,,,,,,49639,,366,1775,95,1443,2528,6207,0.96
Liberty Mutual,Auto,zip,Garaging Territory,Territory,zip,49640,,,,,,49640,,364,1360,92,776,2410,5002,0.78
Liberty Mutual,Auto,zip,Garaging Territory,Territory,zip,49642,,,,,,49642,,366,1775,95,1443,2528,6207,0.96
Liberty Mutual,Auto,zip,Garaging Territory,Territory,zip,49643,,,,,,49643,,364,1360,92,776,2410,5002,0.78
Liberty Mutual,Auto,zip,Garaging Territory,Territory,zip,49644,,,,,,49644,,366,1775,95,1443,2528,6207,0.96
Liberty Mutual,Auto,zip,Garaging Territory,Territory,zip,49645,,,,,,49645,,371,1553,101,1218,2108,5351,0.83
Liberty Mutual,Auto,zip,Garaging Territory,Territory,zip,49646,,,,,,49646,,368,1380,94,818,2673,5333,0.83
Liberty Mutual,Auto,zip,Garaging Territory,Territory,zip,49648,,,,,,49648,,368,1380,94,818,2673,5333,0.83
Liberty Mutual,Auto,zip,Garaging Territory,Territory,zip,49649,,,,,,49649,,364,1360,92,776,2410,5002,0.78
Liberty Mutual,Auto,zip,Garaging Territory,Territory,zip,49650,,,,,,49650,,364,1360,92,776,2410,5002,0.78
Liberty Mutual,Auto,zip,Garaging Territory,Territory,zip,49651,,,,,,49651,,371,1553,101,1218,2108,5351,0.83
Liberty Mutual,Auto,zip,Garaging Territory,Territory,zip,49653,,,,,,49653,,364,1360,92,776,2410,5002,0.78
Liberty Mutual,Auto,zip,Garaging Territory,Territory,zip,49654,,,,,,49654,,364,1360,92,776,2410,5002,0.78
Liberty Mutual,Auto,zip,Garaging Territory,Territory,zip,49655,,,,,,49655,,366,1775,95,1443,2528,6207,0.96
Liberty Mutual,Auto,zip,Garaging Territory,Territory,zip,49656,,,,,,49656,,366,1775,95,1443,2528,6207,0.96
Liberty Mutual,Auto,zip,Garaging Territory,Territory,zip,49657,,,,,,49657,,371,1553,101,1218,2108,5351,0.83
Liberty Mutual,Auto,zip,Garaging Territory,Territory,zip,49659,,,,,,49659,,368,1380,94,818,2673,5333,0.83
Liberty Mutual,Auto,zip,Garaging Territory,Territory,zip,49660,,,,,,49660,,364,1360,92,776,2410,5002,0.78
Liberty Mutual,Auto,zip,Garaging Territory,Territory,zip,49663,,,,,,49663,,364,1360,92,776,2410,5002,0.78
Liberty Mutual,Auto,zip,Garaging Territory,Territory,zip,49664,,,,,,49664,,364,1360,92,776,2410,5002,0.78
Liberty Mutual,Auto,zip,Garaging Territory,Territory,zip,49665,,,,,,49665,,366,1775,95,1443,2528,6207,0.96
Liberty Mutual,Auto,zip,Garaging Territory,Territory,zip,49666,,,,,,49666,,368,1380,94,818,2673,5333,0.83
Liberty Mutual,Auto,zip,Garaging Territory,Territory,zip,49667,,,,,,49667,,371,1553,101,1218,2108,5351,0.83
Liberty Mutual,Auto,zip,Garaging Territory,Territory,zip,49668,,,,,,49668,,371,1553,101,1218,2108,5351,0.83
Liberty Mutual,Auto,zip,Garaging Territory,Territory,zip,49670,,,,,,49670,,364,1360,92,776,2410,5002,0.78
Liberty Mutual,Auto,zip,Garaging Territory,Territory,zip,49673,,,,,,49673,,368,1380,94,818,2673,5333,0.83
Liberty Mutual,Auto,zip,Garaging Territory,Territory,zip,49674,,,,,,49674,,371,1553,101,1218,2108,5351,0.83
Liberty Mutual,Auto,zip,Garaging Territory,Territory,zip,49675,,,,,,49675,,364,1360,92,776,2410,5002,0.78
Liberty Mutual,Auto,zip,Garaging Territory,Territory,zip,49676,,,,,,49676,,368,1380,94,818,2673,5333,0.83
Liberty Mutual,Auto,zip,Garaging Territory,Territory,zip,49677,,,,,,49677,,366,1775,95,1443,2528,6207,0.96
Liberty Mutual,Auto,zip,Garaging Territory,Territory,zip,49679,,,,,,49679,,366,1775,95,1443,2528,6207,0.96
Liberty Mutual,Auto,zip,Garaging Territory,Territory,zip,49680,,,,,,49680,,364,1360,92,776,2410,5002,0.78
Liberty Mutual,Auto,zip,Garaging Territory,Territory,zip,49913,,,,,,49913,,381,1570,110,1912,2100,6073,0.94
Liberty Mutual,Auto,zip,Garaging Territory,Territory,zip,49915,,,,,,49915,,381,1570,110,1912,2100,6073,0.94
Liberty Mutual,Auto,zip,Garaging Territory,Territory,zip,49916,,,,,,49916,,381,1570,110,1912,2100,6073,0.94
Liberty Mutual,Auto,zip,Garaging Territory,Territory,zip,49917,,,,,,49917,,381,1570,110,1912,2100,6073,0.94
Liberty Mutual,Auto,zip,Garaging Territory,Territory,zip,49918,,,,,,49918,,381,1570,110,1912,2100,6073,0.94
Liberty Mutual,Auto,zip,Garaging Territory,Territory,zip,49919,,,,,,49919,,381,1570,110,1912,2100,6073,0.94
Liberty Mutual,Auto,zip,Garaging Territory,Territory,zip,49920,,,,,,49920,,381,1570,110,1912,2100,6073,0.94
Liberty Mutual,Auto,zip,Garaging Territory,Territory,zip,49921,,,,,,49921,,381,1570,110,1912,2100,6073,0.94
Liberty Mutual,Auto,zip,Garaging Territory,Territory,zip,49922,,,,,,49922,,381,1570,110,1912,2100,6073,0.94
Liberty Mutual,Auto,zip,Garaging Territory,Territory,zip,49925,,,,,,49925,,381,1570,110,1912,2100,6073,0.94
Liberty Mutual,Auto,zip,Garaging Territory,Territory,zip,49927,,,,,,49927,,381,1570,110,1912,2100,6073,0.94
Liberty Mutual,Auto,zip,Garaging Territory,Territory,zip,49929,,,,,,49929,,381,1570,110,1912,2100,6073,0.94
Liberty Mutual,Auto,zip,Garaging Territory,Territory,zip,49930,,,,,,49930,,381,1570,110,1912,2100,6073,0.94
Liberty Mutual,Auto,zip,Garaging Territory,Territory,zip,49931,,,,,,49931,,381,1570,110,1912,2100,6073,0.94
Liberty Mutual,Auto,zip,Garaging Territory,Territory,zip,49934,,,,,,49934,,381,1570,110,1912,2100,6073,0.94
Liberty Mutual,Auto,zip,Garaging Territory,Territory,zip,49935,,,,,,49935,,381,1570,110,1912,2100,6073,0.94
Liberty Mutual,Auto,zip,Garaging Territory,Territory,zip,49938,,,,,,49938,,381,1570,110,1912,2100,6073,0.94
Liberty Mutual,Auto,zip,Garaging Territory,Territory,zip,49942,,,,,,49942,,381,1570,110,1912,2100,6073,0.94
Liberty Mutual,Auto,zip,Garaging Territory,Territory,zip,49945,,,,,,49945,,381,1570,110,1912,2100,6073,0.94
Liberty Mutual,Auto,zip,Garaging Territory,Territory,zip,49946,,,,,,49946,,381,1570,110,1912,2100,6073,0.94
Liberty Mutual,Auto,zip,Garaging Territory,Territory,zip,49947,,,,,,49947,,381,1570,110,1912,2100,6073,0.94
Liberty Mutual,Auto,zip,Garaging Territory,Territory,zip,49948,,,,,,49948,,381,1570,110,1912,2100,6073,0.94
Liberty Mutual,Auto,zip,Garaging Territory,Territory,zip,49950,,,,,,49950,,381,1570,110,1912,2100,6073,0.94
Liberty Mutual,Auto,zip,Garaging Territory,Territory,zip,49952,,,,,,49952,,381,1570,110,1912,2100,6073,0.94
Liberty Mutual,Auto,zip,Garaging Territory,Territory,zip,49953,,,,,,49953,,381,1570,110,1912,2100,6073,0.94
Liberty Mutual,Auto,zip,Garaging Territory,Territory,zip,49955,,,,,,49955,,381,1570,110,1912,2100,6073,0.94
Liberty Mutual,Auto,zip,Garaging Territory,Territory,zip,49958,,,,,,49958,,381,1570,110,1912,2100,6073,0.94
Liberty Mutual,Auto,zip,Garaging Territory,Territory,zip,49959,,,,,,49959,,381,1570,110,1912,2100,6073,0.94
Liberty Mutual,Auto,zip,Garaging Territory,Territory,zip,49960,,,,,,49960,,381,1570,110,1912,2100,6073,0.94
Liberty Mutual,Auto,zip,Garaging Territory,Territory,zip,49961,,,,,,49961,,381,1570,110,1912,2100,6073,0.94
Liberty Mutual,Auto,zip,Garaging Territory,Territory,zip,49962,,,,,,49962,,381,1570,110,1912,2100,6073,0.94
Liberty Mutual,Auto,zip,Garaging Territory,Territory,zip,49963,,,,,,49963,,381,1570,110,1912,2100,6073,0.94
Liberty Mutual,Auto,zip,Garaging Territory,Territory,zip,49964,,,,,,49964,,381,1570,110,1912,2100,6073,0.94
Liberty Mutual,Auto,zip,Garaging Territory,Territory,zip,49965,,,,,,49965,,381,1570,110,1912,2100,6073,0.94
Liberty Mutual,Auto,zip,Garaging Territory,Territory,zip,49967,,,,,,49967,,381,1570,110,1912,2100,6073,0.94
Liberty Mutual,Auto,zip,Garaging Territory,Territory,zip,49968,,,,,,49968,,381,1570,110,1912,2100,6073,0.94
Liberty Mutual,Auto,zip,Garaging Territory,Territory,zip,49969,,,,,,49969,,381,1570,110,1912,2100,6073,0.94
Liberty Mutual,Auto,zip,Garaging Territory,Territory,zip,49970,,,,,,49970,,381,1570,110,1912,2100,6073,0.94
Liberty Mutual,Auto,zip,Garaging Territory,Territory,zip,49971,,,,,,49971,,381,1570,110,1912,2100,6073,0.94
Liberty Mutual,Auto,zip,Garaging Territory,Territory,zip,48134,,,,,,48134,,423,2140,110,828,2715,6216,0.96
Liberty Mutual,Auto,zip,Garaging Territory,Territory,zip,48135,,,,,,48135,,491,2162,120,770,3150,6693,1.04
Liberty Mutual,Auto,zip,Garaging Territory,Territory,zip,48136,,,,,,48136,,491,2162,120,770,3150,6693,1.04
Liberty Mutual,Auto,zip,Garaging Territory,Territory,zip,48137,,,,,,48137,,359,1568,92,831,2540,5390,0.84
Liberty Mutual,Auto,zip,Garaging Territory,Territory,zip,48138,,,,,,48138,,441,2072,110,824,2620,6067,0.94
Liberty Mutual,Auto,zip,Garaging Territory,Territory,zip,48139,,,,,,48139,,359,1568,92,831,2540,5390,0.84
Liberty Mutual,Auto,zip,Garaging Territory,Territory,zip,48140,,,,,,48140,,466,1818,127,654,2613,5678,0.88
Liberty Mutual,Auto,zip,Garaging Territory,Territory,zip,48141,,,,,,48141,,480,2530,119,1244,3115,7488,1.16
Liberty Mutual,Auto,zip,Garaging Territory,Territory,zip,48143,,,,,,48143,,359,1568,92,831,2540,5390,0.84
Liberty Mutual,Auto,zip,Garaging Territory,Territory,zip,48144,,,,,,48144,,466,1818,127,654,2613,5678,0.88
Liberty Mutual,Auto,zip,Garaging Territory,Territory,zip,48145,,,,,,48145,,483,2127,130,654,2817,6211,0.96
Liberty Mutual,Auto,zip,Garaging Territory,Territory,zip,48146,,,,,,48146,,519,2185,125,803,2805,6437,1.0
Liberty Mutual,Auto,zip,Garaging Territory,Territory,zip,48150,,,,,,48150,,453,1962,108,719,2770,6012,0.93
Liberty Mutual,Auto,zip,Garaging Territory,Territory,zip,48151,,,,,,48151,,453,1962,108,719,2770,6012,0.93
Liberty Mutual,Auto,zip,Garaging Territory,Territory,zip,48152,,,,,,48152,,406,2181,103,715,2785,6190,0.96
Liberty Mutual,Auto,zip,Garaging Territory,Territory,zip,48153,,,,,,48153,,453,1962,108,719,2770,6012,0.93
Liberty Mutual,Auto,zip,Garaging Territory,Territory,zip,48154,,,,,,48154,,419,1851,99,707,2790,5866,0.91
Liberty Mutual,Auto,zip,Garaging Territory,Territory,zip,48157,,,,,,48157,,483,2127,130,654,2817,6211,0.96
Liberty Mutual,Auto,zip,Garaging Territory,Territory,zip,48158,,,,,,48158,,359,1568,92,831,2540,5390,0.84
Liberty Mutual,Auto,zip,Garaging Territory,Territory,zip,48159,,,,,,48159,,466,1818,127,654,2613,5678,0.88
Liberty Mutual,Auto,zip,Garaging Territory,Territory,zip,48160,,,,,,48160,,359,1568,92,831,2540,5390,0.84
Liberty Mutual,Auto,zip,Garaging Territory,Territory,zip,48161,,,,,,48161,,483,2127,130,654,2817,6211,0.96
Liberty Mutual,Auto,zip,Garaging Territory,Territory,zip,48162,,,,,,48162,,483,2127,130,654,2817,6211,0.96
Liberty Mutual,Auto,zip,Garaging Territory,Territory,zip,48164,,,,,,48164,,446,2087,108,877,2795,6313,0.98
Liberty Mutual,Auto,zip,Garaging Territory,Territory,zip,48165,,,,,,48165,,507,1744,123,765,2955,6094,0.95
Liberty Mutual,Auto,zip,Garaging Territory,Territory,zip,48166,,,,,,48166,,483,2127,130,654,2817,6211,0.96
Liberty Mutual,Auto,zip,Garaging Territory,Territory,zip,48167,,,,,,48167,,388,1685,106,758,2775,5712,0.89
Liberty Mutual,Auto,zip,Garaging Territory,Territory,zip,48168,,,,,,48168,,388,1685,106,758,2775,5712,0.89
Liberty Mutual,Auto,zip,Garaging Territory,Territory,zip,48169,,,,,,48169,,359,1568,92,831,2540,5390,0.84
Liberty Mutual,Auto,zip,Garaging Territory,Territory,zip,48170,,,,,,48170,,405,1660,108,658,2910,5741,0.89
Liberty Mutual,Auto,zip,Garaging Territory,Territory,zip,48173,,,,,,48173,,465,1955,121,684,2595,5820,0.9
Liberty Mutual,Auto,zip,Garaging Territory,Territory,zip,48174,,,,,,48174,,437,2520,106,868,2845,6776,1.05
Liberty Mutual,Auto,zip,Garaging Territory,Territory,zip,48175,,,,,,48175,,466,1818,127,654,2613,5678,0.88
Liberty Mutual,Auto,zip,Garaging Territory,Territory,zip,48176,,,,,,48176,,359,1568,92,831,2540,5390,0.84
Liberty Mutual,Auto,zip,Garaging Territory,Territory,zip,48177,,,,,,48177,,466,1818,127,654,2613,5678,0.88
Liberty Mutual,Auto,zip,Garaging Territory,Territory,zip,48178,,,,,,48178,,507,1744,123,765,2955,6094,0.95
Liberty Mutual,Auto,zip,Garaging Territory,Territory,zip,48179,,,,,,48179,,483,2127,130,654,2817,6211,0.96
Liberty Mutual,Auto,zip,Garaging Territory,Territory,zip,48180,,,,,,48180,,437,2545,107,916,2935,6940,1.08
Liberty Mutual,Auto,zip,Garaging Territory,Territory,zip,48182,,,,,,48182,,466,1818,127,654,2613,5678,0.88
Liberty Mutual,Auto,zip,Garaging Territory,Territory,zip,48183,,,,,,48183,,483,2210,126,781,2610,6210,0.96
Liberty Mutual,Auto,zip,Garaging Territory,Territory,zip,48184,,,,,,48184,,437,2159,110,776,3000,6482,1.01
Liberty Mutual,Auto,zip,Garaging Territory,Territory,zip,48185,,,,,,48185,,443,2270,116,805,3405,7039,1.09
Liberty Mutual,Auto,zip,Garaging Territory,Territory,zip,48186,,,,,,48186,,447,2129,110,753,3210,6649,1.03
Liberty Mutual,Auto,zip,Garaging Territory,Territory,zip,48187,,,,,,48187,,386,1786,109,747,3035,6063,0.94
Liberty Mutual,Auto,zip,Garaging Territory,Territory,zip,48188,,,,,,48188,,471,1931,120,680,2605,5807,0.9
Liberty Mutual,Auto,zip,Garaging Territory,Territory,zip,48189,,,,,,48189,,359,1568,92,831,2540,5390,0.84
Liberty Mutual,Auto,zip,Garaging Territory,Territory,zip,48190,,,,,,48190,,466,1818,127,654,2613,5678,0.88
Liberty Mutual,Auto,zip,Garaging Territory,Territory,zip,48191,,,,,,48191,,466,1818,127,654,2613,5678,0.88
Liberty Mutual,Auto,zip,Garaging Territory,Territory,zip,48192,,,,,,48192,,525,2185,129,846,2765,6450,1.0
Liberty Mutual,Auto,zip,Garaging Territory,Territory,zip,48193,,,,,,48193,,525,2185,129,846,2765,6450,1.0
Liberty Mutual,Auto,zip,Garaging Territory,Territory,zip,48195,,,,,,48195,,567,2354,142,853,2950,6866,1.07
Liberty Mutual,Auto,zip,Garaging Territory,Territory,zip,48197,,,,,,48197,,434,2147,109,898,3021,6609,1.03
Liberty Mutual,Auto,zip,Garaging Territory,Territory,zip,48198,,,,,,48198,,434,2147,109,898,3021,6609,1.03
Liberty Mutual,Auto,zip,Garaging Territory,Territory,zip,48201,,,,,,48201,,859,5475,209,3519,5090,15152,2.35
Liberty Mutual,Auto,zip,Garaging Territory,Territory,zip,48453,,,,,,48453,,427,2058,104,1147,2483,6219,0.97
Liberty Mutual,Auto,zip,Garaging Territory,Territory,zip,48454,,,,,,48454,,427,2058,104,1147,2483,6219,0.97
Liberty Mutual,Auto,zip,Garaging Territory,Territory,zip,48455,,,,,,48455,,473,2082,120,1040,3095,6810,1.06
Liberty Mutual,Auto,zip,Garaging Territory,Territory,zip,48456,,,,,,48456,,427,2058,104,1147,2483,6219,0.97
Liberty Mutual,Auto,zip,Garaging Territory,Territory,zip,48457,,,,,,48457,,478,2082,112,886,2550,6108,0.95
Liberty Mutual,Auto,zip,Garaging Territory,Territory,zip,48458,,,,,,48458,,616,2823,155,930,3485,8009,1.24
Liberty Mutual,Auto,zip,Garaging Territory,Territory,zip,48460,,,,,,48460,,386,1840,97,1439,2454,6216,0.96
Liberty Mutual,Auto,zip,Garaging Territory,Territory,zip,48461,,,,,,48461,,473,2082,120,1040,3095,6810,1.06
Liberty Mutual,Auto,zip,Garaging Territory,Territory,zip,48462,,,,,,48462,,404,1811,98,801,2943,6057,0.94
Liberty Mutual,Auto,zip,Garaging Territory,Territory,zip,48463,,,,,,48463,,478,2082,112,886,2550,6108,0.95
Liberty Mutual,Auto,zip,Garaging Territory,Territory,zip,48464,,,,,,48464,,473,2082,120,1040,3095,6810,1.06
Liberty Mutual,Auto,zip,Garaging Territory,Territory,zip,48465,,,,,,48465,,427,2058,104,1147,2483,6219,0.97
Liberty Mutual,Auto,zip,Garaging Territory,Territory,zip,48466,,,,,,48466,,427,2058,104,1147,2483,6219,0.97
Liberty Mutual,Auto,zip,Garaging Territory,Territory,zip,48467,,,,,,48467,,427,2058,104,1147,2483,6219,0.97
Liberty Mutual,Auto,zip,Garaging Territory,Territory,zip,48468,,,,,,48468,,427,2058,104,1147,2483,6219,0.97
Liberty Mutual,Auto,zip,Garaging Territory,Territory,zip,48469,,,,,,48469,,427,2058,104,1147,2483,6219,0.97
Liberty Mutual,Auto,zip,Garaging Territory,Territory,zip,48470,,,,,,48470,,427,2058,104,1147,2483,6219,0.97
Liberty Mutual,Auto,zip,Garaging Territory,Territory,zip,48471,,,,,,48471,,427,2058,104,1147,2483,6219,0.97
Liberty Mutual,Auto,zip,Garaging Territory,Territory,zip,48472,,,,,,48472,,427,2058,104,1147,2483,6219,0.97
Liberty Mutual,Auto,zip,Garaging Territory,Territory,zip,48473,,,,,,48473,,478,2082,112,886,2550,6108,0.95
Liberty Mutual,Auto,zip,Garaging Territory,Territory,zip,48475,,,,,,48475,,427,2058,104,1147,2483,6219,0.97
Liberty Mutual,Auto,zip,Garaging Territory,Territory,zip,48476,,,,,,48476,,386,1840,97,1439,2454,6216,0.96
Liberty Mutual,Auto,zip,Garaging Territory,Territory,zip,48480,,,,,,48480,,478,2082,112,886,2550,6108,0.95
Liberty Mutual,Auto,zip,Garaging Territory,Territory,zip,48501,,,,,,48501,,632,3387,147,1023,4291,9480,1.47
Liberty Mutual,Auto,zip,Garaging Territory,Territory,zip,48502,,,,,,48502,,632,3387,147,1023,4291,9480,1.47
Liberty Mutual,Auto,zip,Garaging Territory,Territory,zip,48503,,,,,,48503,,632,3387,147,1023,4291,9480,1.47
Liberty Mutual,Auto,zip,Garaging Territory,Territory,zip,48504,,,,,,48504,,632,3387,147,1023,4291,9480,1.47
Liberty Mutual,Auto,zip,Garaging Territory,Territory,zip,48505,,,,,,48505,,632,3387,147,1023,4291,9480,1.47
Liberty Mutual,Auto,zip,Garaging Territory,Territory,zip,48506,,,,,,48506,,632,3387,147,1023,4291,9480,1.47
Liberty Mutual,Auto,zip,Garaging Territory,Territory,zip,48507,,,,,,48507,,632,3387,147,1023,4291,9480,1.47
Liberty Mutual,Auto,zip,Garaging Territory,Territory,zip,48509,,,,,,48509,,616,2823,155,930,3485,8009,1.24
Liberty Mutual,Auto,zip,Garaging Territory,Territory,zip,48519,,,,,,48519,,616,2823,155,930,3485,8009,1.24
Liberty Mutual,Auto,zip,Garaging Territory,Territory,zip,48529,,,,,,48529,,616,2823,155,930,3485,8009,1.24
Liberty Mutual,Auto,zip,Garaging Territory,Territory,zip,48531,,,,,,48531,,632,3387,147,1023,4291,9480,1.47
Liberty Mutual,Auto,zip,Garaging Territory,Territory,zip,48532,,,,,,48532,,616,2823,155,930,3485,8009,1.24
Liberty Mutual,Auto,zip,Garaging Territory,Territory,zip,48550,,,,,,48550,,632,3387,147,1023,4291,9480,1.47
Liberty Mutual,Auto,zip,Garaging Territory,Territory,zip,48551,,,,,,48551,,632,3387,147,1023,4291,9480,1.47
Liberty Mutual,Auto,zip,Garaging Territory,Territory,zip,48552,,,,,,48552,,632,3387,147,1023,4291,9480,1.47
Liberty Mutual,Auto,zip,Garaging Territory,Territory,zip,48553,,,,,,48553,,632,3387,147,1023,4291,9480,1.47
Liberty Mutual,Auto,zip,Garaging Territory,Territory,zip,48554,,,,,,48554,,478,2082,112,886,2550,6108,0.95
Liberty Mutual,Auto,zip,Garaging Territory,Territory,zip,48555,,,,,,48555,,632,3387,147,1023,4291,9480,1.47
Liberty Mutual,Auto,zip,Garaging Territory,Territory,zip,48556,,,,,,48556,,632,3387,147,1023,4291,9480,1.47
Liberty Mutual,Auto,zip,Garaging Territory,Territory,zip,48557,,,,,,48557,,632,3387,147,1023,4291,9480,1.47
Liberty Mutual,Auto,zip,Garaging Territory,Territory,zip,48559,,,,,,48559,,632,3387,147,1023,4291,9480,1.47
Liberty Mutual,Auto,zip,Garaging Territory,Territory,zip,48601,,,,,,48601,,532,2263,132,750,3692,7369,1.14
Liberty Mutual,Auto,zip,Garaging Territory,Territory,zip,48602,,,,,,48602,,330,1539,93,577,2353,4892,0.76
Liberty Mutual,Auto,zip,Garaging Territory,Territory,zip,48603,,,,,,48603,,330,1539,93,577,2353,4892,0.76
Liberty Mutual,Auto,zip,Garaging Territory,Territory,zip,48604,,,,,,48604,,330,1539,93,577,2353,4892,0.76
Liberty Mutual,Auto,zip,Garaging Territory,Territory,zip,48605,,,,,,48605,,532,2263,132,750,3692,7369,1.14
Liberty Mutual,Auto,zip,Garaging Territory,Territory,zip,48606,,,,,,48606,,532,2263,132,750,3692,7369,1.14
Liberty Mutual,Auto,zip,Garaging Territory,Territory,zip,48607,,,,,,48607,,532,2263,132,750,3692,7369,1.14
Liberty Mutual,Auto,zip,Garaging Territory,Territory,zip,48608,,,,,,48608,,330,1539,93,577,2353,4892,0.76
Liberty Mutual,Auto,zip,Garaging Territory,Territory,zip,48609,,,,,,48609,,330,1539,93,577,2353,4892,0.76
Liberty Mutual,Auto,zip,Garaging Territory,Territory,zip,48610,,,,,,48610,,455,1820,115,1411,2383,6184,0.96
Liberty Mutual,Auto,zip,Garaging Territory,Territory,zip,48862,,,,,,48862,,366,1775,95,1443,2528,6207,0.96
Liberty Mutual,Auto,zip,Garaging Territory,Territory,zip,48863,,,,,,48863,,359,1568,92,831,2540,5390,0.84
Liberty Mutual,Auto,zip,Garaging Territory,Territory,zip,48864,,,,,,48864,,318,1404,85,738,2360,4905,0.76
Liberty Mutual,Auto,zip,Garaging Territory,Territory,zip,48865,,,,,,48865,,386,1840,97,1439,2454,6216,0.96
Liberty Mutual,Auto,zip,Garaging Territory,Territory,zip,48866,,,,,,48866,,386,1840,97,1439,2454,6216,0.96
Liberty Mutual,Auto,zip,Garaging Territory,Territory,zip,48867,,,,,,48867,,386,1840,97,1439,2454,6216,0.96
Liberty Mutual,Auto,zip,Garaging Territory,Territory,zip,48870,,,,,,48870,,386,1840,97,1439,2454,6216,0.96
Liberty Mutual,Auto,zip,Garaging Territory,Territory,zip,48871,,,,,,48871,,366,1775,95,1443,2528,6207,0.96
Liberty Mutual,Auto,zip,Garaging Territory,Territory,zip,48872,,,,,,48872,,386,1840,97,1439,2454,6216,0.96
Liberty Mutual,Auto,zip,Garaging Territory,Territory,zip,48873,,,,,,48873,,386,1840,97,1439,2454,6216,0.96
Liberty Mutual,Auto,zip,Garaging Territory,Territory,zip,48874,,,,,,48874,,366,1775,95,1443,2528,6207,0.96
Liberty Mutual,Auto,zip,Garaging Territory,Territory,zip,48875,,,,,,48875,,386,1840,97,1439,2454,6216,0.96
Liberty Mutual,Auto,zip,Garaging Territory,Territory,zip,48876,,,,,,48876,,318,1404,85,738,2360,4905,0.76
Liberty Mutual,Auto,zip,Garaging Territory,Territory,zip,48877,,,,,,48877,,366,1775,95,1443,2528,6207,0.96
Liberty Mutual,Auto,zip,Garaging Territory,Territory,zip,48878,,,,,,48878,,366,1775,95,1443,2528,6207,0.96
Liberty Mutual,Auto,zip,Garaging Territory,Territory,zip,48879,,,,,,48879,,386,1840,97,1439,2454,6216,0.96
Liberty Mutual,Auto,zip,Garaging Territory,Territory,zip,48880,,,,,,48880,,308,1111,81,604,1750,3854,0.6
Liberty Mutual,Auto,zip,Garaging Territory,Territory,zip,48881,,,,,,48881,,386,1840,97,1439,2454,6216,0.96
Liberty Mutual,Auto,zip,Garaging Territory,Territory,zip,48882,,,,,,48882,,386,1840,97,1439,2454,6216,0.96
Liberty Mutual,Auto,zip,Garaging Territory,Territory,zip,48883,,,,,,48883,,308,1111,81,604,1750,3854,0.6
Liberty Mutual,Auto,zip,Garaging Territory,Territory,zip,48884,,,,,,48884,,366,1775,95,1443,2528,6207,0.96
Liberty Mutual,Auto,zip,Garaging Territory,Territory,zip,48885,,,,,,48885,,366,1775,95,1443,2528,6207,0.96
Liberty Mutual,Auto,zip,Garaging Territory,Territory,zip,48886,,,,,,48886,,366,1775,95,1443,2528,6207,0.96
Liberty Mutual,Auto,zip,Garaging Territory,Territory,zip,48887,,,,,,48887,,386,1840,97,1439,2454,6216,0.96
Liberty Mutual,Auto,zip,Garaging Territory,Territory,zip,48888,,,,,,48888,,366,1775,95,1443,2528,6207,0.96
Liberty Mutual,Auto,zip,Garaging Territory,Territory,zip,48889,,,,,,48889,,366,1775,95,1443,2528,6207,0.96
Liberty Mutual,Auto,zip,Garaging Territory,Territory,zip,48890,,,,,,48890,,386,1840,97,1439,2454,6216,0.96
Liberty Mutual,Auto,zip,Garaging Territory,Territory,zip,48891,,,,,,48891,,366,1775,95,1443,2528,6207,0.96
Liberty Mutual,Auto,zip,Garaging Territory,Territory,zip,48892,,,,,,48892,,359,1568,92,831,2540,5390,0.84
Liberty Mutual,Auto,zip,Garaging Territory,Territory,zip,48893,,,,,,48893,,366,1775,95,1443,2528,6207,0.96
Liberty Mutual,Auto,zip,Garaging Territory,Territory,zip,48894,,,,,,48894,,318,1404,85,738,2360,4905,0.76
Liberty Mutual,Auto,zip,Garaging Territory,Territory,zip,48895,,,,,,48895,,318,1404,85,738,2360,4905,0.76
Liberty Mutual,Auto,zip,Garaging Territory,Territory,zip,48896,,,,,,48896,,366,1775,95,1443,2528,6207,0.96
Liberty Mutual,Auto,zip,Garaging Territory,Territory,zip,48897,,,,,,48897,,386,1840,97,1439,2454,6216,0.96
Liberty Mutual,Auto,zip,Garaging Territory,Territory,zip,48901,,,,,,48901,,317,1607,87,622,2771,5404,0.84
Liberty Mutual,Auto,zip,Garaging Territory,Territory,zip,48906,,,,,,48906,,317,1607,87,622,2771,5404,0.84
Liberty Mutual,Auto,zip,Garaging Territory,Territory,zip,48907,,,,,,48907,,317,1607,87,622,2771,5404,0.84
Liberty Mutual,Auto,zip,Garaging Territory,Territory,zip,48908,,,,,,48908,,317,1607,87,622,2771,5404,0.84
Liberty Mutual,Auto,zip,Garaging Territory,Territory,zip,48909,,,,,,48909,,317,1607,87,622,2771,5404,0.84
Liberty Mutual,Auto,zip,Garaging Territory,Territory,zip,48910,,,,,,48910,,317,1607,87,622,2771,5404,0.84
Liberty Mutual,Auto,zip,Garaging Territory,Territory,zip,48911,,,,,,48911,,317,1607,87,622,2771,5404,0.84
Liberty Mutual,Auto,zip,Garaging Territory,Territory,zip,48912,,,,,,48912,,317,1607,87,622,2771,5404,0.84
Liberty Mutual,Auto,zip,Garaging Territory,Territory,zip,48913,,,,,,48913,,317,1607,87,622,2771,5404,0.84
Liberty Mutual,Auto,zip,Garaging Territory,Territory,zip,48915,,,,,,48915,,317,1607,87,622,2771,5404,0.84
Liberty Mutual,Auto,zip,Garaging Territory,Territory,zip,48916,,,,,,48916,,317,1607,87,622,2771,5404,0.84
Liberty Mutual,Auto,zip,Garaging Territory,Territory,zip,48917,,,,,,48917,,317,1607,87,622,2771,5404,0.84
Liberty Mutual,Auto,zip,Garaging Territory,Territory,zip,48918,,,,,,48918,,317,1607,87,622,2771,5404,0.84
Liberty Mutual,Auto,zip,Garaging Territory,Territory,zip,48919,,,,,,48919,,317,1607,87,622,2771,5404,0.84
Liberty Mutual,Auto,zip,Garaging Territory,Territory,zip,48921,,,,,,48921,,317,1607,87,622,2771,5404,0.84
Liberty Mutual,Auto,zip,Garaging Territory,Territory,zip,48922,,,,,,48922,,317,1607,87,622,2771,5404,0.84
Liberty Mutual,Auto,zip,Garaging Territory,Territory,zip,48924,,,,,,48924,,317,1607,87,622,2771,5404,0.84
Liberty Mutual,Auto,zip,Garaging Territory,Territory,zip,48929,,,,,,48929,,317,1607,87,622,2771,5404,0.84
Liberty Mutual,Auto,zip,Garaging Territory,Territory,zip,48930,,,,,,48930,,317,1607,87,622,2771,5404,0.84
Liberty Mutual,Auto,zip,Garaging Territory,Territory,zip,48933,,,,,,48933,,317,1607,87,622,2771,5404,0.84
Liberty Mutual,Auto,zip,Garaging Territory,Territory,zip,49268,,,,,,49268,,359,1568,92,831,2540,5390,0.84
Liberty Mutual,Auto,zip,Garaging Territory,Territory,zip,49269,,,,,,49269,,331,1620,97,895,2494,5437,0.84
Liberty Mutual,Auto,zip,Garaging Territory,Territory,zip,49270,,,,,,49270,,466,1818,127,654,2613,5678,0.88
Liberty Mutual,Auto,zip,Garaging Territory,Territory,zip,49271,,,,,,49271,,421,1699,112,1081,2240,5553,0.86
Liberty Mutual,Auto,zip,Garaging Territory,Territory,zip,49272,,,,,,49272,,331,1620,97,895,2494,5437,0.84
Liberty Mutual,Auto,zip,Garaging Territory,Territory,zip,49274,,,,,,49274,,421,1699,112,1081,2240,5553,0.86
Liberty Mutual,Auto,zip,Garaging Territory,Territory,zip,49276,,,,,,49276,,466,1818,127,654,2613,5678,0.88
Liberty Mutual,Auto,zip,Garaging Territory,Territory,zip,49277,,,,,,49277,,331,1620,97,895,2494,5437,0.84
Liberty Mutual,Auto,zip,Garaging Territory,Territory,zip,49278,,,,,,49278,,359,1568,92,831,2540,5390,0.84
Liberty Mutual,Auto,zip,Garaging Territory,Territory,zip,49279,,,,,,49279,,359,1568,92,831,2540,5390,0.84
Liberty Mutual,Auto,zip,Garaging Territory,Territory,zip,49280,,,,,,49280,,359,1568,92,831,2540,5390,0.84
Liberty Mutual,Auto,zip,Garaging Territory,Territory,zip,49281,,,,,,49281,,421,1699,112,1081,2240,5553,0.86
Liberty Mutual,Auto,zip,Garaging Territory,Territory,zip,49282,,,,,,49282,,421,1699,112,1081,2240,5553,0.86
Liberty Mutual,Auto,zip,Garaging Territory,Territory,zip,49283,,,,,,49283,,331,1620,97,895,2494,5437,0.84
Liberty Mutual,Auto,zip,Garaging Territory,Territory,zip,49284,,,,,,49284,,331,1620,97,895,2494,5437,0.84
Liberty Mutual,Auto,zip,Garaging Territory,Territory,zip,49285,,,,,,49285,,359,1568,92,831,2540,5390,0.84
Liberty Mutual,Auto,zip,Garaging Territory,Territory,zip,49286,,,,,,49286,,359,1568,92,831,2540,5390,0.84
Liberty Mutual,Auto,zip,Garaging Territory,Territory,zip,49287,,,,,,49287,,359,1568,92,831,2540,5390,0.84
Liberty Mutual,Auto,zip,Garaging Territory,Territory,zip,49288,,,,,,49288,,421,1699,112,1081,2240,5553,0.86
Liberty Mutual,Auto,zip,Garaging Territory,Territory,zip,49289,,,,,,49289,,359,1568,92,831,2540,5390,0.84
Liberty Mutual,Auto,zip,Garaging Territory,Territory,zip,49301,,,,,,49301,,370,1270,101,595,2818,5154,0.8
Liberty Mutual,Auto,zip,Garaging Territory,Territory,zip,49302,,,,,,49302,,397,1465,101,948,3007,5918,0.92
Liberty Mutual,Auto,zip,Garaging Territory,Territory,zip,49303,,,,,,49303,,351,1576,101,727,2601,5356,0.83
Liberty Mutual,Auto,zip,Garaging Territory,Territory,zip,49304,,,,,,49304,,366,1775,95,1443,2528,6207,0.96
Liberty Mutual,Auto,zip,Garaging Territory,Territory,zip,49305,,,,,,49305,,366,1775,95,1443,2528,6207,0.96
Liberty Mutual,Auto,zip,Garaging Territory,Territory,zip,49306,,,,,,49306,,370,1270,101,595,2818,5154,0.8
Liberty Mutual,Auto,zip,Garaging Territory,Territory,zip,49307,,,,,,49307,,366,1775,95,1443,2528,6207,0.96
Liberty Mutual,Auto,zip,Garaging Territory,Territory,zip,49309,,,,,,49309,,366,1775,95,1443,2528,6207,0.96
Liberty Mutual,Auto,zip,Garaging Territory,Territory,zip,49310,,,,,,49310,,366,1775,95,1443,2528,6207,0.96
Liberty Mutual,Auto,zip,Garaging Territory,Territory,zip,49311,,,,,,49311,,349,1842,94,859,2604,5748,0.89
Liberty Mutual,Auto,zip,Garaging Territory,Territory,zip,49312,,,,,,49312,,366,1775,95,1443,2528,6207,0.96
Liberty Mutual,Auto,zip,Garaging Territory,Territory,zip,49314,,,,,,49314,,349,1842,94,859,2604,5748,0.89
Liberty Mutual,Auto,zip,Garaging Territory,Territory,zip,49315,,,,,,49315,,370,1270,101,595,2818,5154,0.8
Liberty Mutual,Auto,zip,Garaging Territory,Territory,zip,49316,,,,,,49316,,370,1270,101,595,2818,5154,0.8
Liberty Mutual,Auto,zip,Garaging Territory,Territory,zip,49317,,,,,,49317,,370,1270,101,595,2818,5154,0.8
Liberty Mutual,Auto,zip,Garaging Territory,Territory,zip,49318,,,,,,49318,,351,1576,101,727,2601,5356,0.83
Liberty Mutual,Auto,zip,Garaging Territory,Territory,zip,49319,,,,,,49319,,443,1835,115,1105,2701,6199,0.96
Liberty Mutual,Auto,zip,Garaging Territory,Territory,zip,49320,,,,,,49320,,366,1775,95,1443,2528,6207,0.96
Liberty Mutual,Auto,zip,Garaging Territory,Territory,zip,49321,,,,,,49321,,370,1270,101,595,2818,5154,0.8
Liberty Mutual,Auto,zip,Garaging Territory,Territory,zip,49322,,,,,,49322,,443,1835,115,1105,2701,6199,0.96
Liberty Mutual,Auto,zip,Garaging Territory,Territory,zip,49323,,,,,,49323,,349,1842,94,859,2604,5748,0.89
Liberty Mutual,Auto,zip,Garaging Territory,Territory,zip,49325,,,,,,49325,,386,1840,97,1439,2454,6216,0.96
Liberty Mutual,Auto,zip,Garaging Territory,Territory,zip,49326,,,,,,49326,,443,1835,115,1105,2701,6199,0.96
Liberty Mutual,Auto,zip,Garaging Territory,Territory,zip,49327,,,,,,49327,,443,1835,115,1105,2701,6199,0.96
Liberty Mutual,Auto,zip,Garaging Territory,Territory,zip,49328,,,,,,49328,,349,1842,94,859,2604,5748,0.89
Liberty Mutual,Auto,zip,Garaging Territory,Territory,zip,49329,,,,,,49329,,443,1835,115,1105,2701,6199,0.96
Liberty Mutual,Auto,zip,Garaging Territory,Territory,zip,49330,,,,,,49330,,443,1835,115,1105,2701,6199,0.96
Liberty Mutual,Auto,zip,Garaging Territory,Territory,zip,49331,,,,,,49331,,443,1835,115,1105,2701,6199,0.96
Liberty Mutual,Auto,zip,Garaging Territory,Territory,zip,49332,,,,,,49332,,366,1775,95,1443,2528,6207,0.96
Liberty Mutual,Auto,zip,Garaging Territory,Territory,zip,49333,,,,,,49333,,386,1840,97,1439,2454,6216,0.96
Liberty Mutual,Auto,zip,Garaging Territory,Territory,zip,49335,,,,,,49335,,349,1842,94,859,2604,5748,0.89
Liberty Mutual,Auto,zip,Garaging Territory,Territory,zip,49336,,,,,,49336,,443,1835,115,1105,2701,6199,0.96
Liberty Mutual,Auto,zip,Garaging Territory,Territory,zip,49337,,,,,,49337,,443,1835,115,1105,2701,6199,0.96
Liberty Mutual,Auto,zip,Garaging Territory,Territory,zip,49338,,,,,,49338,,366,1775,95,1443,2528,6207,0.96
Liberty Mutual,Auto,zip,Garaging Territory,Territory,zip,49682,,,,,,49682,,364,1360,92,776,2410,5002,0.78
Liberty Mutual,Auto,zip,Garaging Territory,Territory,zip,49683,,,,,,49683,,371,1553,101,1218,2108,5351,0.83
Liberty Mutual,Auto,zip,Garaging Territory,Territory,zip,49684,,,,,,49684,,364,1360,92,776,2410,5002,0.78
Liberty Mutual,Auto,zip,Garaging Territory,Territory,zip,49685,,,,,,49685,,368,1380,94,818,2673,5333,0.83
Liberty Mutual,Auto,zip,Garaging Territory,Territory,zip,49686,,,,,,49686,,364,1360,92,776,2410,5002,0.78
Liberty Mutual,Auto,zip,Garaging Territory,Territory,zip,49688,,,,,,49688,,366,1775,95,1443,2528,6207,0.96
Liberty Mutual,Auto,zip,Garaging Territory,Territory,zip,49689,,,,,,49689,,371,1553,101,1218,2108,5351,0.83
Liberty Mutual,Auto,zip,Garaging Territory,Territory,zip,49690,,,,,,49690,,368,1380,94,818,2673,5333,0.83
Liberty Mutual,Auto,zip,Garaging Territory,Territory,zip,49696,,,,,,49696,,368,1380,94,818,2673,5333,0.83
Liberty Mutual,Auto,zip,Garaging Territory,Territory,zip,49701,,,,,,49701,,371,1553,101,1218,2108,5351,0.83
Liberty Mutual,Auto,zip,Garaging Territory,Territory,zip,49705,,,,,,49705,,371,1553,101,1218,2108,5351,0.83
Liberty Mutual,Auto,zip,Garaging Territory,Territory,zip,49706,,,,,,49706,,368,1380,94,818,2673,5333,0.83
Liberty Mutual,Auto,zip,Garaging Territory,Territory,zip,49707,,,,,,49707,,346,1364,96,1122,2050,4978,0.77
Liberty Mutual,Auto,zip,Garaging Territory,Territory,zip,49709,,,,,,49709,,346,1364,96,1122,2050,4978,0.77
Liberty Mutual,Auto,zip,Garaging Territory,Territory,zip,49710,,,,,,49710,,352,1350,102,1073,2290,5167,0.8
Liberty Mutual,Auto,zip,Garaging Territory,Territory,zip,49711,,,,,,49711,,368,1380,94,818,2673,5333,0.83
Liberty Mutual,Auto,zip,Garaging Territory,Territory,zip,49712,,,,,,49712,,368,1380,94,818,2673,5333,0.83
Liberty Mutual,Auto,zip,Garaging Territory,Territory,zip,49713,,,,,,49713,,368,1380,94,818,2673,5333,0.83
Liberty Mutual,Auto,zip,Garaging Territory,Territory,zip,49715,,,,,,49715,,352,1350,102,1073,2290,5167,0.8
Liberty Mutual,Auto,zip,Garaging Territory,Territory,zip,49716,,,,,,49716,,371,1553,101,1218,2108,5351,0.83
Liberty Mutual,Auto,zip,Garaging Territory,Territory,zip,49717,,,,,,49717,,371,1553,101,1218,2108,5351,0.83
Liberty Mutual,Auto,zip,Garaging Territory,Territory,zip,49718,,,,,,49718,,368,1380,94,818,2673,5333,0.83
Liberty Mutual,Auto,zip,Garaging Territory,Territory,zip,49719,,,,,,49719,,352,1350,102,1073,2290,5167,0.8
Liberty Mutual,Auto,zip,Garaging Territory,Territory,zip,49720,,,,,,49720,,368,1380,94,818,2673,5333,0.83
Liberty Mutual,Auto,zip,Garaging Territory,Territory,zip,49721,,,,,,49721,,371,1553,101,1218,2108,5351,0.83
Liberty Mutual,Auto,zip,Garaging Territory,Territory,zip,49722,,,,,,49722,,368,1380,94,818,2673,5333,0.83
Liberty Mutual,Auto,zip,Garaging Territory,Territory,zip,49723,,,,,,49723,,368,1380,94,818,2673,5333,0.83
Liberty Mutual,Auto,zip,Garaging Territory,Territory,zip,49724,,,,,,49724,,352,1350,102,1073,2290,5167,0.8
Liberty Mutual,Auto,zip,Garaging Territory,Territory,zip,49725,,,,,,49725,,352,1350,102,1073,2290,5167,0.8
Liberty Mutual,Auto,zip,Garaging Territory,Territory,zip,49726,,,,,,49726,,352,1350,102,1073,2290,5167,0.8
Liberty Mutual,Auto,zip,Garaging Territory,Territory,zip,49727,,,,,,49727,,368,1380,94,818,2673,5333,0.83
Liberty Mutual,Auto,zip,Garaging Territory,Territory,zip,49728,,,,,,49728,,352,1350,102,1073,2290,5167,0.8
Liberty Mutual,Auto,zip,Garaging Territory,Territory,zip,49729,,,,,,49729,,368,1380,94,818,2673,5333,0.83
Liberty Mutual,Auto,zip,Garaging Territory,Territory,zip,49730,,,,,,49730,,368,1380,94,818,2673,5333,0.83
Liberty Mutual,Auto,zip,Garaging Territory,Territory,zip,49733,,,,,,49733,,371,1553,101,1218,2108,5351,0.83
Liberty Mutual,Auto,zip,Garaging Territory,Territory,zip,49734,,,,,,49734,,371,1553,101,1218,2108,5351,0.83
Liberty Mutual,Auto,zip,Garaging Territory,Territory,zip,49735,,,,,,49735,,371,1553,101,1218,2108,5351,0.83
Liberty Mutual,Auto,zip,Garaging Territory,Territory,zip,49736,,,,,,49736,,352,1350,102,1073,2290,5167,0.8
Liberty Mutual,Auto,zip,Garaging Territory,Territory,zip,49737,,,,,,49737,,368,1380,94,818,2673,5333,0.83
Liberty Mutual,Auto,zip,Garaging Territory,Territory,zip,49738,,,,,,49738,,371,1553,101,1218,2108,5351,0.83
Liberty Mutual,Auto,zip,Garaging Territory,Territory,zip,49739,,,,,,49739,,371,1553,101,1218,2108,5351,0.83
Liberty Mutual,Auto,zip,Garaging Territory,Territory,zip,49740,,,,,,49740,,368,1380,94,818,2673,5333,0.83
Liberty Mutual,Auto,zip,Garaging Territory,Territory,zip,49743,,,,,,49743,,346,1364,96,1122,2050,4978,0.77
Liberty Mutual,Auto,zip,Garaging Territory,Territory,zip,49744,,,,,,49744,,346,1364,96,1122,2050,4978,0.77
Liberty Mutual,Auto,zip,Garaging Territory,Territory,zip,49745,,,,,,49745,,352,1350,102,1073,2290,5167,0.8
Liberty Mutual,Auto,zip,Garaging Territory,Territory,zip,49746,,,,,,49746,,346,1364,96,1122,2050,4978,0.77
Liberty Mutual,Auto,zip,Garaging Territory,Territory,zip,49747,,,,,,49747,,371,1553,101,1218,2108,5351,0.83
Liberty Mutual,Auto,zip,Garaging Territory,Territory,zip,49748,,,,,,49748,,352,1350,102,1073,2290,5167,0.8
Liberty Mutual,Auto,zip,Garaging Territory,Territory,zip,49749,,,,,,49749,,371,1553,101,1218,2108,5351,0.83
Liberty Mutual,Auto,zip,Garaging Territory,Territory,zip,49751,,,,,,49751,,371,1553,101,1218,2108,5351,0.83
Liberty Mutual,Auto,zip,Garaging Territory,Territory,zip,49752,,,,,,49752,,352,1350,102,1073,2290,5167,0.8
Liberty Mutual,Auto,zip,Garaging Territory,Territory,zip,49753,,,,,,49753,,346,1364,96,1122,2050,4978,0.77
Liberty Mutual,Auto,zip,Garaging Territory,Territory,zip,49755,,,,,,49755,,368,1380,94,818,2673,5333,0.83
Liberty Mutual,Auto,zip,Garaging Territory,Territory,zip,49756,,,,,,49756,,371,1553,101,1218,2108,5351,0.83
Liberty Mutual,Auto,zip,Garaging Territory,Territory,zip,48202,,,,,,48202,,894,5299,226,3276,5040,14735,2.29
Liberty Mutual,Auto,zip,Garaging Territory,Territory,zip,48203,,,,,,48203,,764,4874,193,3655,5195,14681,2.28
Liberty Mutual,Auto,zip,Garaging Territory,Territory,zip,48204,,,,,,48204,,757,4675,203,3959,4895,14489,2.25
Liberty Mutual,Auto,zip,Garaging Territory,Territory,zip,48205,,,,,,48205,,718,4950,169,3461,4875,14173,2.2
Liberty Mutual,Auto,zip,Garaging Territory,Territory,zip,48206,,,,,,48206,,804,5101,203,3504,5525,15137,2.35
Liberty Mutual,Auto,zip,Garaging Territory,Territory,zip,48207,,,,,,48207,,803,5020,202,3137,4610,13772,2.14
Liberty Mutual,Auto,zip,Garaging Territory,Territory,zip,48208,,,,,,48208,,808,4801,199,3901,5730,15439,2.4
Liberty Mutual,Auto,zip,Garaging Territory,Territory,zip,48209,,,,,,48209,,788,4650,187,3785,5329,14739,2.29
Liberty Mutual,Auto,zip,Garaging Territory,Territory,zip,48210,,,,,,48210,,788,4650,187,3785,5329,14739,2.29
Liberty Mutual,Auto,zip,Garaging Territory,Territory,zip,48211,,,,,,48211,,810,5101,205,3678,5650,15444,2.4
Liberty Mutual,Auto,zip,Garaging Territory,Territory,zip,48212,,,,,,48212,,746,4784,184,3039,6030,14783,2.29
Liberty Mutual,Auto,zip,Garaging Territory,Territory,zip,48213,,,,,,48213,,756,5036,186,3813,5355,15146,2.35
Liberty Mutual,Auto,zip,Garaging Territory,Territory,zip,48214,,,,,,48214,,728,4835,173,2814,5035,13585,2.11
Liberty Mutual,Auto,zip,Garaging Territory,Territory,zip,48215,,,,,,48215,,839,4490,200,4162,4823,14514,2.25
Liberty Mutual,Auto,zip,Garaging Territory,Territory,zip,48216,,,,,,48216,,753,4551,187,3717,4895,14103,2.19
Liberty Mutual,Auto,zip,Garaging Territory,Territory,zip,48217,,,,,,48217,,609,3620,148,2403,3640,10420,1.62
Liberty Mutual,Auto,zip,Garaging Territory,Territory,zip,48218,,,,,,48218,,562,3225,143,1786,3485,9201,1.43
Liberty Mutual,Auto,zip,Garaging Territory,Territory,zip,48219,,,,,,48219,,706,4340,160,2780,4655,12641,1.96
Liberty Mutual,Auto,zip,Garaging Territory,Territory,zip,48220,,,,,,48220,,594,2710,150,1411,3731,8596,1.33
Liberty Mutual,Auto,zip,Garaging Territory,Territory,zip,48221,,,,,,48221,,684,4682,169,3026,5055,13616,2.11
Liberty Mutual,Auto,zip,Garaging Territory,Territory,zip,48222,,,,,,48222,,753,4551,187,3717,4895,14103,2.19
Liberty Mutual,Auto,zip,Garaging Territory,Territory,zip,48223,,,,,,48223,,765,4775,190,2972,4605,13307,2.07
Liberty Mutual,Auto,zip,Garaging Territory,Territory,zip,48224,,,,,,48224,,824,2950,194,1963,3460,9391,1.46
Liberty Mutual,Auto,zip,Garaging Territory,Territory,zip,48225,,,,,,48225,,584,2350,138,1682,2820,7574,1.18
Liberty Mutual,Auto,zip,Garaging Territory,Territory,zip,48226,,,,,,48226,,798,5120,191,3911,4655,14675,2.28
Liberty Mutual,Auto,zip,Garaging Territory,Territory,zip,48227,,,,,,48227,,770,4755,196,3641,5100,14462,2.24
Liberty Mutual,Auto,zip,Garaging Territory,Territory,zip,48228,,,,,,48228,,690,4755,167,2859,4850,13321,2.07
Liberty Mutual,Auto,zip,Garaging Territory,Territory,zip,48229,,,,,,48229,,543,2845,139,1193,3590,8310,1.29
Liberty Mutual,Auto,zip,Garaging Territory,Territory,zip,48230,,,,,,48230,,493,2235,129,1441,2910,7208,1.12
Liberty Mutual,Auto,zip,Garaging Territory,Territory,zip,48231,,,,,,48231,,798,5120,191,3911,4655,14675,2.28
Liberty Mutual,Auto,zip,Garaging Territory,Territory,zip,48232,,,,,,48232,,798,5120,191,3911,4655,14675,2.28
Liberty Mutual,Auto,zip,Garaging Territory,Territory,zip,48233,,,,,,48233,,798,5120,191,3911,4655,14675,2.28
Liberty Mutual,Auto,zip,Garaging Territory,Territory,zip,48234,,,,,,48234,,686,4675,175,3413,4905,13854,2.15
Liberty Mutual,Auto,zip,Garaging Territory,Territory,zip,48235,,,,,,48235,,673,4238,167,2961,4630,12669,1.97
Liberty Mutual,Auto,zip,Garaging Territory,Territory,zip,48236,,,,,,48236,,435,2029,121,1135,2660,6380,0.99
Liberty Mutual,Auto,zip,Garaging Territory,Territory,zip,48237,,,,,,48237,,594,2710,150,1411,3731,8596,1.33
Liberty Mutual,Auto,zip,Garaging Territory,Territory,zip,48238,,,,,,48238,,818,5425,208,3536,5555,15542,2.41
Liberty Mutual,Auto,zip,Garaging Territory,Territory,zip,48239,,,,,,48239,,468,2290,115,1725,2695,7293,1.13
Liberty Mutual,Auto,zip,Garaging Territory,Territory,zip,48240,,,,,,48240,,371,2340,99,999,2635,6444,1.0
Liberty Mutual,Auto,zip,Garaging Territory,Territory,zip,48242,,,,,,48242,,437,2520,106,868,2845,6776,1.05
Liberty Mutual,Auto,zip,Garaging Territory,Territory,zip,48243,,,,,,48243,,798,5120,191,3911,4655,14675,2.28
Liberty Mutual,Auto,zip,Garaging Territory,Territory,zip,48244,,,,,,48244,,798,5120,191,3911,4655,14675,2.28
Liberty Mutual,Auto,zip,Garaging Territory,Territory,zip,48255,,,,,,48255,,798,5120,191,3911,4655,14675,2.28
Liberty Mutual,Auto,zip,Garaging Territory,Territory,zip,48260,,,,,,48260,,798,5120,191,3911,4655,14675,2.28
Liberty Mutual,Auto,zip,Garaging Territory,Territory,zip,48264,,,,,,48264,,798,5120,191,3911,4655,14675,2.28
Liberty Mutual,Auto,zip,Garaging Territory,Territory,zip,48265,,,,,,48265,,584,2350,138,1682,2820,7574,1.18
Liberty Mutual,Auto,zip,Garaging Territory,Territory,zip,48266,,,,,,48266,,803,5020,202,3137,4610,13772,2.14
Liberty Mutual,Auto,zip,Garaging Territory,Territory,zip,48267,,,,,,48267,,798,5120,191,3911,4655,14675,2.28
Liberty Mutual,Auto,zip,Garaging Territory,Territory,zip,48268,,,,,,48268,,798,5120,191,3911,4655,14675,2.28
Liberty Mutual,Auto,zip,Garaging Territory,Territory,zip,48269,,,,,,48269,,798,5120,191,3911,4655,14675,2.28
Liberty Mutual,Auto,zip,Garaging Territory,Territory,zip,48272,,,,,,48272,,798,5120,191,3911,4655,14675,2.28
Liberty Mutual,Auto,zip,Garaging Territory,Territory,zip,48275,,,,,,48275,,798,5120,191,3911,4655,14675,2.28
Liberty Mutual,Auto,zip,Garaging Territory,Territory,zip,48277,,,,,,48277,,798,5120,191,3911,4655,14675,2.28
Liberty Mutual,Auto,zip,Garaging Territory,Territory,zip,48278,,,,,,48278,,798,5120,191,3911,4655,14675,2.28
Liberty Mutual,Auto,zip,Garaging Territory,Territory,zip,48611,,,,,,48611,,308,1111,81,604,1750,3854,0.6
Liberty Mutual,Auto,zip,Garaging Territory,Territory,zip,48612,,,,,,48612,,455,1820,115,1411,2383,6184,0.96
Liberty Mutual,Auto,zip,Garaging Territory,Territory,zip,48613,,,,,,48613,,337,1630,89,657,2320,5033,0.78
Liberty Mutual,Auto,zip,Garaging Territory,Territory,zip,48614,,,,,,48614,,330,1539,93,577,2353,4892,0.76
Liberty Mutual,Auto,zip,Garaging Territory,Territory,zip,48615,,,,,,48615,,308,1111,81,604,1750,3854,0.6
Liberty Mutual,Auto,zip,Garaging Territory,Territory,zip,48616,,,,,,48616,,330,1539,93,577,2353,4892,0.76
Liberty Mutual,Auto,zip,Garaging Territory,Territory,zip,48617,,,,,,48617,,366,1775,95,1443,2528,6207,0.96
Liberty Mutual,Auto,zip,Garaging Territory,Territory,zip,48618,,,,,,48618,,308,1111,81,604,1750,3854,0.6
Liberty Mutual,Auto,zip,Garaging Territory,Territory,zip,48619,,,,,,48619,,371,1553,101,1218,2108,5351,0.83
Liberty Mutual,Auto,zip,Garaging Territory,Territory,zip,48620,,,,,,48620,,308,1111,81,604,1750,3854,0.6
Liberty Mutual,Auto,zip,Garaging Territory,Territory,zip,48621,,,,,,48621,,371,1553,101,1218,2108,5351,0.83
Liberty Mutual,Auto,zip,Garaging Territory,Territory,zip,48622,,,,,,48622,,366,1775,95,1443,2528,6207,0.96
Liberty Mutual,Auto,zip,Garaging Territory,Territory,zip,48623,,,,,,48623,,308,1111,81,604,1750,3854,0.6
Liberty Mutual,Auto,zip,Garaging Territory,Territory,zip,48624,,,,,,48624,,455,1820,115,1411,2383,6184,0.96
Liberty Mutual,Auto,zip,Garaging Territory,Territory,zip,48625,,,,,,48625,,366,1775,95,1443,2528,6207,0.96
Liberty Mutual,Auto,zip,Garaging Territory,Territory,zip,48626,,,,,,48626,,330,1539,93,577,2353,4892,0.76
Liberty Mutual,Auto,zip,Garaging Territory,Territory,zip,48627,,,,,,48627,,371,1553,101,1218,2108,5351,0.83
Liberty Mutual,Auto,zip,Garaging Territory,Territory,zip,48628,,,,,,48628,,308,1111,81,604,1750,3854,0.6
Liberty Mutual,Auto,zip,Garaging Territory,Territory,zip,48629,,,,,,48629,,371,1553,101,1218,2108,5351,0.83
Liberty Mutual,Auto,zip,Garaging Territory,Territory,zip,48630,,,,,,48630,,371,1553,101,1218,2108,5351,0.83
Liberty Mutual,Auto,zip,Garaging Territory,Territory,zip,48631,,,,,,48631,,337,1630,89,657,2320,5033,0.78
Liberty Mutual,Auto,zip,Garaging Territory,Territory,zip,48632,,,,,,48632,,366,1775,95,1443,2528,6207,0.96
Liberty Mutual,Auto,zip,Garaging Territory,Territory,zip,48633,,,,,,48633,,366,1775,95,1443,2528,6207,0.96
Liberty Mutual,Auto,zip,Garaging Territory,Territory,zip,48634,,,,,,48634,,337,1630,89,657,2320,5033,0.78
Liberty Mutual,Auto,zip,Garaging Territory,Territory,zip,48635,,,,,,48635,,371,1553,101,1218,2108,5351,0.83
Liberty Mutual,Auto,zip,Garaging Territory,Territory,zip,48636,,,,,,48636,,371,1553,101,1218,2108,5351,0.83
Liberty Mutual,Auto,zip,Garaging Territory,Territory,zip,48637,,,,,,48637,,318,1309,86,963,2189,4865,0.75
Liberty Mutual,Auto,zip,Garaging Territory,Territory,zip,48638,,,,,,48638,,330,1539,93,577,2353,4892,0.76
Liberty Mutual,Auto,zip,Garaging Territory,Territory,zip,48640,,,,,,48640,,308,1111,81,604,1750,3854,0.6
Liberty Mutual,Auto,zip,Garaging Territory,Territory,zip,48641,,,,,,48641,,308,1111,81,604,1750,3854,0.6
Liberty Mutual,Auto,zip,Garaging Territory,Territory,zip,48642,,,,,,48642,,308,1111,81,604,1750,3854,0.6
Liberty Mutual,Auto,zip,Garaging Territory,Territory,zip,48647,,,,,,48647,,371,1553,101,1218,2108,5351,0.83
Liberty Mutual,Auto,zip,Garaging Territory,Territory,zip,48649,,,,,,48649,,330,1539,93,577,2353,4892,0.76
Liberty Mutual,Auto,zip,Garaging Territory,Territory,zip,48650,,,,,,48650,,337,1630,89,657,2320,5033,0.78
Liberty Mutual,Auto,zip,Garaging Territory,Territory,zip,48651,,,,,,48651,,371,1553,101,1218,2108,5351,0.83
Liberty Mutual,Auto,zip,Garaging Territory,Territory,zip,48652,,,,,,48652,,318,1309,86,963,2189,4865,0.75
Liberty Mutual,Auto,zip,Garaging Territory,Territory,zip,48653,,,,,,48653,,371,1553,101,1218,2108,5351,0.83
Liberty Mutual,Auto,zip,Garaging Territory,Territory,zip,48654,,,,,,48654,,371,1553,101,1218,2108,5351,0.83
Liberty Mutual,Auto,zip,Garaging Territory,Territory,zip,48655,,,,,,48655,,330,1539,93,577,2353,4892,0.76
Liberty Mutual,Auto,zip,Garaging Territory,Territory,zip,48656,,,,,,48656,,371,1553,101,1218,2108,5351,0.83
Liberty Mutual,Auto,zip,Garaging Territory,Territory,zip,48657,,,,,,48657,,308,1111,81,604,1750,3854,0.6
Liberty Mutual,Auto,zip,Garaging Territory,Territory,zip,48658,,,,,,48658,,455,1820,115,1411,2383,6184,0.96
Liberty Mutual,Auto,zip,Garaging Territory,Territory,zip,48659,,,,,,48659,,455,1820,115,1411,2383,6184,0.96
Liberty Mutual,Auto,zip,Garaging Territory,Territory,zip,48661,,,,,,48661,,371,1553,101,1218,2108,5351,0.83
Liberty Mutual,Auto,zip,Garaging Territory,Territory,zip,48662,,,,,,48662,,366,1775,95,1443,2528,6207,0.96
Liberty Mutual,Auto,zip,Garaging Territory,Territory,zip,48663,,,,,,48663,,330,1539,93,577,2353,4892,0.76
Liberty Mutual,Auto,zip,Garaging Territory,Territory,zip,48667,,,,,,48667,,308,1111,81,604,1750,3854,0.6
Liberty Mutual,Auto,zip,Garaging Territory,Territory,zip,48670,,,,,,48670,,308,1111,81,604,1750,3854,0.6
Liberty Mutual,Auto,zip,Garaging Territory,Territory,zip,48674,,,,,,48674,,308,1111,81,604,1750,3854,0.6
Liberty Mutual,Auto,zip,Garaging Territory,Territory,zip,48686,,,,,,48686,,308,1111,81,604,1750,3854,0.6
Liberty Mutual,Auto,zip,Garaging Territory,Territory,zip,48701,,,,,,48701,,427,2058,104,1147,2483,6219,0.97
Liberty Mutual,Auto,zip,Garaging Territory,Territory,zip,48703,,,,,,48703,,455,1820,115,1411,2383,6184,0.96
Liberty Mutual,Auto,zip,Garaging Territory,Territory,zip,48705,,,,,,48705,,371,1553,101,1218,2108,5351,0.83
Liberty Mutual,Auto,zip,Garaging Territory,Territory,zip,48706,,,,,,48706,,337,1630,89,657,2320,5033,0.78
Liberty Mutual,Auto,zip,Garaging Territory,Territory,zip,48937,,,,,,48937,,317,1607,87,622,2771,5404,0.84
Liberty Mutual,Auto,zip,Garaging Territory,Territory,zip,48950,,,,,,48950,,317,1607,87,622,2771,5404,0.84
Liberty Mutual,Auto,zip,Garaging Territory,Territory,zip,48951,,,,,,48951,,317,1607,87,622,2771,5404,0.84
Liberty Mutual,Auto,zip,Garaging Territory,Territory,zip,48956,,,,,,48956,,317,1607,87,622,2771,5404,0.84
Liberty Mutual,Auto,zip,Garaging Territory,Territory,zip,48980,,,,,,48980,,317,1607,87,622,2771,5404,0.84
Liberty Mutual,Auto,zip,Garaging Territory,Territory,zip,49001,,,,,,49001,,352,1338,105,645,2498,4938,0.77
Liberty Mutual,Auto,zip,Garaging Territory,Territory,zip,49002,,,,,,49002,,357,1339,100,640,2451,4887,0.76
Liberty Mutual,Auto,zip,Garaging Territory,Territory,zip,49003,,,,,,49003,,352,1338,105,645,2498,4938,0.77
Liberty Mutual,Auto,zip,Garaging Territory,Territory,zip,49004,,,,,,49004,,357,1339,100,640,2451,4887,0.76
Liberty Mutual,Auto,zip,Garaging Territory,Territory,zip,49005,,,,,,49005,,352,1338,105,645,2498,4938,0.77
Liberty Mutual,Auto,zip,Garaging Territory,Territory,zip,49006,,,,,,49006,,352,1338,105,645,2498,4938,0.77
Liberty Mutual,Auto,zip,Garaging Territory,Territory,zip,49007,,,,,,49007,,352,1338,105,645,2498,4938,0.77
Liberty Mutual,Auto,zip,Garaging Territory,Territory,zip,49008,,,,,,49008,,352,1338,105,645,2498,4938,0.77
Liberty Mutual,Auto,zip,Garaging Territory,Territory,zip,49009,,,,,,49009,,352,1338,105,645,2498,4938,0.77
Liberty Mutual,Auto,zip,Garaging Territory,Territory,zip,49010,,,,,,49010,,349,1842,94,859,2604,5748,0.89
Liberty Mutual,Auto,zip,Garaging Territory,Territory,zip,49011,,,,,,49011,,351,1650,103,1116,2326,5546,0.86
Liberty Mutual,Auto,zip,Garaging Territory,Territory,zip,49012,,,,,,49012,,352,1338,105,645,2498,4938,0.77
Liberty Mutual,Auto,zip,Garaging Territory,Territory,zip,49013,,,,,,49013,,419,1601,110,903,2492,5525,0.86
Liberty Mutual,Auto,zip,Garaging Territory,Territory,zip,49014,,,,,,49014,,324,1602,98,780,2667,5471,0.85
Liberty Mutual,Auto,zip,Garaging Territory,Territory,zip,49015,,,,,,49015,,324,1602,98,780,2667,5471,0.85
Liberty Mutual,Auto,zip,Garaging Territory,Territory,zip,49016,,,,,,49016,,324,1602,98,780,2667,5471,0.85
Liberty Mutual,Auto,zip,Garaging Territory,Territory,zip,49017,,,,,,49017,,324,1602,98,780,2667,5471,0.85
Liberty Mutual,Auto,zip,Garaging Territory,Territory,zip,49018,,,,,,49018,,324,1602,98,780,2667,5471,0.85
Liberty Mutual,Auto,zip,Garaging Territory,Territory,zip,49019,,,,,,49019,,352,1338,105,645,2498,4938,0.77
Liberty Mutual,Auto,zip,Garaging Territory,Territory,zip,49020,,,,,,49020,,324,1602,98,780,2667,5471,0.85
Liberty Mutual,Auto,zip,Garaging Territory,Territory,zip,49021,,,,,,49021,,386,1840,97,1439,2454,6216,0.96
Liberty Mutual,Auto,zip,Garaging Territory,Territory,zip,49022,,,,,,49022,,426,1640,122,623,2064,4875,0.76
Liberty Mutual,Auto,zip,Garaging Territory,Territory,zip,49023,,,,,,49023,,426,1640,122,623,2064,4875,0.76
Liberty Mutual,Auto,zip,Garaging Territory,Territory,zip,49024,,,,,,49024,,352,1338,105,645,2498,4938,0.77
Liberty Mutual,Auto,zip,Garaging Territory,Territory,zip,49026,,,,,,49026,,419,1601,110,903,2492,5525,0.86
Liberty Mutual,Auto,zip,Garaging Territory,Territory,zip,49027,,,,,,49027,,419,1601,110,903,2492,5525,0.86
Liberty Mutual,Auto,zip,Garaging Territory,Territory,zip,49028,,,,,,49028,,421,1699,112,1081,2240,5553,0.86
Liberty Mutual,Auto,zip,Garaging Territory,Territory,zip,49029,,,,,,49029,,351,1650,103,1116,2326,5546,0.86
Liberty Mutual,Auto,zip,Garaging Territory,Territory,zip,49030,,,,,,49030,,421,1699,112,1081,2240,5553,0.86
Liberty Mutual,Auto,zip,Garaging Territory,Territory,zip,49031,,,,,,49031,,419,1601,110,903,2492,5525,0.86
Liberty Mutual,Auto,zip,Garaging Territory,Territory,zip,49032,,,,,,49032,,421,1699,112,1081,2240,5553,0.86
Liberty Mutual,Auto,zip,Garaging Territory,Territory,zip,49033,,,,,,49033,,351,1650,103,1116,2326,5546,0.86
Liberty Mutual,Auto,zip,Garaging Territory,Territory,zip,49034,,,,,,49034,,352,1338,105,645,2498,4938,0.77
Liberty Mutual,Auto,zip,Garaging Territory,Territory,zip,49035,,,,,,49035,,386,1840,97,1439,2454,6216,0.96
Liberty Mutual,Auto,zip,Garaging Territory,Territory,zip,49036,,,,,,49036,,421,1699,112,1081,2240,5553,0.86
Liberty Mutual,Auto,zip,Garaging Territory,Territory,zip,49037,,,,,,49037,,352,1338,105,645,2498,4938,0.77
Liberty Mutual,Auto,zip,Garaging Territory,Territory,zip,49038,,,,,,49038,,426,1640,122,623,2064,4875,0.76
Liberty Mutual,Auto,zip,Garaging Territory,Territory,zip,49039,,,,,,49039,,426,1640,122,623,2064,4875,0.76
Liberty Mutual,Auto,zip,Garaging Territory,Territory,zip,49040,,,,,,49040,,421,1699,112,1081,2240,5553,0.86
Liberty Mutual,Auto,zip,Garaging Territory,Territory,zip,49041,,,,,,49041,,352,1338,105,645,2498,4938,0.77
Liberty Mutual,Auto,zip,Garaging Territory,Territory,zip,49042,,,,,,49042,,421,1699,112,1081,2240,5553,0.86
Liberty Mutual,Auto,zip,Garaging Territory,Territory,zip,49043,,,,,,49043,,419,1601,110,903,2492,5525,0.86
Liberty Mutual,Auto,zip,Garaging Territory,Territory,zip,49045,,,,,,49045,,419,1601,110,903,2492,5525,0.86
Liberty Mutual,Auto,zip,Garaging Territory,Territory,zip,49046,,,,,,49046,,386,1840,97,1439,2454,6216,0.96
Liberty Mutual,Auto,zip,Garaging Territory,Territory,zip,49047,,,,,,49047,,419,1601,110,903,2492,5525,0.86
Liberty Mutual,Auto,zip,Garaging Territory,Territory,zip,49048,,,,,,49048,,357,1339,100,640,2451,4887,0.76
Liberty Mutual,Auto,zip,Garaging Territory,Territory,zip,49050,,,,,,49050,,386,1840,97,1439,2454,6216,0.96
Liberty Mutual,Auto,zip,Garaging Territory,Territory,zip,49051,,,,,,49051,,351,1650,103,1116,2326,5546,0.86
Liberty Mutual,Auto,zip,Garaging Territory,Territory,zip,49052,,,,,,49052,,352,1338,105,645,2498,4938,0.77
Liberty Mutual,Auto,zip,Garaging Territory,Territory,zip,49053,,,,,,49053,,357,1339,100,640,2451,4887,0.76
Liberty Mutual,Auto,zip,Garaging Territory,Territory,zip,49339,,,,,,49339,,443,1835,115,1105,2701,6199,0.96
Liberty Mutual,Auto,zip,Garaging Territory,Territory,zip,49340,,,,,,49340,,366,1775,95,1443,2528,6207,0.96
Liberty Mutual,Auto,zip,Garaging Territory,Territory,zip,49341,,,,,,49341,,370,1270,101,595,2818,5154,0.8
Liberty Mutual,Auto,zip,Garaging Territory,Territory,zip,49342,,,,,,49342,,366,1775,95,1443,2528,6207,0.96
Liberty Mutual,Auto,zip,Garaging Territory,Territory,zip,49343,,,,,,49343,,443,1835,115,1105,2701,6199,0.96
Liberty Mutual,Auto,zip,Garaging Territory,Territory,zip,49344,,,,,,49344,,349,1842,94,859,2604,5748,0.89
Liberty Mutual,Auto,zip,Garaging Territory,Territory,zip,49345,,,,,,49345,,443,1835,115,1105,2701,6199,0.96
Liberty Mutual,Auto,zip,Garaging Territory,Territory,zip,49346,,,,,,49346,,366,1775,95,1443,2528,6207,0.96
Liberty Mutual,Auto,zip,Garaging Territory,Territory,zip,49347,,,,,,49347,,443,1835,115,1105,2701,6199,0.96
Liberty Mutual,Auto,zip,Garaging Territory,Territory,zip,49348,,,,,,49348,,349,1842,94,859,2604,5748,0.89
Liberty Mutual,Auto,zip,Garaging Territory,Territory,zip,49349,,,,,,49349,,366,1775,95,1443,2528,6207,0.96
Liberty Mutual,Auto,zip,Garaging Territory,Territory,zip,49351,,,,,,49351,,370,1270,101,595,2818,5154,0.8
Liberty Mutual,Auto,zip,Garaging Territory,Territory,zip,49355,,,,,,49355,,370,1270,101,595,2818,5154,0.8
Liberty Mutual,Auto,zip,Garaging Territory,Territory,zip,49356,,,,,,49356,,370,1270,101,595,2818,5154,0.8
Liberty Mutual,Auto,zip,Garaging Territory,Territory,zip,49357,,,,,,49357,,370,1270,101,595,2818,5154,0.8
Liberty Mutual,Auto,zip,Garaging Territory,Territory,zip,49401,,,,,,49401,,288,1142,81,581,2609,4701,0.73
Liberty Mutual,Auto,zip,Garaging Territory,Territory,zip,49402,,,,,,49402,,366,1775,95,1443,2528,6207,0.96
Liberty Mutual,Auto,zip,Garaging Territory,Territory,zip,49403,,,,,,49403,,370,1270,101,595,2818,5154,0.8
Liberty Mutual,Auto,zip,Garaging Territory,Territory,zip,49404,,,,,,49404,,370,1270,101,595,2818,5154,0.8
Liberty Mutual,Auto,zip,Garaging Territory,Territory,zip,49405,,,,,,49405,,366,1775,95,1443,2528,6207,0.96
Liberty Mutual,Auto,zip,Garaging Territory,Territory,zip,49406,,,,,,49406,,288,1142,81,581,2609,4701,0.73
Liberty Mutual,Auto,zip,Garaging Territory,Territory,zip,49408,,,,,,49408,,349,1842,94,859,2604,5748,0.89
Liberty Mutual,Auto,zip,Garaging Territory,Territory,zip,49409,,,,,,49409,,288,1142,81,581,2609,4701,0.73
Liberty Mutual,Auto,zip,Garaging Territory,Territory,zip,49410,,,,,,49410,,366,1775,95,1443,2528,6207,0.96
Liberty Mutual,Auto,zip,Garaging Territory,Territory,zip,49411,,,,,,49411,,366,1775,95,1443,2528,6207,0.96
Liberty Mutual,Auto,zip,Garaging Territory,Territory,zip,49412,,,,,,49412,,351,1576,101,727,2601,5356,0.83
Liberty Mutual,Auto,zip,Garaging Territory,Territory,zip,49413,,,,,,49413,,351,1576,101,727,2601,5356,0.83
Liberty Mutual,Auto,zip,Garaging Territory,Territory,zip,49415,,,,,,49415,,351,1576,101,727,2601,5356,0.83
Liberty Mutual,Auto,zip,Garaging Territory,Territory,zip,49416,,,,,,49416,,349,1842,94,859,2604,5748,0.89
Liberty Mutual,Auto,zip,Garaging Territory,Territory,zip,49417,,,,,,49417,,288,1142,81,581,2609,4701,0.73
Liberty Mutual,Auto,zip,Garaging Territory,Territory,zip,49418,,,,,,49418,,370,1270,101,595,2818,5154,0.8
Liberty Mutual,Auto,zip,Garaging Territory,Territory,zip,49419,,,,,,49419,,349,1842,94,859,2604,5748,0.89
Liberty Mutual,Auto,zip,Garaging Territory,Territory,zip,49420,,,,,,49420,,366,1775,95,1443,2528,6207,0.96
Liberty Mutual,Auto,zip,Garaging Territory,Territory,zip,49421,,,,,,49421,,366,1775,95,1443,2528,6207,0.96
Liberty Mutual,Auto,zip,Garaging Territory,Territory,zip,49422,,,,,,49422,,288,1142,81,581,2609,4701,0.73
Liberty Mutual,Auto,zip,Garaging Territory,Territory,zip,49423,,,,,,49423,,288,1142,81,581,2609,4701,0.73
Liberty Mutual,Auto,zip,Garaging Territory,Territory,zip,49424,,,,,,49424,,288,1142,81,581,2609,4701,0.73
Liberty Mutual,Auto,zip,Garaging Territory,Territory,zip,49425,,,,,,49425,,351,1576,101,727,2601,5356,0.83
Liberty Mutual,Auto,zip,Garaging Territory,Territory,zip,49426,,,,,,49426,,370,1270,101,595,2818,5154,0.8
Liberty Mutual,Auto,zip,Garaging Territory,Territory,zip,49427,,,,,,49427,,370,1270,101,595,2818,5154,0.8
Liberty Mutual,Auto,zip,Garaging Territory,Territory,zip,49428,,,,,,49428,,370,1270,101,595,2818,5154,0.8
Liberty Mutual,Auto,zip,Garaging Territory,Territory,zip,49429,,,,,,49429,,370,1270,101,595,2818,5154,0.8
Liberty Mutual,Auto,zip,Garaging Territory,Territory,zip,49430,,,,,,49430,,370,1270,101,595,2818,5154,0.8
Liberty Mutual,Auto,zip,Garaging Territory,Territory,zip,49431,,,,,,49431,,366,1775,95,1443,2528,6207,0.96
Liberty Mutual,Auto,zip,Garaging Territory,Territory,zip,49434,,,,,,49434,,288,1142,81,581,2609,4701,0.73
Liberty Mutual,Auto,zip,Garaging Territory,Territory,zip,49435,,,,,,49435,,370,1270,101,595,2818,5154,0.8
Liberty Mutual,Auto,zip,Garaging Territory,Territory,zip,49436,,,,,,49436,,366,1775,95,1443,2528,6207,0.96
Liberty Mutual,Auto,zip,Garaging Territory,Territory,zip,49437,,,,,,49437,,351,1576,101,727,2601,5356,0.83
Liberty Mutual,Auto,zip,Garaging Territory,Territory,zip,49440,,,,,,49440,,351,1576,101,727,2601,5356,0.83
Liberty Mutual,Auto,zip,Garaging Territory,Territory,zip,49441,,,,,,49441,,351,1576,101,727,2601,5356,0.83
Liberty Mutual,Auto,zip,Garaging Territory,Territory,zip,49442,,,,,,49442,,351,1576,101,727,2601,5356,0.83
Liberty Mutual,Auto,zip,Garaging Territory,Territory,zip,49443,,,,,,49443,,351,1576,101,727,2601,5356,0.83
Liberty Mutual,Auto,zip,Garaging Territory,Territory,zip,49444,,,,,,49444,,351,1576,101,727,2601,5356,0.83
Liberty Mutual,Auto,zip,Garaging Territory,Territory,zip,49445,,,,,,49445,,351,1576,101,727,2601,5356,0.83
Liberty Mutual,Auto,zip,Garaging Territory,Territory,zip,49757,,,,,,49757,,352,1350,102,1073,2290,5167,0.8
Liberty Mutual,Auto,zip,Garaging Territory,Territory,zip,49759,,,,,,49759,,371,1553,101,1218,2108,5351,0.83
Liberty Mutual,Auto,zip,Garaging Territory,Territory,zip,49760,,,,,,49760,,352,1350,102,1073,2290,5167,0.8
Liberty Mutual,Auto,zip,Garaging Territory,Territory,zip,49761,,,,,,49761,,371,1553,101,1218,2108,5351,0.83
Liberty Mutual,Auto,zip,Garaging Territory,Territory,zip,49762,,,,,,49762,,352,1350,102,1073,2290,5167,0.8
Liberty Mutual,Auto,zip,Garaging Territory,Territory,zip,49764,,,,,,49764,,368,1380,94,818,2673,5333,0.83
Liberty Mutual,Auto,zip,Garaging Territory,Territory,zip,49765,,,,,,49765,,371,1553,101,1218,2108,5351,0.83
Liberty Mutual,Auto,zip,Garaging Territory,Territory,zip,49766,,,,,,49766,,371,1553,101,1218,2108,5351,0.83
Liberty Mutual,Auto,zip,Garaging Territory,Territory,zip,49768,,,,,,49768,,352,1350,102,1073,2290,5167,0.8
Liberty Mutual,Auto,zip,Garaging Territory,Territory,zip,49769,,,,,,49769,,368,1380,94,818,2673,5333,0.83
Liberty Mutual,Auto,zip,Garaging Territory,Territory,zip,49770,,,,,,49770,,368,1380,94,818,2673,5333,0.83
Liberty Mutual,Auto,zip,Garaging Territory,Territory,zip,49774,,,,,,49774,,352,1350,102,1073,2290,5167,0.8
Liberty Mutual,Auto,zip,Garaging Territory,Territory,zip,49775,,,,,,49775,,352,1350,102,1073,2290,5167,0.8
Liberty Mutual,Auto,zip,Garaging Territory,Territory,zip,49776,,,,,,49776,,346,1364,96,1122,2050,4978,0.77
Liberty Mutual,Auto,zip,Garaging Territory,Territory,zip,49777,,,,,,49777,,346,1364,96,1122,2050,4978,0.77
Liberty Mutual,Auto,zip,Garaging Territory,Territory,zip,49779,,,,,,49779,,346,1364,96,1122,2050,4978,0.77
Liberty Mutual,Auto,zip,Garaging Territory,Territory,zip,49780,,,,,,49780,,352,1350,102,1073,2290,5167,0.8
Liberty Mutual,Auto,zip,Garaging Territory,Territory,zip,49781,,,,,,49781,,352,1350,102,1073,2290,5167,0.8
Liberty Mutual,Auto,zip,Garaging Territory,Territory,zip,49782,,,,,,49782,,368,1380,94,818,2673,5333,0.83
Liberty Mutual,Auto,zip,Garaging Territory,Territory,zip,49783,,,,,,49783,,352,1350,102,1073,2290,5167,0.8
Liberty Mutual,Auto,zip,Garaging Territory,Territory,zip,49784,,,,,,49784,,352,1350,102,1073,2290,5167,0.8
Liberty Mutual,Auto,zip,Garaging Territory,Territory,zip,49785,,,,,,49785,,352,1350,102,1073,2290,5167,0.8
Liberty Mutual,Auto,zip,Garaging Territory,Territory,zip,49786,,,,,,49786,,352,1350,102,1073,2290,5167,0.8
Liberty Mutual,Auto,zip,Garaging Territory,Territory,zip,49788,,,,,,49788,,352,1350,102,1073,2290,5167,0.8
Liberty Mutual,Auto,zip,Garaging Territory,Territory,zip,49790,,,,,,49790,,352,1350,102,1073,2290,5167,0.8
Liberty Mutual,Auto,zip,Garaging Territory,Territory,zip,49791,,,,,,49791,,371,1553,101,1218,2108,5351,0.83
Liberty Mutual,Auto,zip,Garaging Territory,Territory,zip,49792,,,,,,49792,,371,1553,101,1218,2108,5351,0.83
Liberty Mutual,Auto,zip,Garaging Territory,Territory,zip,49793,,,,,,49793,,352,1350,102,1073,2290,5167,0.8
Liberty Mutual,Auto,zip,Garaging Territory,Territory,zip,49795,,,,,,49795,,371,1553,101,1218,2108,5351,0.83
Liberty Mutual,Auto,zip,Garaging Territory,Territory,zip,49796,,,,,,49796,,368,1380,94,818,2673,5333,0.83
Liberty Mutual,Auto,zip,Garaging Territory,Territory,zip,49797,,,,,,49797,,371,1553,101,1218,2108,5351,0.83
Liberty Mutual,Auto,zip,Garaging Territory,Territory,zip,49799,,,,,,49799,,371,1553,101,1218,2108,5351,0.83
Liberty Mutual,Auto,zip,Garaging Territory,Territory,zip,49801,,,,,,49801,,381,1570,110,1912,2100,6073,0.94
Liberty Mutual,Auto,zip,Garaging Territory,Territory,zip,49802,,,,,,49802,,381,1570,110,1912,2100,6073,0.94
Liberty Mutual,Auto,zip,Garaging Territory,Territory,zip,49805,,,,,,49805,,381,1570,110,1912,2100,6073,0.94
Liberty Mutual,Auto,zip,Garaging Territory,Territory,zip,49806,,,,,,49806,,352,1350,102,1073,2290,5167,0.8
Liberty Mutual,Auto,zip,Garaging Territory,Territory,zip,49807,,,,,,49807,,381,1570,110,1912,2100,6073,0.94
Liberty Mutual,Auto,zip,Garaging Territory,Territory,zip,49808,,,,,,49808,,352,1350,102,1073,2290,5167,0.8
Liberty Mutual,Auto,zip,Garaging Territory,Territory,zip,49812,,,,,,49812,,381,1570,110,1912,2100,6073,0.94
Liberty Mutual,Auto,zip,Garaging Territory,Territory,zip,49814,,,,,,49814,,352,1350,102,1073,2290,5167,0.8
Liberty Mutual,Auto,zip,Garaging Territory,Territory,zip,49815,,,,,,49815,,381,1570,110,1912,2100,6073,0.94
Liberty Mutual,Auto,zip,Garaging Territory,Territory,zip,49816,,,,,,49816,,352,1350,102,1073,2290,5167,0.8
Liberty Mutual,Auto,zip,Garaging Territory,Territory,zip,49817,,,,,,49817,,352,1350,102,1073,2290,5167,0.8
Liberty Mutual,Auto,zip,Garaging Territory,Territory,zip,49818,,,,,,49818,,381,1570,110,1912,2100,6073,0.94
Liberty Mutual,Auto,zip,Garaging Territory,Territory,zip,49819,,,,,,49819,,352,1350,102,1073,2290,5167,0.8
Liberty Mutual,Auto,zip,Garaging Territory,Territory,zip,49820,,,,,,49820,,352,1350,102,1073,2290,5167,0.8
Liberty Mutual,Auto,zip,Garaging Territory,Territory,zip,49821,,,,,,49821,,381,1570,110,1912,2100,6073,0.94
Liberty Mutual,Auto,zip,Garaging Territory,Territory,zip,49822,,,,,,49822,,352,1350,102,1073,2290,5167,0.8
Liberty Mutual,Auto,zip,Garaging Territory,Territory,zip,49825,,,,,,49825,,352,1350,102,1073,2290,5167,0.8
Liberty Mutual,Auto,zip,Garaging Territory,Territory,zip,49826,,,,,,49826,,352,1350,102,1073,2290,5167,0.8
Liberty Mutual,Auto,zip,Garaging Territory,Territory,zip,49827,,,,,,49827,,352,1350,102,1073,2290,5167,0.8
Liberty Mutual,Auto,zip,Garaging Territory,Territory,zip,49829,,,,,,49829,,381,1570,110,1912,2100,6073,0.94
Liberty Mutual,Auto,zip,Garaging Territory,Territory,zip,49831,,,,,,49831,,381,1570,110,1912,2100,6073,0.94
Liberty Mutual,Auto,zip,Garaging Territory,Territory,zip,49833,,,,,,49833,,352,1350,102,1073,2290,5167,0.8
