company,vehicle_type,factor_circumvented,factor_name,geography_factor,geography_type,geography_factor_id,latitude,longitude,county_fips,tract_fips,block_group_fips,zip,place_name_fips,rate_bi,rate_pd_lpd_ppi,rate_comp,rate_coll,rate_loan,rate_me_wl_acr,rate_um_uim,rate_rent,rate_tow,rate_acpe,rate_comp_trlr,rate_coll_trlr
Progressive,Auto,zip,Vehicle Garaging Location Factor,Territory Code,place_name,1,,,,,,,1,66,31,250,487,23,692,26,30,6,7,75,68
Progressive,Auto,zip,Vehicle Garaging Location Factor,Territory Code,place_name,2,,,,,,,2,77,78,170,319,16,647,25,20,4,5,51,45
Progressive,Auto,zip,Vehicle Garaging Location Factor,Territory Code,place_name,3,,,,,,,3,74,37,333,319,31,449,17,20,4,10,100,45
Progressive,Auto,zip,Vehicle Garaging Location Factor,Territory Code,place_name,4,,,,,,,4,91,33,86,349,8,586,22,22,4,2,26,49
Progressive,Auto,zip,Vehicle Garaging Location Factor,Territory Code,place_name,5,,,,,,,5,91,33,171,535,16,883,34,33,6,5,51,75
Progressive,Auto,zip,Vehicle Garaging Location Factor,Territory Code,place_name,6,,,,,,,6,76,31,357,431,34,540,20,27,5,10,108,61
Progressive,Auto,zip,Vehicle Garaging Location Factor,Territory Code,place_name,7,,,,,,,7,65,44,110,366,10,548,21,23,4,3,33,51
Progressive,Auto,zip,Vehicle Garaging Location Factor,Territory Code,place_name,8,,,,,,,8,80,40,161,392,15,708,27,24,4,4,48,55
Progressive,Auto,zip,Vehicle Garaging Location Factor,Territory Code,place_name,9,,,,,,,9,62,39,510,427,48,472,18,27,5,15,154,60
Progressive,Auto,zip,Vehicle Garaging Location Factor,Territory Code,place_name,10,,,,,,,10,82,36,192,479,18,586,22,30,6,5,58,67
Progressive,Auto,zip,Vehicle Garaging Location Factor,Territory Code,place_name,11,,,,,,,11,85,31,229,384,21,867,33,24,4,6,69,54
Progressive,Auto,zip,Vehicle Garaging Location Factor,Territory Code,place_name,12,,,,,,,12,68,33,246,366,23,700,27,23,4,7,74,51
Progressive,Auto,zip,Vehicle Garaging Location Factor,Territory Code,place_name,13,,,,,,,13,75,30,108,392,10,654,25,24,4,3,32,55
Progressive,Auto,zip,Vehicle Garaging Location Factor,Territory Code,place_name,14,,,,,,,14,76,36,153,341,14,921,35,21,4,4,46,48
Progressive,Auto,zip,Vehicle Garaging Location Factor,Territory Code,place_name,15,,,,,,,15,84,34,340,353,32,677,26,22,4,10,102,50
Progressive,Auto,zip,Vehicle Garaging Location Factor,Territory Code,place_name,16,,,,,,,16,80,32,124,349,11,791,30,22,4,3,37,49
Progressive,Auto,zip,Vehicle Garaging Location Factor,Territory Code,place_name,17,,,,,,,17,58,40,432,289,41,380,14,18,3,13,130,40
Progressive,Auto,zip,Vehicle Garaging Location Factor,Territory Code,place_name,18,,,,,,,18,64,42,604,366,57,395,15,23,4,18,182,51
Progressive,Auto,zip,Vehicle Garaging Location Factor,Territory Code,place_name,19,,,,,,,19,53,31,165,427,15,708,27,27,5,5,49,60
Progressive,Auto,zip,Vehicle Garaging Location Factor,Territory Code,place_name,20,,,,,,,20,58,30,144,349,13,456,17,22,4,4,43,49
Progressive,Auto,zip,Vehicle Garaging Location Factor,Territory Code,place_name,21,,,,,,,21,54,32,238,345,22,433,16,21,4,7,72,48
Progressive,Auto,zip,Vehicle Garaging Location Factor,Territory Code,place_name,22,,,,,,,22,61,33,246,319,23,555,21,20,4,7,74,45
Progressive,Auto,zip,Vehicle Garaging Location Factor,Territory Code,place_name,23,,,,,,,23,66,30,342,392,32,738,28,24,4,10,103,55
Progressive,Auto,zip,Vehicle Garaging Location Factor,Territory Code,place_name,24,,,,,,,24,68,48,571,297,54,357,13,18,3,17,172,42
Progressive,Auto,zip,Vehicle Garaging Location Factor,Territory Code,place_name,25,,,,,,,25,55,31,350,341,33,601,23,21,4,10,106,48
Progressive,Auto,zip,Vehicle Garaging Location Factor,Territory Code,place_name,26,,,,,,,26,74,37,134,457,12,791,30,29,5,4,40,64
Progressive,Auto,zip,Vehicle Garaging Location Factor,Territory Code,place_name,27,,,,,,,27,63,34,284,323,27,814,31,20,4,8,85,45
Progressive,Auto,zip,Vehicle Garaging Location Factor,Territory Code,place_name,28,,,,,,,28,83,34,108,379,10,708,27,24,4,3,32,53
Progressive,Auto,zip,Vehicle Garaging Location Factor,Territory Code,place_name,29,,,,,,,29,86,33,124,431,11,510,19,27,5,3,37,61
Progressive,Auto,zip,Vehicle Garaging Location Factor,Territory Code,place_name,30,,,,,,,30,70,31,507,293,48,433,16,18,3,15,153,41
Progressive,Auto,zip,Vehicle Garaging Location Factor,Territory Code,place_name,31,,,,,,,31,85,55,74,513,7,1020,39,32,6,2,22,72
Progressive,Auto,zip,Vehicle Garaging Location Factor,Territory Code,place_name,32,,,,,,,32,86,56,131,423,12,883,34,26,5,3,39,59
Progressive,Auto,zip,Vehicle Garaging Location Factor,Territory Code,place_name,33,,,,,,,33,85,54,115,474,11,654,25,30,5,3,35,67
Progressive,Auto,zip,Vehicle Garaging Location Factor,Territory Code,place_name,34,,,,,,,34,86,35,91,418,8,753,29,26,5,2,27,59
Progressive,Auto,zip,Vehicle Garaging Location Factor,Territory Code,place_name,35,,,,,,,35,59,31,122,215,11,517,20,13,2,3,37,30
Progressive,Auto,zip,Vehicle Garaging Location Factor,Territory Code,place_name,36,,,,,,,36,49,25,136,435,13,593,23,27,5,4,41,61
Progressive,Auto,zip,Vehicle Garaging Location Factor,Territory Code,place_name,37,,,,,,,37,55,39,296,310,28,609,23,19,3,8,89,43
Progressive,Auto,zip,Vehicle Garaging Location Factor,Territory Code,place_name,38,,,,,,,38,89,30,148,453,14,746,28,28,5,4,44,64
Progressive,Auto,zip,Vehicle Garaging Location Factor,Territory Code,place_name,39,,,,,,,39,58,30,139,453,13,487,18,28,5,4,42,64
Progressive,Auto,zip,Vehicle Garaging Location Factor,Territory Code,place_name,40,,,,,,,40,68,32,129,315,12,525,20,19,3,3,39,44
Progressive,Auto,zip,Vehicle Garaging Location Factor,Territory Code,place_name,41,,,,,,,41,68,30,117,444,11,517,20,28,5,3,35,62
Progressive,Auto,zip,Vehicle Garaging Location Factor,Territory Code,place_name,42,,,,,,,42,59,38,211,353,20,540,20,22,4,6,63,50
Progressive,Auto,zip,Vehicle Garaging Location Factor,Territory Code,place_name,43,,,,,,,43,75,44,161,401,15,472,18,25,5,4,48,56
Progressive,Auto,zip,Vehicle Garaging Location Factor,Territory Code,place_name,44,,,,,,,44,91,34,352,302,33,631,24,19,3,10,106,42
Progressive,Auto,zip,Vehicle Garaging Location Factor,Territory Code,place_name,45,,,,,,,45,85,35,110,384,10,1081,41,24,4,3,33,54
Progressive,Auto,zip,Vehicle Garaging Location Factor,Territory Code,place_name,46,,,,,,,46,85,34,86,474,8,1241,48,30,5,2,26,67
Progressive,Auto,zip,Vehicle Garaging Location Factor,Territory Code,place_name,47,,,,,,,47,79,39,194,500,18,563,21,31,6,5,58,70
Progressive,Auto,zip,Vehicle Garaging Location Factor,Territory Code,place_name,48,,,,,,,48,63,31,287,366,27,730,28,23,4,8,87,51
Progressive,Auto,zip,Vehicle Garaging Location Factor,Territory Code,place_name,49,,,,,,,49,69,42,194,388,18,510,19,24,4,5,58,54
Progressive,Auto,zip,Vehicle Garaging Location Factor,Territory Code,place_name,50,,,,,,,50,89,68,78,440,7,944,36,27,5,2,23,62
Progressive,Auto,zip,Vehicle Garaging Location Factor,Territory Code,place_name,51,,,,,,,51,89,35,100,410,9,601,23,26,5,3,30,57
Progressive,Auto,zip,Vehicle Garaging Location Factor,Territory Code,place_name,52,,,,,,,52,57,32,240,336,22,449,17,21,4,7,72,47
Progressive,Auto,zip,Vehicle Garaging Location Factor,Territory Code,place_name,53,,,,,,,53,60,30,194,444,18,540,20,28,5,5,58,62
Progressive,Auto,zip,Vehicle Garaging Location Factor,Territory Code,place_name,54,,,,,,,54,50,34,284,306,27,593,23,19,3,8,85,43
Progressive,Auto,zip,Vehicle Garaging Location Factor,Territory Code,place_name,55,,,,,,,55,72,33,335,353,32,532,20,22,4,10,101,50
Progressive,Auto,zip,Vehicle Garaging Location Factor,Territory Code,place_name,56,,,,,,,56,75,31,125,401,12,799,30,25,5,3,38,56
Progressive,Auto,zip,Vehicle Garaging Location Factor,Territory Code,place_name,57,,,,,,,57,77,31,112,397,10,654,25,25,4,3,33,56
Progressive,Auto,zip,Vehicle Garaging Location Factor,Territory Code,place_name,58,,,,,,,58,82,36,263,349,25,692,26,22,4,8,79,49
Progressive,Auto,zip,Vehicle Garaging Location Factor,Territory Code,place_name,59,,,,,,,59,59,30,330,358,31,525,20,22,4,10,99,50
Progressive,Auto,zip,Vehicle Garaging Location Factor,Territory Code,place_name,60,,,,,,,60,52,41,112,366,10,289,11,23,4,3,33,51
Progressive,Auto,zip,Vehicle Garaging Location Factor,Territory Code,place_name,61,,,,,,,61,85,34,224,353,21,791,30,22,4,6,67,50
Progressive,Auto,zip,Vehicle Garaging Location Factor,Territory Code,place_name,62,,,,,,,62,71,31,212,371,20,837,32,23,4,6,64,52
Progressive,Auto,zip,Vehicle Garaging Location Factor,Territory Code,place_name,63,,,,,,,63,72,37,726,263,69,411,15,16,3,22,219,37
Progressive,Auto,zip,Vehicle Garaging Location Factor,Territory Code,place_name,64,,,,,,,64,61,28,348,315,33,487,18,19,3,10,105,44
Progressive,Auto,zip,Vehicle Garaging Location Factor,Territory Code,place_name,65,,,,,,,65,69,32,456,405,43,472,18,25,5,13,137,57
Progressive,Auto,zip,Vehicle Garaging Location Factor,Territory Code,place_name,66,,,,,,,66,91,30,95,500,9,997,38,31,6,2,28,70
Progressive,Auto,zip,Vehicle Garaging Location Factor,Territory Code,place_name,67,,,,,,,67,93,29,73,561,6,1210,46,35,7,2,22,79
Progressive,Auto,zip,Vehicle Garaging Location Factor,Territory Code,place_name,68,,,,,,,68,96,36,209,388,20,647,25,24,4,6,63,54
Progressive,Auto,zip,Vehicle Garaging Location Factor,Territory Code,place_name,69,,,,,,,69,63,33,229,423,21,433,16,26,5,6,69,59
Progressive,Auto,zip,Vehicle Garaging Location Factor,Territory Code,place_name,70,,,,,,,70,78,34,108,427,10,723,28,27,5,3,32,60
Progressive,Auto,zip,Vehicle Garaging Location Factor,Territory Code,place_name,71,,,,,,,71,78,42,292,306,27,411,15,19,3,8,88,43
Progressive,Auto,zip,Vehicle Garaging Location Factor,Territory Code,place_name,72,,,,,,,72,86,34,165,375,15,609,23,23,4,5,49,53
Progressive,Auto,zip,Vehicle Garaging Location Factor,Territory Code,place_name,73,,,,,,,73,107,40,195,345,18,784,30,21,4,5,59,48
Progressive,Auto,zip,Vehicle Garaging Location Factor,Territory Code,place_name,74,,,,,,,74,95,29,146,427,13,860,33,27,5,4,44,60
Progressive,Auto,zip,Vehicle Garaging Location Factor,Territory Code,place_name,75,,,,,,,75,82,45,85,405,8,875,33,25,5,2,25,57
Progressive,Auto,zip,Vehicle Garaging Location Factor,Territory Code,place_name,76,,,,,,,76,66,34,250,332,23,418,16,21,4,7,75,46
Progressive,Auto,zip,Vehicle Garaging Location Factor,Territory Code,place_name,77,,,,,,,77,52,37,544,431,52,433,16,27,5,16,164,61
Progressive,Auto,zip,Vehicle Garaging Location Factor,Territory Code,place_name,78,,,,,,,78,89,38,170,405,16,1043,40,25,5,5,51,57
Progressive,Auto,zip,Vehicle Garaging Location Factor,Territory Code,place_name,79,,,,,,,79,81,31,377,410,36,647,25,26,5,11,114,57
Progressive,Auto,zip,Vehicle Garaging Location Factor,Territory Code,place_name,80,,,,,,,80,55,33,125,561,12,403,15,35,7,3,38,79
Progressive,Auto,zip,Vehicle Garaging Location Factor,Territory Code,place_name,81,,,,,,,81,69,31,131,379,12,639,24,24,4,3,39,53
Progressive,Auto,zip,Vehicle Garaging Location Factor,Territory Code,place_name,82,,,,,,,82,102,34,202,543,19,1659,64,34,6,6,61,76
Progressive,Auto,zip,Vehicle Garaging Location Factor,Territory Code,place_name,83,,,,,,,83,123,46,383,703,36,2215,85,44,8,11,115,99
Progressive,Auto,zip,Vehicle Garaging Location Factor,Territory Code,place_name,84,,,,,,,84,66,30,132,332,12,898,34,21,4,4,40,46
Progressive,Auto,zip,Vehicle Garaging Location Factor,Territory Code,place_name,85,,,,,,,85,52,27,212,341,20,647,25,21,4,6,64,48
Progressive,Auto,zip,Vehicle Garaging Location Factor,Territory Code,place_name,86,,,,,,,86,80,30,80,457,7,784,30,29,5,2,24,64
Progressive,Auto,zip,Vehicle Garaging Location Factor,Territory Code,place_name,87,,,,,,,87,62,32,391,310,37,746,28,19,3,11,118,43
Progressive,Auto,zip,Vehicle Garaging Location Factor,Territory Code,place_name,88,,,,,,,88,76,57,125,332,12,472,18,21,4,3,38,46
Progressive,Auto,zip,Vehicle Garaging Location Factor,Territory Code,place_name,89,,,,,,,89,63,27,219,297,20,586,22,18,3,6,66,42
Progressive,Auto,zip,Vehicle Garaging Location Factor,Territory Code,place_name,90,,,,,,,90,52,28,296,306,28,380,14,19,3,8,89,43
Progressive,Auto,zip,Vehicle Garaging Location Factor,Territory Code,place_name,91,,,,,,,91,99,34,296,587,28,1164,45,37,7,8,89,82
Progressive,Auto,zip,Vehicle Garaging Location Factor,Territory Code,place_name,92,,,,,,,92,63,42,229,315,21,395,15,19,3,6,69,44
Progressive,Auto,zip,Vehicle Garaging Location Factor,Territory Code,place_name,93,,,,,,,93,65,30,274,332,26,517,20,21,4,8,82,46
Progressive,Auto,zip,Vehicle Garaging Location Factor,Territory Code,place_name,94,,,,,,,94,101,43,277,530,26,1393,53,33,6,8,83,75
Progressive,Auto,zip,Vehicle Garaging Location Factor,Territory Code,place_name,95,,,,,,,95,74,80,188,358,18,715,27,22,4,5,57,50
Progressive,Auto,zip,Vehicle Garaging Location Factor,Territory Code,place_name,96,,,,,,,96,106,35,103,401,9,677,26,25,5,3,31,56
Progressive,Auto,zip,Vehicle Garaging Location Factor,Territory Code,place_name,97,,,,,,,97,71,32,98,392,9,799,30,24,4,2,29,55
Progressive,Auto,zip,Vehicle Garaging Location Factor,Territory Code,place_name,98,,,,,,,98,74,32,183,535,17,1043,40,33,6,5,55,75
Progressive,Auto,zip,Vehicle Garaging Location Factor,Territory Code,place_name,99,,,,,,,99,59,33,583,293,55,571,22,18,3,17,176,41
Progressive,Auto,zip,Vehicle Garaging Location Factor,Territory Code,place_name,100,,,,,,,100,82,36,117,440,11,936,36,27,5,3,35,62
Progressive,Auto,zip,Vehicle Garaging Location Factor,Territory Code,place_name,101,,,,,,,101,57,31,285,345,27,677,26,21,4,8,86,48
Progressive,Auto,zip,Vehicle Garaging Location Factor,Territory Code,place_name,102,,,,,,,102,90,33,161,366,15,1088,42,23,4,4,48,51
Progressive,Auto,zip,Vehicle Garaging Location Factor,Territory Code,place_name,103,,,,,,,103,85,36,114,535,10,746,28,33,6,3,34,75
Progressive,Auto,zip,Vehicle Garaging Location Factor,Territory Code,place_name,104,,,,,,,104,86,49,68,487,6,639,24,30,6,2,20,68
Progressive,Auto,zip,Vehicle Garaging Location Factor,Territory Code,place_name,105,,,,,,,105,51,43,197,492,18,510,19,31,6,5,59,69
Progressive,Auto,zip,Vehicle Garaging Location Factor,Territory Code,place_name,106,,,,,,,106,60,38,228,323,21,502,19,20,4,6,68,45
Progressive,Auto,zip,Vehicle Garaging Location Factor,Territory Code,place_name,107,,,,,,,107,51,26,137,397,13,357,13,25,4,4,41,56
Progressive,Auto,zip,Vehicle Garaging Location Factor,Territory Code,place_name,108,,,,,,,108,90,61,78,470,7,1149,44,29,5,2,23,66
Progressive,Auto,zip,Vehicle Garaging Location Factor,Territory Code,place_name,109,,,,,,,109,67,30,410,353,39,586,22,22,4,12,124,50
Progressive,Auto,zip,Vehicle Garaging Location Factor,Territory Code,place_name,110,,,,,,,110,60,37,197,423,18,388,15,26,5,5,59,59
Progressive,Auto,zip,Vehicle Garaging Location Factor,Territory Code,place_name,111,,,,,,,111,82,46,108,492,10,837,32,31,6,3,32,69
Progressive,Auto,zip,Vehicle Garaging Location Factor,Territory Code,place_name,112,,,,,,,112,89,35,68,587,6,898,34,37,7,2,20,82
Progressive,Auto,zip,Vehicle Garaging Location Factor,Territory Code,place_name,113,,,,,,,113,89,29,257,310,24,730,28,19,3,7,77,43
Progressive,Auto,zip,Vehicle Garaging Location Factor,Territory Code,place_name,114,,,,,,,114,52,34,124,505,11,418,16,32,6,3,37,71
Progressive,Auto,zip,Vehicle Garaging Location Factor,Territory Code,place_name,115,,,,,,,115,52,30,129,457,12,502,19,29,5,3,39,64
Progressive,Auto,zip,Vehicle Garaging Location Factor,Territory Code,place_name,116,,,,,,,116,86,37,153,306,14,670,25,19,3,4,46,43
Progressive,Auto,zip,Vehicle Garaging Location Factor,Territory Code,place_name,117,,,,,,,117,64,31,78,319,7,708,27,20,4,2,23,45
Progressive,Auto,zip,Vehicle Garaging Location Factor,Territory Code,place_name,118,,,,,,,118,74,32,337,384,32,494,19,24,4,10,101,54
Progressive,Auto,zip,Vehicle Garaging Location Factor,Territory Code,place_name,119,,,,,,,119,92,39,194,574,18,1058,41,36,7,5,58,81
Progressive,Auto,zip,Vehicle Garaging Location Factor,Territory Code,place_name,120,,,,,,,120,87,51,183,440,17,1241,48,27,5,5,55,62
Progressive,Auto,zip,Vehicle Garaging Location Factor,Territory Code,place_name,121,,,,,,,121,108,50,217,453,20,1203,46,28,5,6,65,64
Progressive,Auto,zip,Vehicle Garaging Location Factor,Territory Code,place_name,122,,,,,,,122,60,35,405,423,38,822,31,26,5,12,122,59
Progressive,Auto,zip,Vehicle Garaging Location Factor,Territory Code,place_name,123,,,,,,,123,55,33,320,349,30,487,18,22,4,9,96,49
Progressive,Auto,zip,Vehicle Garaging Location Factor,Territory Code,place_name,124,,,,,,,124,69,43,102,328,9,571,22,20,4,3,30,46
Progressive,Auto,zip,Vehicle Garaging Location Factor,Territory Code,place_name,125,,,,,,,125,58,38,190,353,18,479,18,22,4,5,57,50
Progressive,Auto,zip,Vehicle Garaging Location Factor,Territory Code,place_name,126,,,,,,,126,154,43,311,802,29,2071,80,50,10,9,94,113
Progressive,Auto,zip,Vehicle Garaging Location Factor,Territory Code,place_name,127,,,,,,,127,50,38,199,405,19,403,15,25,5,6,60,57
Progressive,Auto,zip,Vehicle Garaging Location Factor,Territory Code,place_name,128,,,,,,,128,115,33,355,625,34,1644,63,39,7,10,107,88
Progressive,Auto,zip,Vehicle Garaging Location Factor,Territory Code,place_name,129,,,,,,,129,96,29,114,535,10,997,38,33,6,3,34,75
Progressive,Auto,zip,Vehicle Garaging Location Factor,Territory Code,place_name,130,,,,,,,130,63,41,199,302,19,571,22,19,3,6,60,42
Progressive,Auto,zip,Vehicle Garaging Location Factor,Territory Code,place_name,131,,,,,,,131,59,36,282,336,27,548,21,21,4,8,85,47
Progressive,Auto,zip,Vehicle Garaging Location Factor,Territory Code,place_name,132,,,,,,,132,76,30,161,379,15,647,25,24,4,4,48,53
Progressive,Auto,zip,Vehicle Garaging Location Factor,Territory Code,place_name,133,,,,,,,133,124,40,393,729,37,2565,99,46,9,11,118,103
Progressive,Auto,zip,Vehicle Garaging Location Factor,Territory Code,place_name,134,,,,,,,134,73,30,134,371,12,502,19,23,4,4,40,52
Progressive,Auto,zip,Vehicle Garaging Location Factor,Territory Code,place_name,135,,,,,,,135,49,36,195,349,18,517,20,22,4,5,59,49
Progressive,Auto,zip,Vehicle Garaging Location Factor,Territory Code,place_name,136,,,,,,,136,55,33,306,284,29,487,18,18,3,9,92,40
Progressive,Auto,zip,Vehicle Garaging Location Factor,Territory Code,place_name,137,,,,,,,137,71,40,241,530,23,852,33,33,6,7,73,75
Progressive,Auto,zip,Vehicle Garaging Location Factor,Territory Code,place_name,138,,,,,,,138,74,29,69,362,6,449,17,23,4,2,21,51
Progressive,Auto,zip,Vehicle Garaging Location Factor,Territory Code,place_name,139,,,,,,,139,65,31,202,444,19,601,23,28,5,6,61,62
Progressive,Auto,zip,Vehicle Garaging Location Factor,Territory Code,place_name,140,,,,,,,140,88,31,91,349,8,494,19,22,4,2,27,49
Progressive,Auto,zip,Vehicle Garaging Location Factor,Territory Code,place_name,141,,,,,,,141,66,37,161,353,15,426,16,22,4,4,48,50
Progressive,Auto,zip,Vehicle Garaging Location Factor,Territory Code,place_name,142,,,,,,,142,63,37,291,284,27,357,13,18,3,8,88,40
Progressive,Auto,zip,Vehicle Garaging Location Factor,Territory Code,place_name,143,,,,,,,143,55,28,137,453,13,418,16,28,5,4,41,64
Progressive,Auto,zip,Vehicle Garaging Location Factor,Territory Code,place_name,144,,,,,,,144,80,37,110,638,10,1096,42,40,8,3,33,90
Progressive,Auto,zip,Vehicle Garaging Location Factor,Territory Code,place_name,145,,,,,,,145,60,35,400,332,38,441,17,21,4,12,120,46
Progressive,Auto,zip,Vehicle Garaging Location Factor,Territory Code,place_name,146,,,,,,,146,54,38,141,561,13,456,17,35,7,4,42,79
Progressive,Auto,zip,Vehicle Garaging Location Factor,Territory Code,place_name,147,,,,,,,147,94,33,95,461,9,723,28,29,5,2,28,65
Progressive,Auto,zip,Vehicle Garaging Location Factor,Territory Code,place_name,148,,,,,,,148,58,33,241,401,23,791,30,25,5,7,73,56
Progressive,Auto,zip,Vehicle Garaging Location Factor,Territory Code,place_name,149,,,,,,,149,58,36,362,254,34,464,17,16,3,11,109,36
Progressive,Auto,zip,Vehicle Garaging Location Factor,Territory Code,place_name,150,,,,,,,150,63,31,262,388,25,601,23,24,4,7,79,54
Progressive,Auto,zip,Vehicle Garaging Location Factor,Territory Code,place_name,151,,,,,,,151,66,39,323,280,30,502,19,17,3,9,97,39
Progressive,Auto,zip,Vehicle Garaging Location Factor,Territory Code,place_name,152,,,,,,,152,78,31,229,341,21,494,19,21,4,6,69,48
Progressive,Auto,zip,Vehicle Garaging Location Factor,Territory Code,place_name,153,,,,,,,153,80,32,112,375,10,647,25,23,4,3,33,53
Progressive,Auto,zip,Vehicle Garaging Location Factor,Territory Code,place_name,154,,,,,,,154,58,36,127,397,12,395,15,25,4,3,38,56
Progressive,Auto,zip,Vehicle Garaging Location Factor,Territory Code,place_name,155,,,,,,,155,96,31,122,543,11,1477,57,34,6,3,37,76
Progressive,Auto,zip,Vehicle Garaging Location Factor,Territory Code,place_name,156,,,,,,,156,94,32,91,565,8,1515,58,35,7,2,27,79
Progressive,Auto,zip,Vehicle Garaging Location Factor,Territory Code,place_name,157,,,,,,,157,94,33,168,565,16,1393,53,35,7,5,50,79
Progressive,Auto,zip,Vehicle Garaging Location Factor,Territory Code,place_name,158,,,,,,,158,64,31,333,401,31,487,18,25,5,10,100,56
Progressive,Auto,zip,Vehicle Garaging Location Factor,Territory Code,place_name,159,,,,,,,159,89,31,76,565,7,989,38,35,7,2,23,79
Progressive,Auto,zip,Vehicle Garaging Location Factor,Territory Code,place_name,160,,,,,,,160,90,31,64,470,6,928,35,29,5,1,19,66
Progressive,Auto,zip,Vehicle Garaging Location Factor,Territory Code,place_name,161,,,,,,,161,62,32,316,353,30,692,26,22,4,9,95,50
Progressive,Auto,zip,Vehicle Garaging Location Factor,Territory Code,place_name,162,,,,,,,162,52,32,401,414,38,708,27,26,5,12,121,58
Progressive,Auto,zip,Vehicle Garaging Location Factor,Territory Code,place_name,163,,,,,,,163,57,33,410,353,39,555,21,22,4,12,124,50
Progressive,Auto,zip,Vehicle Garaging Location Factor,Territory Code,place_name,164,,,,,,,164,68,54,229,423,21,799,30,26,5,6,69,59
Progressive,Auto,zip,Vehicle Garaging Location Factor,Territory Code,place_name,165,,,,,,,165,80,37,221,371,21,1020,39,23,4,6,66,52
Progressive,Auto,zip,Vehicle Garaging Location Factor,Territory Code,place_name,166,,,,,,,166,88,33,100,431,9,692,26,27,5,3,30,61
Progressive,Auto,zip,Vehicle Garaging Location Factor,Territory Code,place_name,167,,,,,,,167,88,32,122,384,11,494,19,24,4,3,37,54
Progressive,Auto,zip,Vehicle Garaging Location Factor,Territory Code,place_name,168,,,,,,,168,95,32,110,582,10,837,32,36,7,3,33,82
Progressive,Auto,zip,Vehicle Garaging Location Factor,Territory Code,place_name,169,,,,,,,169,71,31,422,263,40,898,34,16,3,12,127,37
Progressive,Auto,zip,Vehicle Garaging Location Factor,Territory Code,place_name,170,,,,,,,170,95,33,480,284,45,837,32,18,3,14,145,40
Progressive,Auto,zip,Vehicle Garaging Location Factor,Territory Code,place_name,171,,,,,,,171,85,59,85,435,8,890,34,27,5,2,25,61
Progressive,Auto,zip,Vehicle Garaging Location Factor,Territory Code,place_name,172,,,,,,,172,81,30,204,323,19,456,17,20,4,6,61,45
Progressive,Auto,zip,Vehicle Garaging Location Factor,Territory Code,place_name,173,,,,,,,173,56,27,134,466,12,449,17,29,5,4,40,65
Progressive,Auto,zip,Vehicle Garaging Location Factor,Territory Code,place_name,174,,,,,,,174,66,28,108,418,10,517,20,26,5,3,32,59
Progressive,Auto,zip,Vehicle Garaging Location Factor,Territory Code,place_name,175,,,,,,,175,93,29,69,410,6,982,38,26,5,2,21,57
Progressive,Auto,zip,Vehicle Garaging Location Factor,Territory Code,place_name,176,,,,,,,176,100,29,83,513,7,1393,53,32,6,2,25,72
Progressive,Auto,zip,Vehicle Garaging Location Factor,Territory Code,place_name,177,,,,,,,177,82,32,120,423,11,593,23,26,5,3,36,59
Progressive,Auto,zip,Vehicle Garaging Location Factor,Territory Code,place_name,178,,,,,,,178,90,31,71,375,6,555,21,23,4,2,21,53
Progressive,Auto,zip,Vehicle Garaging Location Factor,Territory Code,place_name,179,,,,,,,179,58,28,95,349,9,433,16,22,4,2,28,49
Progressive,Auto,zip,Vehicle Garaging Location Factor,Territory Code,place_name,180,,,,,,,180,105,32,165,552,15,1416,54,35,6,5,49,78
Progressive,Auto,zip,Vehicle Garaging Location Factor,Territory Code,place_name,181,,,,,,,181,74,34,102,453,9,677,26,28,5,3,30,64
Progressive,Auto,zip,Vehicle Garaging Location Factor,Territory Code,place_name,182,,,,,,,182,85,34,78,384,7,578,22,24,4,2,23,54
Progressive,Auto,zip,Vehicle Garaging Location Factor,Territory Code,place_name,183,,,,,,,183,85,35,80,448,7,624,24,28,5,2,24,63
Progressive,Auto,zip,Vehicle Garaging Location Factor,Territory Code,place_name,184,,,,,,,184,74,34,146,341,13,494,19,21,4,4,44,48
Progressive,Auto,zip,Vehicle Garaging Location Factor,Territory Code,place_name,185,,,,,,,185,77,32,105,435,10,769,29,27,5,3,31,61
Progressive,Auto,zip,Vehicle Garaging Location Factor,Territory Code,place_name,186,,,,,,,186,52,33,217,280,20,418,16,17,3,6,65,39
Progressive,Auto,zip,Vehicle Garaging Location Factor,Territory Code,place_name,187,,,,,,,187,81,32,338,349,32,685,26,22,4,10,102,49
Progressive,Auto,zip,Vehicle Garaging Location Factor,Territory Code,place_name,188,,,,,,,188,52,36,129,405,12,418,16,25,5,3,39,57
Progressive,Auto,zip,Vehicle Garaging Location Factor,Territory Code,place_name,189,,,,,,,189,63,34,238,328,22,571,22,20,4,7,72,46
Progressive,Auto,zip,Vehicle Garaging Location Factor,Territory Code,place_name,190,,,,,,,190,66,33,296,379,28,517,20,24,4,8,89,53
Progressive,Auto,zip,Vehicle Garaging Location Factor,Territory Code,place_name,191,,,,,,,191,63,34,313,280,29,639,24,17,3,9,94,39
Progressive,Auto,zip,Vehicle Garaging Location Factor,Territory Code,place_name,192,,,,,,,192,82,36,103,565,9,1248,48,35,7,3,31,79
Progressive,Auto,zip,Vehicle Garaging Location Factor,Territory Code,place_name,193,,,,,,,193,83,40,112,384,10,791,30,24,4,3,33,54
Progressive,Auto,zip,Vehicle Garaging Location Factor,Territory Code,place_name,194,,,,,,,194,50,27,183,384,17,449,17,24,4,5,55,54
Progressive,Auto,zip,Vehicle Garaging Location Factor,Territory Code,place_name,195,,,,,,,195,57,33,129,349,12,342,13,22,4,3,39,49
Progressive,Auto,zip,Vehicle Garaging Location Factor,Territory Code,place_name,196,,,,,,,196,71,31,367,276,35,753,29,17,3,11,111,39
Progressive,Auto,zip,Vehicle Garaging Location Factor,Territory Code,place_name,197,,,,,,,197,79,33,435,332,41,723,28,21,4,13,131,46
Progressive,Auto,zip,Vehicle Garaging Location Factor,Territory Code,place_name,198,,,,,,,198,77,28,115,366,11,540,20,23,4,3,35,51
Progressive,Auto,zip,Vehicle Garaging Location Factor,Territory Code,place_name,199,,,,,,,199,67,36,95,358,9,616,23,22,4,2,28,50
Progressive,Auto,zip,Vehicle Garaging Location Factor,Territory Code,place_name,200,,,,,,,200,88,31,108,513,10,1081,41,32,6,3,32,72
Progressive,Auto,zip,Vehicle Garaging Location Factor,Territory Code,place_name,201,,,,,,,201,100,31,142,522,13,1416,54,33,6,4,43,73
Progressive,Auto,zip,Vehicle Garaging Location Factor,Territory Code,place_name,202,,,,,,,202,104,31,240,673,22,1842,71,42,8,7,72,95
Progressive,Auto,zip,Vehicle Garaging Location Factor,Territory Code,place_name,203,,,,,,,203,64,34,243,358,23,1065,41,22,4,7,73,50
Progressive,Auto,zip,Vehicle Garaging Location Factor,Territory Code,place_name,204,,,,,,,204,94,38,137,366,13,1088,42,23,4,4,41,51
Progressive,Auto,zip,Vehicle Garaging Location Factor,Territory Code,place_name,205,,,,,,,205,102,45,301,625,28,1301,50,39,7,9,91,88
Progressive,Auto,zip,Vehicle Garaging Location Factor,Territory Code,place_name,206,,,,,,,206,95,39,98,565,9,730,28,35,7,2,29,79
Progressive,Auto,zip,Vehicle Garaging Location Factor,Territory Code,place_name,207,,,,,,,207,81,32,86,496,8,654,25,31,6,2,26,70
Progressive,Auto,zip,Vehicle Garaging Location Factor,Territory Code,place_name,208,,,,,,,208,80,31,80,405,7,822,31,25,5,2,24,57
Progressive,Auto,zip,Vehicle Garaging Location Factor,Territory Code,place_name,209,,,,,,,209,81,37,170,530,16,1324,51,33,6,5,51,75
Progressive,Auto,zip,Vehicle Garaging Location Factor,Territory Code,place_name,210,,,,,,,210,56,39,263,284,25,616,23,18,3,8,79,40
Progressive,Auto,zip,Vehicle Garaging Location Factor,Territory Code,place_name,211,,,,,,,211,100,111,110,306,10,601,23,19,3,3,33,43
Progressive,Auto,zip,Vehicle Garaging Location Factor,Territory Code,place_name,212,,,,,,,212,55,35,136,323,13,357,13,20,4,4,41,45
Progressive,Auto,zip,Vehicle Garaging Location Factor,Territory Code,place_name,213,,,,,,,213,64,36,148,358,14,464,17,22,4,4,44,50
Progressive,Auto,zip,Vehicle Garaging Location Factor,Territory Code,place_name,214,,,,,,,214,90,33,86,543,8,936,36,34,6,2,26,76
Progressive,Auto,zip,Vehicle Garaging Location Factor,Territory Code,place_name,215,,,,,,,215,96,34,216,587,20,1469,56,37,7,6,65,82
Progressive,Auto,zip,Vehicle Garaging Location Factor,Territory Code,place_name,216,,,,,,,216,49,27,119,366,11,502,19,23,4,3,36,51
Progressive,Auto,zip,Vehicle Garaging Location Factor,Territory Code,place_name,217,,,,,,,217,58,41,195,319,18,571,22,20,4,5,59,45
Progressive,Auto,zip,Vehicle Garaging Location Factor,Territory Code,place_name,218,,,,,,,218,48,32,154,509,14,433,16,32,6,4,46,72
Progressive,Auto,zip,Vehicle Garaging Location Factor,Territory Code,place_name,219,,,,,,,219,72,29,105,440,10,715,27,27,5,3,31,62
Progressive,Auto,zip,Vehicle Garaging Location Factor,Territory Code,place_name,220,,,,,,,220,69,34,170,375,16,449,17,23,4,5,51,53
Progressive,Auto,zip,Vehicle Garaging Location Factor,Territory Code,place_name,221,,,,,,,221,55,31,413,280,39,403,15,17,3,12,125,39
Progressive,Auto,zip,Vehicle Garaging Location Factor,Territory Code,place_name,222,,,,,,,222,82,33,110,518,10,1073,41,32,6,3,33,73
Progressive,Auto,zip,Vehicle Garaging Location Factor,Territory Code,place_name,223,,,,,,,223,82,37,354,297,33,563,21,18,3,10,107,42
Progressive,Auto,zip,Vehicle Garaging Location Factor,Territory Code,place_name,224,,,,,,,224,113,80,153,379,14,426,16,24,4,4,46,53
Progressive,Auto,zip,Vehicle Garaging Location Factor,Territory Code,place_name,225,,,,,,,225,60,40,153,332,14,418,16,21,4,4,46,46
Progressive,Auto,zip,Vehicle Garaging Location Factor,Territory Code,place_name,226,,,,,,,226,91,33,74,423,7,928,35,26,5,2,22,59
Progressive,Auto,zip,Vehicle Garaging Location Factor,Territory Code,place_name,227,,,,,,,227,61,29,418,306,40,708,27,19,3,12,126,43
Progressive,Auto,zip,Vehicle Garaging Location Factor,Territory Code,place_name,228,,,,,,,228,54,29,141,375,13,677,26,23,4,4,42,53
Progressive,Auto,zip,Vehicle Garaging Location Factor,Territory Code,place_name,229,,,,,,,229,82,32,88,401,8,837,32,25,5,2,26,56
Progressive,Auto,zip,Vehicle Garaging Location Factor,Territory Code,place_name,230,,,,,,,230,82,31,139,578,13,1225,47,36,7,4,42,81
Progressive,Auto,zip,Vehicle Garaging Location Factor,Territory Code,place_name,231,,,,,,,231,80,31,100,535,9,685,26,33,6,3,30,75
Progressive,Auto,zip,Vehicle Garaging Location Factor,Territory Code,place_name,232,,,,,,,232,81,30,66,414,6,875,33,26,5,2,20,58
Progressive,Auto,zip,Vehicle Garaging Location Factor,Territory Code,place_name,233,,,,,,,233,81,30,139,561,13,1370,53,35,7,4,42,79
Progressive,Auto,zip,Vehicle Garaging Location Factor,Territory Code,place_name,234,,,,,,,234,91,39,153,539,14,997,38,34,6,4,46,76
Progressive,Auto,zip,Vehicle Garaging Location Factor,Territory Code,place_name,235,,,,,,,235,85,36,146,539,13,1294,50,34,6,4,44,76
Progressive,Auto,zip,Vehicle Garaging Location Factor,Territory Code,place_name,236,,,,,,,236,60,29,282,392,27,578,22,24,4,8,85,55
Progressive,Auto,zip,Vehicle Garaging Location Factor,Territory Code,place_name,237,,,,,,,237,76,37,102,410,9,807,31,26,5,3,30,57
Progressive,Auto,zip,Vehicle Garaging Location Factor,Territory Code,place_name,238,,,,,,,238,55,33,129,526,12,494,19,33,6,3,39,74
Progressive,Auto,zip,Vehicle Garaging Location Factor,Territory Code,place_name,239,,,,,,,239,70,33,114,505,10,875,33,32,6,3,34,71
Progressive,Auto,zip,Vehicle Garaging Location Factor,Territory Code,place_name,240,,,,,,,240,87,39,129,401,12,753,29,25,5,3,39,56
Progressive,Auto,zip,Vehicle Garaging Location Factor,Territory Code,place_name,241,,,,,,,241,80,40,105,392,10,708,27,24,4,3,31,55
Progressive,Auto,zip,Vehicle Garaging Location Factor,Territory Code,place_name,242,,,,,,,242,56,37,149,302,14,411,15,19,3,4,45,42
Progressive,Auto,zip,Vehicle Garaging Location Factor,Territory Code,place_name,243,,,,,,,243,85,37,137,384,13,799,30,24,4,4,41,54
Progressive,Auto,zip,Vehicle Garaging Location Factor,Territory Code,place_name,244,,,,,,,244,85,37,248,569,23,799,30,36,7,7,75,80
Progressive,Auto,zip,Vehicle Garaging Location Factor,Territory Code,place_name,245,,,,,,,245,85,37,137,384,13,799,30,24,4,4,41,54
Progressive,Auto,zip,Vehicle Garaging Location Factor,Territory Code,place_name,246,,,,,,,246,82,45,102,556,9,753,29,35,6,3,30,78
Progressive,Auto,zip,Vehicle Garaging Location Factor,Territory Code,place_name,247,,,,,,,247,90,50,100,401,9,829,32,25,5,3,30,56
Progressive,Auto,zip,Vehicle Garaging Location Factor,Territory Code,place_name,248,,,,,,,248,83,38,354,470,33,746,28,29,5,10,107,66
Progressive,Auto,zip,Vehicle Garaging Location Factor,Territory Code,place_name,249,,,,,,,249,79,39,127,518,12,936,36,32,6,3,38,73
Progressive,Auto,zip,Vehicle Garaging Location Factor,Territory Code,place_name,250,,,,,,,250,88,31,93,319,8,586,22,20,4,2,28,45
Progressive,Auto,zip,Vehicle Garaging Location Factor,Territory Code,place_name,251,,,,,,,251,76,43,100,410,9,685,26,26,5,3,30,57
Progressive,Auto,zip,Vehicle Garaging Location Factor,Territory Code,place_name,252,,,,,,,252,79,53,86,358,8,647,25,22,4,2,26,50
Progressive,Auto,zip,Vehicle Garaging Location Factor,Territory Code,place_name,253,,,,,,,253,86,38,90,569,8,1271,49,36,7,2,27,80
Progressive,Auto,zip,Vehicle Garaging Location Factor,Territory Code,place_name,254,,,,,,,254,52,43,149,474,14,365,14,30,5,4,45,67
Progressive,Auto,zip,Vehicle Garaging Location Factor,Territory Code,place_name,255,,,,,,,255,63,35,219,302,20,654,25,19,3,6,66,42
Progressive,Auto,zip,Vehicle Garaging Location Factor,Territory Code,place_name,256,,,,,,,256,91,37,156,474,14,654,25,30,5,4,47,67
Progressive,Auto,zip,Vehicle Garaging Location Factor,Territory Code,place_name,257,,,,,,,257,88,29,78,431,7,1005,38,27,5,2,23,61
Progressive,Auto,zip,Vehicle Garaging Location Factor,Territory Code,place_name,258,,,,,,,258,88,29,139,353,13,601,23,22,4,4,42,50
Progressive,Auto,zip,Vehicle Garaging Location Factor,Territory Code,place_name,259,,,,,,,259,78,42,163,306,15,685,26,19,3,4,49,43
Progressive,Auto,zip,Vehicle Garaging Location Factor,Territory Code,place_name,260,,,,,,,260,86,34,165,561,15,1020,39,35,7,5,49,79
Progressive,Auto,zip,Vehicle Garaging Location Factor,Territory Code,place_name,261,,,,,,,261,107,40,195,345,18,784,30,21,4,5,59,48
Progressive,Auto,zip,Vehicle Garaging Location Factor,Territory Code,place_name,262,,,,,,,262,89,38,95,500,9,624,24,31,6,2,28,70
Progressive,Auto,zip,Vehicle Garaging Location Factor,Territory Code,place_name,263,,,,,,,263,76,57,125,315,12,616,23,19,3,3,38,44
Progressive,Auto,zip,Vehicle Garaging Location Factor,Territory Code,place_name,264,,,,,,,264,59,37,178,448,17,426,16,28,5,5,54,63
Progressive,Auto,zip,Vehicle Garaging Location Factor,Territory Code,place_name,265,,,,,,,265,52,38,158,310,15,373,14,19,3,4,47,43
Progressive,Auto,zip,Vehicle Garaging Location Factor,Territory Code,place_name,266,,,,,,,266,91,37,156,371,14,654,25,23,4,4,47,52
Progressive,Auto,zip,Vehicle Garaging Location Factor,Territory Code,place_name,267,,,,,,,267,91,37,86,457,8,700,27,29,5,2,26,64
Progressive,Auto,zip,Vehicle Garaging Location Factor,Territory Code,place_name,268,,,,,,,268,99,34,251,587,24,1560,60,37,7,7,76,82
Progressive,Auto,zip,Vehicle Garaging Location Factor,Territory Code,place_name,269,,,,,,,269,58,28,388,427,37,433,16,27,5,11,117,60
Progressive,Auto,zip,Vehicle Garaging Location Factor,Territory Code,place_name,270,,,,,,,270,82,36,296,310,28,692,26,19,3,8,89,43
Progressive,Auto,zip,Vehicle Garaging Location Factor,Territory Code,place_name,271,,,,,,,271,88,31,119,336,11,936,36,21,4,3,36,47
Progressive,Auto,zip,Vehicle Garaging Location Factor,Territory Code,place_name,272,,,,,,,272,88,31,93,414,8,586,22,26,5,2,28,58
Progressive,Auto,zip,Vehicle Garaging Location Factor,Territory Code,place_name,273,,,,,,,273,82,45,102,453,9,867,33,28,5,3,30,64
Progressive,Auto,zip,Vehicle Garaging Location Factor,Territory Code,place_name,274,,,,,,,274,54,37,311,306,29,380,14,19,3,9,94,43
Progressive,Auto,zip,Vehicle Garaging Location Factor,Territory Code,place_name,275,,,,,,,275,71,60,117,341,11,449,17,21,4,3,35,48
Progressive,Auto,zip,Vehicle Garaging Location Factor,Territory Code,place_name,276,,,,,,,276,82,36,165,310,15,692,26,19,3,5,49,43
Progressive,Auto,zip,Vehicle Garaging Location Factor,Territory Code,place_name,277,,,,,,,277,82,36,296,461,28,692,26,29,5,8,89,65
Progressive,Auto,zip,Vehicle Garaging Location Factor,Territory Code,place_name,278,,,,,,,278,86,51,136,500,13,1012,39,31,6,4,41,70
Progressive,Auto,zip,Vehicle Garaging Location Factor,Territory Code,place_name,279,,,,,,,279,60,36,158,315,15,411,15,19,3,4,47,44
Progressive,Auto,zip,Vehicle Garaging Location Factor,Territory Code,place_name,280,,,,,,,280,60,36,241,332,23,411,15,21,4,7,73,46
Progressive,Auto,zip,Vehicle Garaging Location Factor,Territory Code,place_name,281,,,,,,,281,64,45,350,302,33,388,15,19,3,10,106,42
Progressive,Auto,zip,Vehicle Garaging Location Factor,Territory Code,place_name,282,,,,,,,282,67,29,100,461,9,540,20,29,5,3,30,65
Progressive,Auto,zip,Vehicle Garaging Location Factor,Territory Code,place_name,283,,,,,,,283,66,30,151,375,14,472,18,23,4,4,45,53
Progressive,Auto,zip,Vehicle Garaging Location Factor,Territory Code,place_name,284,,,,,,,284,60,30,313,435,29,441,17,27,5,9,94,61
Progressive,Auto,zip,Vehicle Garaging Location Factor,Territory Code,place_name,285,,,,,,,285,107,32,78,397,7,708,27,25,4,2,23,56
Progressive,Auto,zip,Vehicle Garaging Location Factor,Territory Code,place_name,286,,,,,,,286,107,32,78,591,7,814,31,37,7,2,23,83
Progressive,Auto,zip,Vehicle Garaging Location Factor,Territory Code,place_name,287,,,,,,,287,68,48,318,423,30,388,15,26,5,9,96,59
Progressive,Auto,zip,Vehicle Garaging Location Factor,Territory Code,place_name,288,,,,,,,288,86,37,207,306,19,670,25,19,3,6,62,43
Progressive,Auto,zip,Vehicle Garaging Location Factor,Territory Code,place_name,289,,,,,,,289,51,26,90,444,8,357,13,28,5,2,27,62
Progressive,Auto,zip,Vehicle Garaging Location Factor,Territory Code,place_name,290,,,,,,,290,63,32,124,418,11,403,15,26,5,3,37,59
Progressive,Auto,zip,Vehicle Garaging Location Factor,Territory Code,place_name,291,,,,,,,291,52,43,209,397,20,487,18,25,4,6,63,56
Progressive,Auto,zip,Vehicle Garaging Location Factor,Territory Code,place_name,292,,,,,,,292,82,36,296,310,28,746,28,19,3,8,89,43
Progressive,Auto,zip,Vehicle Garaging Location Factor,Territory Code,place_name,293,,,,,,,293,82,36,267,310,25,692,26,19,3,8,80,43
Progressive,Auto,zip,Vehicle Garaging Location Factor,Territory Code,place_name,294,,,,,,,294,57,37,299,280,28,380,14,17,3,9,90,39
Progressive,Auto,zip,Vehicle Garaging Location Factor,Territory Code,place_name,295,,,,,,,295,95,33,142,487,13,730,28,30,6,4,43,68
Progressive,Auto,zip,Vehicle Garaging Location Factor,Territory Code,place_name,296,,,,,,,296,75,30,108,587,10,609,23,37,7,3,32,82
Progressive,Auto,zip,Vehicle Garaging Location Factor,Territory Code,place_name,297,,,,,,,297,51,60,204,332,19,365,14,21,4,6,61,46
Progressive,Auto,zip,Vehicle Garaging Location Factor,Territory Code,place_name,298,,,,,,,298,88,31,168,431,16,982,38,27,5,5,50,61
Progressive,Auto,zip,Vehicle Garaging Location Factor,Territory Code,place_name,299,,,,,,,299,80,28,194,319,18,692,26,20,4,5,58,45
Progressive,Auto,zip,Vehicle Garaging Location Factor,Territory Code,place_name,300,,,,,,,300,52,43,268,388,25,418,16,24,4,8,81,54
Progressive,Auto,zip,Vehicle Garaging Location Factor,Territory Code,place_name,301,,,,,,,301,82,32,228,505,21,593,23,32,6,6,68,71
Progressive,Auto,zip,Vehicle Garaging Location Factor,Territory Code,place_name,302,,,,,,,302,63,35,272,293,26,464,17,18,3,8,82,41
Progressive,Auto,zip,Vehicle Garaging Location Factor,Territory Code,place_name,303,,,,,,,303,85,29,163,423,15,540,20,26,5,4,49,59
Progressive,Auto,zip,Vehicle Garaging Location Factor,Territory Code,place_name,304,,,,,,,304,83,38,372,315,35,746,28,19,3,11,112,44
Progressive,Auto,zip,Vehicle Garaging Location Factor,Territory Code,place_name,305,,,,,,,305,83,38,372,470,35,746,28,29,5,11,112,66
Progressive,Auto,zip,Vehicle Garaging Location Factor,Territory Code,place_name,306,,,,,,,306,89,38,103,427,9,670,25,27,5,3,31,60
Progressive,Auto,zip,Vehicle Garaging Location Factor,Territory Code,place_name,307,,,,,,,307,50,40,139,310,13,342,13,19,3,4,42,43
Progressive,Auto,zip,Vehicle Garaging Location Factor,Territory Code,place_name,308,,,,,,,308,58,29,306,280,29,342,13,17,3,9,92,39
Progressive,Auto,zip,Vehicle Garaging Location Factor,Territory Code,place_name,309,,,,,,,309,83,79,195,323,18,487,18,20,4,5,59,45
Progressive,Auto,zip,Vehicle Garaging Location Factor,Territory Code,place_name,310,,,,,,,310,71,32,154,397,14,586,22,25,4,4,46,56
Progressive,Auto,zip,Vehicle Garaging Location Factor,Territory Code,place_name,311,,,,,,,311,65,25,289,267,27,426,16,16,3,8,87,37
Progressive,Auto,zip,Vehicle Garaging Location Factor,Territory Code,place_name,312,,,,,,,312,52,38,284,461,27,403,15,29,5,8,85,65
Progressive,Auto,zip,Vehicle Garaging Location Factor,Territory Code,place_name,313,,,,,,,313,64,33,240,297,22,548,21,18,3,7,72,42
Progressive,Auto,zip,Vehicle Garaging Location Factor,Territory Code,place_name,314,,,,,,,314,62,37,166,397,15,449,17,25,4,5,50,56
Progressive,Auto,zip,Vehicle Garaging Location Factor,Territory Code,place_name,315,,,,,,,315,83,36,280,349,26,631,24,22,4,8,84,49
Progressive,Auto,zip,Vehicle Garaging Location Factor,Territory Code,place_name,316,,,,,,,316,71,40,170,552,16,1164,45,35,6,5,51,78
Progressive,Auto,zip,Vehicle Garaging Location Factor,Territory Code,place_name,317,,,,,,,317,83,79,148,431,14,487,18,27,5,4,44,61
Progressive,Auto,zip,Vehicle Garaging Location Factor,Territory Code,place_name,318,,,,,,,318,78,26,277,423,26,593,23,26,5,8,83,59
Progressive,Auto,zip,Vehicle Garaging Location Factor,Territory Code,place_name,319,,,,,,,319,86,34,91,397,8,609,23,25,4,2,27,56
Progressive,Auto,zip,Vehicle Garaging Location Factor,Territory Code,place_name,320,,,,,,,320,68,32,284,263,27,517,20,16,3,8,85,37
Progressive,Auto,zip,Vehicle Garaging Location Factor,Territory Code,place_name,321,,,,,,,321,92,29,151,466,14,890,34,29,5,4,45,65
Progressive,Auto,zip,Vehicle Garaging Location Factor,Territory Code,place_name,322,,,,,,,322,67,30,243,293,23,540,20,18,3,7,73,41
Progressive,Auto,zip,Vehicle Garaging Location Factor,Territory Code,place_name,323,,,,,,,323,88,29,78,530,7,601,23,33,6,2,23,75
Progressive,Auto,zip,Vehicle Garaging Location Factor,Territory Code,place_name,324,,,,,,,324,56,37,149,401,14,411,15,25,5,4,45,56
Progressive,Auto,zip,Vehicle Garaging Location Factor,Territory Code,place_name,325,,,,,,,325,66,30,303,410,28,472,18,26,5,9,91,57
Progressive,Auto,zip,Vehicle Garaging Location Factor,Territory Code,place_name,326,,,,,,,326,67,29,117,328,11,700,27,20,4,3,35,46
Progressive,Auto,zip,Vehicle Garaging Location Factor,Territory Code,place_name,327,,,,,,,327,59,34,217,224,20,525,20,14,2,6,65,31
Progressive,Auto,zip,Vehicle Garaging Location Factor,Territory Code,place_name,328,,,,,,,328,71,33,398,435,38,510,19,27,5,12,120,61
Progressive,Auto,zip,Vehicle Garaging Location Factor,Territory Code,place_name,329,,,,,,,329,74,32,308,379,29,753,29,24,4,9,93,53
Progressive,Auto,zip,Vehicle Garaging Location Factor,Territory Code,place_name,330,,,,,,,330,84,33,119,349,11,1157,44,22,4,3,36,49
Progressive,Auto,zip,Vehicle Garaging Location Factor,Territory Code,place_name,331,,,,,,,331,58,38,240,276,22,479,18,17,3,7,72,39
Progressive,Auto,zip,Vehicle Garaging Location Factor,Territory Code,place_name,332,,,,,,,332,57,37,171,284,16,319,12,18,3,5,51,40
Progressive,Auto,zip,Vehicle Garaging Location Factor,Territory Code,place_name,333,,,,,,,333,67,29,178,310,17,540,20,19,3,5,54,43
Progressive,Auto,zip,Vehicle Garaging Location Factor,Territory Code,place_name,334,,,,,,,334,61,41,219,306,20,426,16,19,3,6,66,43
Progressive,Auto,zip,Vehicle Garaging Location Factor,Territory Code,place_name,335,,,,,,,335,86,49,98,453,9,928,35,28,5,2,29,64
Progressive,Auto,zip,Vehicle Garaging Location Factor,Territory Code,place_name,336,,,,,,,336,88,37,170,401,16,799,30,25,5,5,51,56
Progressive,Auto,zip,Vehicle Garaging Location Factor,Territory Code,place_name,337,,,,,,,337,94,38,160,405,15,654,25,25,5,4,48,57
Progressive,Auto,zip,Vehicle Garaging Location Factor,Territory Code,place_name,338,,,,,,,338,73,39,108,448,10,464,17,28,5,3,32,63
Progressive,Auto,zip,Vehicle Garaging Location Factor,Territory Code,place_name,339,,,,,,,339,80,37,129,371,12,639,24,23,4,3,39,52
Progressive,Auto,zip,Vehicle Garaging Location Factor,Territory Code,place_name,340,,,,,,,340,80,37,233,371,22,639,24,23,4,7,70,52
Progressive,Auto,zip,Vehicle Garaging Location Factor,Territory Code,place_name,341,,,,,,,341,50,38,233,315,22,403,15,19,3,7,70,44
Progressive,Auto,zip,Vehicle Garaging Location Factor,Territory Code,place_name,342,,,,,,,342,85,34,97,323,9,685,26,20,4,2,29,45
Progressive,Auto,zip,Vehicle Garaging Location Factor,Territory Code,place_name,343,,,,,,,343,55,40,216,259,20,449,17,16,3,6,65,36
Progressive,Auto,zip,Vehicle Garaging Location Factor,Territory Code,place_name,344,,,,,,,344,79,39,127,418,12,685,26,26,5,3,38,59
Progressive,Auto,zip,Vehicle Garaging Location Factor,Territory Code,place_name,345,,,,,,,345,69,31,270,267,25,494,19,16,3,8,81,37
Progressive,Auto,zip,Vehicle Garaging Location Factor,Territory Code,place_name,346,,,,,,,346,86,34,91,561,8,609,23,35,7,2,27,79
Progressive,Auto,zip,Vehicle Garaging Location Factor,Territory Code,place_name,347,,,,,,,347,60,37,199,457,19,449,17,29,5,6,60,64
Progressive,Auto,zip,Vehicle Garaging Location Factor,Territory Code,place_name,348,,,,,,,348,88,29,108,444,10,799,30,28,5,3,32,62
Progressive,Auto,zip,Vehicle Garaging Location Factor,Territory Code,place_name,349,,,,,,,349,94,43,102,405,9,601,23,25,5,3,30,57
Progressive,Auto,zip,Vehicle Garaging Location Factor,Territory Code,place_name,350,,,,,,,350,63,36,115,323,11,586,22,20,4,3,35,45
Progressive,Auto,zip,Vehicle Garaging Location Factor,Territory Code,place_name,351,,,,,,,351,68,31,330,254,31,502,19,16,3,10,99,36
Progressive,Auto,zip,Vehicle Garaging Location Factor,Territory Code,place_name,352,,,,,,,352,64,45,628,302,60,388,15,19,3,19,189,42
Progressive,Auto,zip,Vehicle Garaging Location Factor,Territory Code,place_name,353,,,,,,,353,91,32,95,608,9,1164,45,38,7,2,28,86
Progressive,Auto,zip,Vehicle Garaging Location Factor,Territory Code,place_name,354,,,,,,,354,91,32,95,608,9,807,31,38,7,2,28,86
Progressive,Auto,zip,Vehicle Garaging Location Factor,Territory Code,place_name,355,,,,,,,355,57,45,129,375,12,350,13,23,4,3,39,53
Progressive,Auto,zip,Vehicle Garaging Location Factor,Territory Code,place_name,356,,,,,,,356,73,31,185,297,17,472,18,18,3,5,56,42
Progressive,Auto,zip,Vehicle Garaging Location Factor,Territory Code,place_name,357,,,,,,,357,95,33,160,526,15,631,24,33,6,4,48,74
Progressive,Auto,zip,Vehicle Garaging Location Factor,Territory Code,place_name,358,,,,,,,358,55,32,291,375,27,692,26,23,4,8,88,53
Progressive,Auto,zip,Vehicle Garaging Location Factor,Territory Code,place_name,359,,,,,,,359,64,34,335,401,32,426,16,25,5,10,101,56
Progressive,Auto,zip,Vehicle Garaging Location Factor,Territory Code,place_name,360,,,,,,,360,66,31,142,384,13,517,20,24,4,4,43,54
Progressive,Auto,zip,Vehicle Garaging Location Factor,Territory Code,place_name,361,,,,,,,361,60,29,468,405,44,525,20,25,5,14,141,57
Progressive,Auto,zip,Vehicle Garaging Location Factor,Territory Code,place_name,362,,,,,,,362,60,43,362,397,34,654,25,25,4,11,109,56
Progressive,Auto,zip,Vehicle Garaging Location Factor,Territory Code,place_name,363,,,,,,,363,69,25,401,401,38,449,17,25,5,12,121,56
Progressive,Auto,zip,Vehicle Garaging Location Factor,Territory Code,place_name,364,,,,,,,364,71,41,638,263,61,411,15,16,3,19,193,37
Progressive,Auto,zip,Vehicle Garaging Location Factor,Territory Code,place_name,365,,,,,,,365,62,34,202,319,19,418,16,20,4,6,61,45
Progressive,Auto,zip,Vehicle Garaging Location Factor,Territory Code,place_name,366,,,,,,,366,66,33,285,310,27,464,17,19,3,8,86,43
Progressive,Auto,zip,Vehicle Garaging Location Factor,Territory Code,place_name,367,,,,,,,367,73,33,108,539,10,654,25,34,6,3,32,76
Progressive,Auto,zip,Vehicle Garaging Location Factor,Territory Code,place_name,368,,,,,,,368,64,36,168,470,16,433,16,29,5,5,50,66
Progressive,Auto,zip,Vehicle Garaging Location Factor,Territory Code,place_name,369,,,,,,,369,74,26,149,371,14,586,22,23,4,4,45,52
Progressive,Auto,zip,Vehicle Garaging Location Factor,Territory Code,place_name,370,,,,,,,370,80,37,110,664,10,654,25,42,8,3,33,93
Progressive,Auto,zip,Vehicle Garaging Location Factor,Territory Code,place_name,371,,,,,,,371,73,31,211,371,20,472,18,23,4,6,63,52
Progressive,Auto,zip,Vehicle Garaging Location Factor,Territory Code,place_name,372,,,,,,,372,56,36,495,293,47,464,17,18,3,15,149,41
Progressive,Auto,zip,Vehicle Garaging Location Factor,Territory Code,place_name,373,,,,,,,373,60,37,139,319,13,433,16,20,4,4,42,45
Progressive,Auto,zip,Vehicle Garaging Location Factor,Territory Code,place_name,374,,,,,,,374,58,34,384,392,36,395,15,24,4,11,116,55
Progressive,Auto,zip,Vehicle Garaging Location Factor,Territory Code,place_name,375,,,,,,,375,58,36,597,250,57,494,19,15,3,18,180,35
Progressive,Auto,zip,Vehicle Garaging Location Factor,Territory Code,place_name,376,,,,,,,376,68,29,115,483,11,723,28,30,6,3,35,68
Progressive,Auto,zip,Vehicle Garaging Location Factor,Territory Code,place_name,377,,,,,,,377,73,33,136,500,13,1088,42,31,6,4,41,70
Progressive,Auto,zip,Vehicle Garaging Location Factor,Territory Code,place_name,378,,,,,,,378,82,27,219,310,20,532,20,19,3,6,66,43
Progressive,Auto,zip,Vehicle Garaging Location Factor,Territory Code,place_name,379,,,,,,,379,63,27,173,280,16,449,17,17,3,5,52,39
Progressive,Auto,zip,Vehicle Garaging Location Factor,Territory Code,place_name,380,,,,,,,380,69,31,170,410,16,586,22,26,5,5,51,57
Progressive,Auto,zip,Vehicle Garaging Location Factor,Territory Code,place_name,381,,,,,,,381,84,41,223,319,21,654,25,20,4,6,67,45
Progressive,Auto,zip,Vehicle Garaging Location Factor,Territory Code,place_name,382,,,,,,,382,84,41,124,479,11,654,25,30,6,3,37,67
Progressive,Auto,zip,Vehicle Garaging Location Factor,Territory Code,place_name,383,,,,,,,383,95,29,117,427,11,662,25,27,5,3,35,60
Progressive,Auto,zip,Vehicle Garaging Location Factor,Territory Code,place_name,384,,,,,,,384,63,24,364,315,34,730,28,19,3,11,110,44
Progressive,Auto,zip,Vehicle Garaging Location Factor,Territory Code,place_name,385,,,,,,,385,60,36,158,315,15,411,15,19,3,4,47,44
Progressive,Auto,zip,Vehicle Garaging Location Factor,Territory Code,place_name,386,,,,,,,386,51,32,154,431,14,517,20,27,5,4,46,61
Progressive,Auto,zip,Vehicle Garaging Location Factor,Territory Code,place_name,387,,,,,,,387,79,53,182,418,17,624,24,26,5,5,55,59
Progressive,Auto,zip,Vehicle Garaging Location Factor,Territory Code,place_name,388,,,,,,,388,63,42,137,297,13,472,18,18,3,4,41,42
Progressive,Auto,zip,Vehicle Garaging Location Factor,Territory Code,place_name,389,,,,,,,389,95,29,95,638,9,761,29,40,8,2,28,90
Progressive,Auto,zip,Vehicle Garaging Location Factor,Territory Code,place_name,390,,,,,,,390,82,33,131,556,12,1012,39,35,6,3,39,78
Progressive,Auto,zip,Vehicle Garaging Location Factor,Territory Code,place_name,391,,,,,,,391,83,38,372,315,35,746,28,19,3,11,112,44
Progressive,Auto,zip,Vehicle Garaging Location Factor,Territory Code,place_name,392,,,,,,,392,49,29,93,401,8,373,14,25,5,2,28,56
